{"type":"FeatureCollection","name":"Defensiegebieden","source":"Afgeleid uit nl/uas-zones.json, AIP Nederland ENR 5.3, uitgave 22 juli 2024. Cirkels zijn benaderd met 64 punten.","features":[{"type":"Feature","properties":{"identifier":"3.a","name":"Arnhemse Heide Defensiegebied","restriction":"CONDITIONAL","rule":"Vluchten in de OPEN categorie zijn hier niet toegestaan","category":"defensie","source":"AIP Nederland ENR 5.3, ED-269, 22 juli 2024"},"geometry":{"type":"Polygon","coordinates":[[[5.905,52.057724],[5.906718,52.057672],[5.908419,52.057517],[5.910088,52.05726],[5.911708,52.056904],[5.913262,52.056451],[5.914738,52.055908],[5.916119,52.055277],[5.917394,52.054567],[5.918549,52.053783],[5.919574,52.052933],[5.920458,52.052026],[5.921193,52.05107],[5.921773,52.050074],[5.922191,52.049047],[5.922443,52.048001],[5.922528,52.046944],[5.922443,52.045888],[5.922191,52.044841],[5.921773,52.043815],[5.921193,52.042819],[5.920458,52.041863],[5.919574,52.040956],[5.918549,52.040106],[5.917394,52.039322],[5.916119,52.038612],[5.914738,52.037981],[5.913262,52.037438],[5.911708,52.036985],[5.910088,52.036629],[5.908419,52.036372],[5.906718,52.036217],[5.905,52.036165],[5.903282,52.036217],[5.901581,52.036372],[5.899912,52.036629],[5.898292,52.036985],[5.896738,52.037438],[5.895262,52.037981],[5.893881,52.038612],[5.892606,52.039322],[5.891451,52.040106],[5.890426,52.040956],[5.889542,52.041863],[5.888807,52.042819],[5.888227,52.043815],[5.887809,52.044841],[5.887557,52.045888],[5.887472,52.046944],[5.887557,52.048001],[5.887809,52.049047],[5.888227,52.050074],[5.888807,52.05107],[5.889542,52.052026],[5.890426,52.052933],[5.891451,52.053783],[5.892606,52.054567],[5.893881,52.055277],[5.895262,52.055908],[5.896738,52.056451],[5.898292,52.056904],[5.899912,52.05726],[5.901581,52.057517],[5.903282,52.057672],[5.905,52.057724]]]}},{"type":"Feature","properties":{"identifier":"3.b","name":"ASK OldeBroek Defensiegebied","restriction":"CONDITIONAL","rule":"Vluchten in de OPEN categorie zijn hier niet toegestaan","category":"defensie","source":"AIP Nederland ENR 5.3, ED-269, 22 juli 2024"},"geometry":{"type":"Polygon","coordinates":[[[5.918333,52.402169],[5.920065,52.402117],[5.921779,52.401962],[5.923461,52.401704],[5.925093,52.401348],[5.92666,52.400896],[5.928147,52.400352],[5.929539,52.399722],[5.930824,52.399011],[5.931988,52.398228],[5.933021,52.397378],[5.933912,52.39647],[5.934653,52.395514],[5.935237,52.394518],[5.935658,52.393492],[5.935912,52.392445],[5.935997,52.391389],[5.935912,52.390332],[5.935658,52.389286],[5.935237,52.38826],[5.934653,52.387264],[5.933912,52.386307],[5.933021,52.3854],[5.931988,52.38455],[5.930824,52.383766],[5.929539,52.383056],[5.928147,52.382426],[5.92666,52.381882],[5.925093,52.38143],[5.923461,52.381073],[5.921779,52.380816],[5.920065,52.380661],[5.918333,52.380609],[5.916602,52.380661],[5.914887,52.380816],[5.913206,52.381073],[5.911574,52.38143],[5.910007,52.381882],[5.90852,52.382426],[5.907127,52.383056],[5.905843,52.383766],[5.904679,52.38455],[5.903646,52.3854],[5.902755,52.386307],[5.902014,52.387264],[5.90143,52.38826],[5.901009,52.389286],[5.900754,52.390332],[5.900669,52.391389],[5.900754,52.392445],[5.901009,52.393492],[5.90143,52.394518],[5.902014,52.395514],[5.902755,52.39647],[5.903646,52.397378],[5.904679,52.398228],[5.905843,52.399011],[5.907127,52.399722],[5.90852,52.400352],[5.910007,52.400896],[5.911574,52.401348],[5.913206,52.401704],[5.914887,52.401962],[5.916602,52.402117],[5.918333,52.402169]]]}},{"type":"Feature","properties":{"identifier":"3.c","name":"Assen Defensiegebied","restriction":"CONDITIONAL","rule":"Vluchten in de OPEN categorie zijn hier niet toegestaan","category":"defensie","source":"AIP Nederland ENR 5.3, ED-269, 22 juli 2024"},"geometry":{"type":"Polygon","coordinates":[[[6.5325,53.003002],[6.534255,53.00295],[6.535994,53.002795],[6.537699,53.002538],[6.539353,53.002181],[6.540942,53.001729],[6.54245,53.001185],[6.543861,53.000555],[6.545164,52.999845],[6.546344,52.999061],[6.547391,52.998211],[6.548294,52.997304],[6.549046,52.996347],[6.549638,52.995351],[6.550065,52.994325],[6.550323,52.993279],[6.550409,52.992222],[6.550323,52.991166],[6.550065,52.990119],[6.549638,52.989093],[6.549046,52.988097],[6.548294,52.987141],[6.547391,52.986233],[6.546344,52.985384],[6.545164,52.9846],[6.543861,52.983889],[6.54245,52.983259],[6.540942,52.982715],[6.539353,52.982263],[6.537699,52.981907],[6.535994,52.98165],[6.534255,52.981494],[6.5325,52.981442],[6.530745,52.981494],[6.529006,52.98165],[6.527301,52.981907],[6.525647,52.982263],[6.524058,52.982715],[6.52255,52.983259],[6.521139,52.983889],[6.519836,52.9846],[6.518656,52.985384],[6.517609,52.986233],[6.516706,52.987141],[6.515954,52.988097],[6.515362,52.989093],[6.514935,52.990119],[6.514677,52.991166],[6.514591,52.992222],[6.514677,52.993279],[6.514935,52.994325],[6.515362,52.995351],[6.515954,52.996347],[6.516706,52.997304],[6.517609,52.998211],[6.518656,52.999061],[6.519836,52.999845],[6.521139,53.000555],[6.52255,53.001185],[6.524058,53.001729],[6.525647,53.002181],[6.527301,53.002538],[6.529006,53.002795],[6.530745,53.00295],[6.5325,53.003002]]]}},{"type":"Feature","properties":{"identifier":"3.d","name":"Beekhuizerzand Defensiegebied","restriction":"CONDITIONAL","rule":"Vluchten in de OPEN categorie zijn hier niet toegestaan","category":"defensie","source":"AIP Nederland ENR 5.3, ED-269, 22 juli 2024"},"geometry":{"type":"Polygon","coordinates":[[[5.683056,52.347446],[5.684785,52.347395],[5.686497,52.347239],[5.688177,52.346982],[5.689807,52.346626],[5.691372,52.346174],[5.692857,52.34563],[5.694248,52.345],[5.695531,52.344289],[5.696693,52.343505],[5.697725,52.342656],[5.698615,52.341748],[5.699355,52.340792],[5.699938,52.339796],[5.700359,52.33877],[5.700613,52.337723],[5.700698,52.336667],[5.700613,52.33561],[5.700359,52.334564],[5.699938,52.333537],[5.699355,52.332541],[5.698615,52.331585],[5.697725,52.330678],[5.696693,52.329828],[5.695531,52.329044],[5.694248,52.328334],[5.692857,52.327704],[5.691372,52.32716],[5.689807,52.326707],[5.688177,52.326351],[5.686497,52.326094],[5.684785,52.325939],[5.683056,52.325887],[5.681326,52.325939],[5.679614,52.326094],[5.677934,52.326351],[5.676304,52.326707],[5.674739,52.32716],[5.673254,52.327704],[5.671863,52.328334],[5.670581,52.329044],[5.669418,52.329828],[5.668387,52.330678],[5.667496,52.331585],[5.666756,52.332541],[5.666173,52.333537],[5.665752,52.334564],[5.665498,52.33561],[5.665413,52.336667],[5.665498,52.337723],[5.665752,52.33877],[5.666173,52.339796],[5.666756,52.340792],[5.667496,52.341748],[5.668387,52.342656],[5.669418,52.343505],[5.670581,52.344289],[5.671863,52.345],[5.673254,52.34563],[5.674739,52.346174],[5.676304,52.346626],[5.677934,52.346982],[5.679614,52.347239],[5.681326,52.347395],[5.683056,52.347446]]]}},{"type":"Feature","properties":{"identifier":"3.e","name":"Eder- en GinkelseHeide  Defensiegebied","restriction":"CONDITIONAL","rule":"Vluchten in de OPEN categorie zijn hier niet toegestaan","category":"defensie","source":"AIP Nederland ENR 5.3, ED-269, 22 juli 2024"},"geometry":{"type":"Polygon","coordinates":[[[5.911667,52.071058],[5.913385,52.071006],[5.915087,52.07085],[5.916756,52.070593],[5.918376,52.070237],[5.919932,52.069785],[5.921407,52.069241],[5.922789,52.068611],[5.924064,52.0679],[5.92522,52.067116],[5.926245,52.066267],[5.927129,52.065359],[5.927865,52.064403],[5.928445,52.063407],[5.928863,52.062381],[5.929115,52.061334],[5.9292,52.060278],[5.929115,52.059221],[5.928863,52.058175],[5.928445,52.057149],[5.927865,52.056153],[5.927129,52.055196],[5.926245,52.054289],[5.92522,52.053439],[5.924064,52.052655],[5.922789,52.051945],[5.921407,52.051315],[5.919932,52.050771],[5.918376,52.050319],[5.916756,52.049962],[5.915087,52.049705],[5.913385,52.04955],[5.911667,52.049498],[5.909948,52.04955],[5.908246,52.049705],[5.906577,52.049962],[5.904957,52.050319],[5.903402,52.050771],[5.901926,52.051315],[5.900544,52.051945],[5.899269,52.052655],[5.898114,52.053439],[5.897089,52.054289],[5.896204,52.055196],[5.895468,52.056153],[5.894889,52.057149],[5.894471,52.058175],[5.894218,52.059221],[5.894134,52.060278],[5.894218,52.061334],[5.894471,52.062381],[5.894889,52.063407],[5.895468,52.064403],[5.896204,52.065359],[5.897089,52.066267],[5.898114,52.067116],[5.899269,52.0679],[5.900544,52.068611],[5.901926,52.069241],[5.903402,52.069785],[5.904957,52.070237],[5.906577,52.070593],[5.908246,52.07085],[5.909948,52.071006],[5.911667,52.071058]]]}},{"type":"Feature","properties":{"identifier":"3.f","name":"Ermelose Heide Defensiegebied","restriction":"CONDITIONAL","rule":"Vluchten in de OPEN categorie zijn hier niet toegestaan","category":"defensie","source":"AIP Nederland ENR 5.3, ED-269, 22 juli 2024"},"geometry":{"type":"Polygon","coordinates":[[[5.680833,52.301891],[5.682561,52.301839],[5.684272,52.301684],[5.685949,52.301427],[5.687578,52.30107],[5.689141,52.300618],[5.690625,52.300074],[5.692014,52.299444],[5.693295,52.298734],[5.694457,52.29795],[5.695487,52.2971],[5.696376,52.296193],[5.697116,52.295236],[5.697699,52.29424],[5.698119,52.293214],[5.698373,52.292168],[5.698457,52.291111],[5.698373,52.290055],[5.698119,52.289008],[5.697699,52.287982],[5.697116,52.286986],[5.696376,52.28603],[5.695487,52.285122],[5.694457,52.284272],[5.693295,52.283489],[5.692014,52.282778],[5.690625,52.282148],[5.689141,52.281604],[5.687578,52.281152],[5.685949,52.280796],[5.684272,52.280538],[5.682561,52.280383],[5.680833,52.280331],[5.679106,52.280383],[5.677395,52.280538],[5.675717,52.280796],[5.674089,52.281152],[5.672525,52.281604],[5.671042,52.282148],[5.669653,52.282778],[5.668371,52.283489],[5.66721,52.284272],[5.666179,52.285122],[5.66529,52.28603],[5.664551,52.286986],[5.663968,52.287982],[5.663548,52.289008],[5.663294,52.290055],[5.663209,52.291111],[5.663294,52.292168],[5.663548,52.293214],[5.663968,52.29424],[5.664551,52.295236],[5.66529,52.296193],[5.666179,52.2971],[5.66721,52.29795],[5.668371,52.298734],[5.669653,52.299444],[5.671042,52.300074],[5.672525,52.300618],[5.674089,52.30107],[5.675717,52.301427],[5.677395,52.301684],[5.679106,52.301839],[5.680833,52.301891]]]}},{"type":"Feature","properties":{"identifier":"3.g","name":"Garderense Veld Defensiegebied","restriction":"CONDITIONAL","rule":"Vluchten in de OPEN categorie zijn hier niet toegestaan","category":"defensie","source":"AIP Nederland ENR 5.3, ED-269, 22 juli 2024"},"geometry":{"type":"Polygon","coordinates":[[[5.728056,52.254113],[5.729781,52.254061],[5.73149,52.253906],[5.733166,52.253649],[5.734793,52.253293],[5.736355,52.25284],[5.737836,52.252296],[5.739224,52.251666],[5.740504,52.250956],[5.741665,52.250172],[5.742694,52.249322],[5.743582,52.248415],[5.744321,52.247459],[5.744903,52.246463],[5.745322,52.245436],[5.745576,52.24439],[5.745661,52.243333],[5.745576,52.242277],[5.745322,52.24123],[5.744903,52.240204],[5.744321,52.239208],[5.743582,52.238252],[5.742694,52.237344],[5.741665,52.236495],[5.740504,52.235711],[5.739224,52.235],[5.737836,52.23437],[5.736355,52.233826],[5.734793,52.233374],[5.733166,52.233018],[5.73149,52.232761],[5.729781,52.232605],[5.728056,52.232554],[5.72633,52.232605],[5.724621,52.232761],[5.722945,52.233018],[5.721318,52.233374],[5.719757,52.233826],[5.718275,52.23437],[5.716887,52.235],[5.715607,52.235711],[5.714447,52.236495],[5.713417,52.237344],[5.712529,52.238252],[5.711791,52.239208],[5.711208,52.240204],[5.710789,52.24123],[5.710535,52.242277],[5.71045,52.243333],[5.710535,52.24439],[5.710789,52.245436],[5.711208,52.246463],[5.711791,52.247459],[5.712529,52.248415],[5.713417,52.249322],[5.714447,52.250172],[5.715607,52.250956],[5.716887,52.251666],[5.718275,52.252296],[5.719757,52.25284],[5.721318,52.253293],[5.722945,52.253649],[5.724621,52.253906],[5.72633,52.254061],[5.728056,52.254113]]]}},{"type":"Feature","properties":{"identifier":"3.h","name":"Leusderheide Defensiegebied","restriction":"CONDITIONAL","rule":"Vluchten in de OPEN categorie zijn hier niet toegestaan","category":"defensie","source":"AIP Nederland ENR 5.3, ED-269, 22 juli 2024"},"geometry":{"type":"Polygon","coordinates":[[[5.358056,52.13328],[5.359776,52.133228],[5.361481,52.133073],[5.363152,52.132816],[5.364774,52.132459],[5.366332,52.132007],[5.36781,52.131463],[5.369194,52.130833],[5.37047,52.130122],[5.371628,52.129339],[5.372654,52.128489],[5.37354,52.127582],[5.374276,52.126625],[5.374857,52.125629],[5.375276,52.124603],[5.375528,52.123557],[5.375613,52.1225],[5.375528,52.121443],[5.375276,52.120397],[5.374857,52.119371],[5.374276,52.118375],[5.37354,52.117418],[5.372654,52.116511],[5.371628,52.115661],[5.37047,52.114878],[5.369194,52.114167],[5.36781,52.113537],[5.366332,52.112993],[5.364774,52.112541],[5.363152,52.112184],[5.361481,52.111927],[5.359776,52.111772],[5.358056,52.11172],[5.356335,52.111772],[5.35463,52.111927],[5.352959,52.112184],[5.351337,52.112541],[5.349779,52.112993],[5.348301,52.113537],[5.346917,52.114167],[5.345641,52.114878],[5.344484,52.115661],[5.343457,52.116511],[5.342571,52.117418],[5.341835,52.118375],[5.341254,52.119371],[5.340836,52.120397],[5.340583,52.121443],[5.340498,52.1225],[5.340583,52.123557],[5.340836,52.124603],[5.341254,52.125629],[5.341835,52.126625],[5.342571,52.127582],[5.343457,52.128489],[5.344484,52.129339],[5.345641,52.130122],[5.346917,52.130833],[5.348301,52.131463],[5.349779,52.132007],[5.351337,52.132459],[5.352959,52.132816],[5.35463,52.133073],[5.356335,52.133228],[5.358056,52.13328]]]}},{"type":"Feature","properties":{"identifier":"3.i","name":"Marnewaard Defensiegebied","restriction":"CONDITIONAL","rule":"Vluchten in de OPEN categorie zijn hier niet toegestaan","category":"defensie","source":"AIP Nederland ENR 5.3, ED-269, 22 juli 2024"},"geometry":{"type":"Polygon","coordinates":[[[6.262222,53.374669],[6.263993,53.374617],[6.265746,53.374462],[6.267466,53.374204],[6.269135,53.373848],[6.270738,53.373396],[6.272258,53.372852],[6.273682,53.372222],[6.274996,53.371511],[6.276186,53.370728],[6.277243,53.369878],[6.278154,53.36897],[6.278912,53.368014],[6.279509,53.367018],[6.27994,53.365992],[6.2802,53.364945],[6.280287,53.363889],[6.2802,53.362832],[6.27994,53.361786],[6.279509,53.36076],[6.278912,53.359764],[6.278154,53.358807],[6.277243,53.3579],[6.276186,53.35705],[6.274996,53.356266],[6.273682,53.355556],[6.272258,53.354926],[6.270738,53.354382],[6.269135,53.35393],[6.267466,53.353573],[6.265746,53.353316],[6.263993,53.353161],[6.262222,53.353109],[6.260452,53.353161],[6.258698,53.353316],[6.256978,53.353573],[6.255309,53.35393],[6.253707,53.354382],[6.252186,53.354926],[6.250762,53.355556],[6.249449,53.356266],[6.248258,53.35705],[6.247202,53.3579],[6.246291,53.358807],[6.245533,53.359764],[6.244935,53.36076],[6.244505,53.361786],[6.244244,53.362832],[6.244157,53.363889],[6.244244,53.364945],[6.244505,53.365992],[6.244935,53.367018],[6.245533,53.368014],[6.246291,53.36897],[6.247202,53.369878],[6.248258,53.370728],[6.249449,53.371511],[6.250762,53.372222],[6.252186,53.372852],[6.253707,53.373396],[6.255309,53.373848],[6.256978,53.374204],[6.258698,53.374462],[6.260452,53.374617],[6.262222,53.374669]]]}},{"type":"Feature","properties":{"identifier":"3.j","name":"Oirschot Defensiegebied","restriction":"CONDITIONAL","rule":"Vluchten in de OPEN categorie zijn hier niet toegestaan","category":"defensie","source":"AIP Nederland ENR 5.3, ED-269, 22 juli 2024"},"geometry":{"type":"Polygon","coordinates":[[[5.365278,51.486058],[5.366974,51.486006],[5.368654,51.48585],[5.370302,51.485593],[5.371901,51.485237],[5.373436,51.484785],[5.374893,51.484241],[5.376257,51.483611],[5.377516,51.4829],[5.378656,51.482116],[5.379668,51.481267],[5.380541,51.480359],[5.381267,51.479403],[5.38184,51.478407],[5.382252,51.477381],[5.382502,51.476334],[5.382585,51.475278],[5.382502,51.474221],[5.382252,51.473175],[5.38184,51.472149],[5.381267,51.471153],[5.380541,51.470196],[5.379668,51.469289],[5.378656,51.468439],[5.377516,51.467655],[5.376257,51.466945],[5.374893,51.466315],[5.373436,51.465771],[5.371901,51.465319],[5.370302,51.464962],[5.368654,51.464705],[5.366974,51.46455],[5.365278,51.464498],[5.363581,51.46455],[5.361901,51.464705],[5.360254,51.464962],[5.358655,51.465319],[5.357119,51.465771],[5.355662,51.466315],[5.354298,51.466945],[5.35304,51.467655],[5.351899,51.468439],[5.350887,51.469289],[5.350014,51.470196],[5.349288,51.471153],[5.348716,51.472149],[5.348303,51.473175],[5.348054,51.474221],[5.347971,51.475278],[5.348054,51.476334],[5.348303,51.477381],[5.348716,51.478407],[5.349288,51.479403],[5.350014,51.480359],[5.350887,51.481267],[5.351899,51.482116],[5.35304,51.4829],[5.354298,51.483611],[5.355662,51.484241],[5.357119,51.484785],[5.358655,51.485237],[5.360254,51.485593],[5.361901,51.48585],[5.363581,51.486006],[5.365278,51.486058]]]}},{"type":"Feature","properties":{"identifier":"3.k","name":"Oost Vlieland Defensiegebied","restriction":"CONDITIONAL","rule":"Vluchten in de OPEN categorie zijn hier niet toegestaan","category":"defensie","source":"AIP Nederland ENR 5.3, ED-269, 22 juli 2024"},"geometry":{"type":"Polygon","coordinates":[[[5.085556,53.307446],[5.087323,53.307395],[5.089074,53.307239],[5.090791,53.306982],[5.092458,53.306626],[5.094058,53.306174],[5.095576,53.30563],[5.096998,53.305],[5.098309,53.304289],[5.099498,53.303505],[5.100552,53.302656],[5.101462,53.301748],[5.102219,53.300792],[5.102815,53.299796],[5.103245,53.29877],[5.103505,53.297723],[5.103592,53.296667],[5.103505,53.29561],[5.103245,53.294564],[5.102815,53.293537],[5.102219,53.292541],[5.101462,53.291585],[5.100552,53.290678],[5.099498,53.289828],[5.098309,53.289044],[5.096998,53.288334],[5.095576,53.287704],[5.094058,53.28716],[5.092458,53.286707],[5.090791,53.286351],[5.089074,53.286094],[5.087323,53.285939],[5.085556,53.285887],[5.083788,53.285939],[5.082037,53.286094],[5.08032,53.286351],[5.078653,53.286707],[5.077053,53.28716],[5.075535,53.287704],[5.074113,53.288334],[5.072802,53.289044],[5.071613,53.289828],[5.070559,53.290678],[5.069649,53.291585],[5.068892,53.292541],[5.068296,53.293537],[5.067866,53.294564],[5.067606,53.29561],[5.067519,53.296667],[5.067606,53.297723],[5.067866,53.29877],[5.068296,53.299796],[5.068892,53.300792],[5.069649,53.301748],[5.070559,53.302656],[5.071613,53.303505],[5.072802,53.304289],[5.074113,53.305],[5.075535,53.30563],[5.077053,53.306174],[5.078653,53.306626],[5.08032,53.306982],[5.082037,53.307239],[5.083788,53.307395],[5.085556,53.307446]]]}},{"type":"Feature","properties":{"identifier":"3.l","name":"Rijen Defensiegebied","restriction":"CONDITIONAL","rule":"Vluchten in de OPEN categorie zijn hier niet toegestaan","category":"defensie","source":"AIP Nederland ENR 5.3, ED-269, 22 juli 2024"},"geometry":{"type":"Polygon","coordinates":[[[4.8925,51.596058],[4.8942,51.596006],[4.895885,51.59585],[4.897536,51.595593],[4.899139,51.595237],[4.900678,51.594785],[4.902139,51.594241],[4.903506,51.593611],[4.904768,51.5929],[4.905911,51.592116],[4.906925,51.591267],[4.9078,51.590359],[4.908528,51.589403],[4.909102,51.588407],[4.909516,51.587381],[4.909765,51.586334],[4.909849,51.585278],[4.909765,51.584221],[4.909516,51.583175],[4.909102,51.582149],[4.908528,51.581153],[4.9078,51.580196],[4.906925,51.579289],[4.905911,51.578439],[4.904768,51.577655],[4.903506,51.576945],[4.902139,51.576315],[4.900678,51.575771],[4.899139,51.575319],[4.897536,51.574962],[4.895885,51.574705],[4.8942,51.57455],[4.8925,51.574498],[4.8908,51.57455],[4.889115,51.574705],[4.887464,51.574962],[4.885861,51.575319],[4.884322,51.575771],[4.882861,51.576315],[4.881494,51.576945],[4.880232,51.577655],[4.879089,51.578439],[4.878075,51.579289],[4.8772,51.580196],[4.876472,51.581153],[4.875898,51.582149],[4.875484,51.583175],[4.875235,51.584221],[4.875151,51.585278],[4.875235,51.586334],[4.875484,51.587381],[4.875898,51.588407],[4.876472,51.589403],[4.8772,51.590359],[4.878075,51.591267],[4.879089,51.592116],[4.880232,51.5929],[4.881494,51.593611],[4.882861,51.594241],[4.884322,51.594785],[4.885861,51.595237],[4.887464,51.595593],[4.889115,51.59585],[4.8908,51.596006],[4.8925,51.596058]]]}},{"type":"Feature","properties":{"identifier":"3.m","name":"Stroese Zans Defensiegebied","restriction":"CONDITIONAL","rule":"Vluchten in de OPEN categorie zijn hier niet toegestaan","category":"defensie","source":"AIP Nederland ENR 5.3, ED-269, 22 juli 2024"},"geometry":{"type":"Polygon","coordinates":[[[5.703611,52.206613],[5.705335,52.206561],[5.707042,52.206406],[5.708716,52.206149],[5.710341,52.205793],[5.711901,52.20534],[5.713382,52.204796],[5.714768,52.204166],[5.716047,52.203456],[5.717206,52.202672],[5.718234,52.201822],[5.719121,52.200915],[5.719859,52.199959],[5.72044,52.198963],[5.72086,52.197936],[5.721113,52.19689],[5.721197,52.195833],[5.721113,52.194777],[5.72086,52.19373],[5.72044,52.192704],[5.719859,52.191708],[5.719121,52.190752],[5.718234,52.189844],[5.717206,52.188995],[5.716047,52.188211],[5.714768,52.1875],[5.713382,52.18687],[5.711901,52.186326],[5.710341,52.185874],[5.708716,52.185518],[5.707042,52.185261],[5.705335,52.185105],[5.703611,52.185054],[5.701887,52.185105],[5.70018,52.185261],[5.698506,52.185518],[5.696881,52.185874],[5.695321,52.186326],[5.693841,52.18687],[5.692454,52.1875],[5.691176,52.188211],[5.690017,52.188995],[5.688989,52.189844],[5.688101,52.190752],[5.687363,52.191708],[5.686782,52.192704],[5.686363,52.19373],[5.686109,52.194777],[5.686025,52.195833],[5.686109,52.19689],[5.686363,52.197936],[5.686782,52.198963],[5.687363,52.199959],[5.688101,52.200915],[5.688989,52.201822],[5.690017,52.202672],[5.691176,52.203456],[5.692454,52.204166],[5.693841,52.204796],[5.695321,52.20534],[5.696881,52.205793],[5.698506,52.206149],[5.70018,52.206406],[5.701887,52.206561],[5.703611,52.206613]]]}},{"type":"Feature","properties":{"identifier":"3.n","name":"Vlasakkers Defensiegebied","restriction":"CONDITIONAL","rule":"Vluchten in de OPEN categorie zijn hier niet toegestaan","category":"defensie","source":"AIP Nederland ENR 5.3, ED-269, 22 juli 2024"},"geometry":{"type":"Polygon","coordinates":[[[4.8925,51.596058],[4.8942,51.596006],[4.895885,51.59585],[4.897536,51.595593],[4.899139,51.595237],[4.900678,51.594785],[4.902139,51.594241],[4.903506,51.593611],[4.904768,51.5929],[4.905911,51.592116],[4.906925,51.591267],[4.9078,51.590359],[4.908528,51.589403],[4.909102,51.588407],[4.909516,51.587381],[4.909765,51.586334],[4.909849,51.585278],[4.909765,51.584221],[4.909516,51.583175],[4.909102,51.582149],[4.908528,51.581153],[4.9078,51.580196],[4.906925,51.579289],[4.905911,51.578439],[4.904768,51.577655],[4.903506,51.576945],[4.902139,51.576315],[4.900678,51.575771],[4.899139,51.575319],[4.897536,51.574962],[4.895885,51.574705],[4.8942,51.57455],[4.8925,51.574498],[4.8908,51.57455],[4.889115,51.574705],[4.887464,51.574962],[4.885861,51.575319],[4.884322,51.575771],[4.882861,51.576315],[4.881494,51.576945],[4.880232,51.577655],[4.879089,51.578439],[4.878075,51.579289],[4.8772,51.580196],[4.876472,51.581153],[4.875898,51.582149],[4.875484,51.583175],[4.875235,51.584221],[4.875151,51.585278],[4.875235,51.586334],[4.875484,51.587381],[4.875898,51.588407],[4.876472,51.589403],[4.8772,51.590359],[4.878075,51.591267],[4.879089,51.592116],[4.880232,51.5929],[4.881494,51.593611],[4.882861,51.594241],[4.884322,51.594785],[4.885861,51.595237],[4.887464,51.595593],[4.889115,51.59585],[4.8908,51.596006],[4.8925,51.596058]]]}},{"type":"Feature","properties":{"identifier":"3.o","name":"Vliehorst Defensiegebied","restriction":"CONDITIONAL","rule":"Vluchten in de OPEN categorie zijn hier niet toegestaan","category":"defensie","source":"AIP Nederland ENR 5.3, ED-269, 22 juli 2024"},"geometry":{"type":"Polygon","coordinates":[[[4.920833,53.25078],[4.922599,53.250728],[4.924347,53.250573],[4.926062,53.250316],[4.927726,53.249959],[4.929324,53.249507],[4.93084,53.248963],[4.93226,53.248333],[4.93357,53.247622],[4.934757,53.246839],[4.93581,53.245989],[4.936719,53.245082],[4.937475,53.244125],[4.93807,53.243129],[4.9385,53.242103],[4.938759,53.241057],[4.938846,53.24],[4.938759,53.238943],[4.9385,53.237897],[4.93807,53.236871],[4.937475,53.235875],[4.936719,53.234918],[4.93581,53.234011],[4.934757,53.233161],[4.93357,53.232378],[4.93226,53.231667],[4.93084,53.231037],[4.929324,53.230493],[4.927726,53.230041],[4.926062,53.229684],[4.924347,53.229427],[4.922599,53.229272],[4.920833,53.22922],[4.919068,53.229272],[4.917319,53.229427],[4.915605,53.229684],[4.91394,53.230041],[4.912342,53.230493],[4.910826,53.231037],[4.909406,53.231667],[4.908097,53.232378],[4.90691,53.233161],[4.905857,53.234011],[4.904948,53.234918],[4.904192,53.235875],[4.903597,53.236871],[4.903167,53.237897],[4.902908,53.238943],[4.902821,53.24],[4.902908,53.241057],[4.903167,53.242103],[4.903597,53.243129],[4.904192,53.244125],[4.904948,53.245082],[4.905857,53.245989],[4.90691,53.246839],[4.908097,53.247622],[4.909406,53.248333],[4.910826,53.248963],[4.912342,53.249507],[4.91394,53.249959],[4.915605,53.250316],[4.917319,53.250573],[4.919068,53.250728],[4.920833,53.25078]]]}},{"type":"Feature","properties":{"identifier":"3.p","name":"Waalsdorpervlakte Defensiegebied","restriction":"CONDITIONAL","rule":"Vluchten in de OPEN categorie zijn hier niet toegestaan","category":"defensie","source":"AIP Nederland ENR 5.3, ED-269, 22 juli 2024"},"geometry":{"type":"Polygon","coordinates":[[[4.327778,52.123002],[4.329498,52.12295],[4.331202,52.122795],[4.332873,52.122538],[4.334495,52.122181],[4.336052,52.121729],[4.33753,52.121185],[4.338913,52.120555],[4.34019,52.119845],[4.341347,52.119061],[4.342373,52.118211],[4.343258,52.117304],[4.343995,52.116347],[4.344575,52.115351],[4.344994,52.114325],[4.345247,52.113279],[4.345331,52.112222],[4.345247,52.111166],[4.344994,52.110119],[4.344575,52.109093],[4.343995,52.108097],[4.343258,52.107141],[4.342373,52.106233],[4.341347,52.105384],[4.34019,52.1046],[4.338913,52.103889],[4.33753,52.103259],[4.336052,52.102715],[4.334495,52.102263],[4.332873,52.101907],[4.331202,52.10165],[4.329498,52.101494],[4.327778,52.101442],[4.326057,52.101494],[4.324353,52.10165],[4.322682,52.101907],[4.32106,52.102263],[4.319503,52.102715],[4.318026,52.103259],[4.316642,52.103889],[4.315366,52.1046],[4.314209,52.105384],[4.313183,52.106233],[4.312297,52.107141],[4.311561,52.108097],[4.31098,52.109093],[4.310562,52.110119],[4.310309,52.111166],[4.310224,52.112222],[4.310309,52.113279],[4.310562,52.114325],[4.31098,52.115351],[4.311561,52.116347],[4.312297,52.117304],[4.313183,52.118211],[4.314209,52.119061],[4.315366,52.119845],[4.316642,52.120555],[4.318026,52.121185],[4.319503,52.121729],[4.32106,52.122181],[4.322682,52.122538],[4.324353,52.122795],[4.326057,52.12295],[4.327778,52.123002]]]}},{"type":"Feature","properties":{"identifier":"7.31","name":"Defensie oefengebied EHR3 (Oldebroek)","restriction":"REQ_AUTHORISATION","rule":"Alle vuchten zijn hier verboden tenzij er toestemming is gegeven door de Militaire luchverkeersdienstverlener","category":"defensie","source":"AIP Nederland ENR 5.3, ED-269, 22 juli 2024"},"geometry":{"type":"Polygon","coordinates":[[[5.83333333333333,52.3833333333333],[5.875,52.3583333333333],[6.01666666666667,52.4083333333333],[6,52.45],[5.83333333333333,52.3833333333333]]]}},{"type":"Feature","properties":{"identifier":"7.32","name":"Defensie oefengebied EHR 3A (Oldebroek)","restriction":"REQ_AUTHORISATION","rule":"Alle vuchten zijn hier verboden tenzij er toestemming is gegeven door de Militaire luchverkeersdienstverlener","category":"defensie","source":"AIP Nederland ENR 5.3, ED-269, 22 juli 2024"},"geometry":{"type":"Polygon","coordinates":[[[5.83333333333333,52.3833333333333],[5.875,52.3583333333333],[6.01666666666667,52.4083333333333],[6,52.45],[5.83333333333333,52.3833333333333]]]}},{"type":"Feature","properties":{"identifier":"7.33","name":"Defensie oefengebied EHR 4 (Vliehors)","restriction":"REQ_AUTHORISATION","rule":"Alle vuchten zijn hier verboden tenzij er toestemming is gegeven door de Militaire luchverkeersdienstverlener","category":"defensie","source":"AIP Nederland ENR 5.3, ED-269, 22 juli 2024"},"geometry":{"type":"Polygon","coordinates":[[[4.77253888888889,53.1701638888889],[4.75749543482997,53.1832417863788],[4.73512816059022,53.2153304752956],[4.7273691263191,53.2497926391902],[4.73478159391672,53.2842825837465],[4.75689516101976,53.316447171149],[4.79222847001657,53.3440868849561],[4.83838319310498,53.3653077378108],[4.89220481111063,53.3786531356922],[4.95,53.3832059589655],[4.95,53.3832059589655],[5.00779518888937,53.3786531356922],[5.06161680689502,53.3653077378108],[5.10777152998343,53.3440868849561],[5.14310483898024,53.316447171149],[5.16521840608328,53.2842825837465],[5.1726308736809,53.2497926391902],[5.16487183940978,53.2153304752956],[5.14250456517003,53.1832417863788],[5.10707838919563,53.1557057525576],[5.0610165256439,53.1345885805269],[5.00744861477497,53.1213190828079],[4.95,53.1167940410345],[4.93400277777778,53.1172166666667],[4.85666666666667,53.1833333333333],[4.77253888888889,53.1701638888889]]]}},{"type":"Feature","properties":{"identifier":"7.34","name":"Defensie oefengebied EHR 4B (Vliehors)","restriction":"REQ_AUTHORISATION","rule":"Alle vuchten zijn hier verboden tenzij er toestemming is gegeven door de Militaire luchverkeersdienstverlener","category":"defensie","source":"AIP Nederland ENR 5.3, ED-269, 22 juli 2024"},"geometry":{"type":"Polygon","coordinates":[[[5.11633055555555,53.1619611111111],[5.25,53.0444444444444],[5.10611111111111,52.9691666666667],[4.93400277777778,53.1172166666667],[4.89255138522503,53.1213190828079],[4.8389834743561,53.1345885805269],[4.79292161080437,53.1557057525576],[4.75749543482997,53.1832417863788],[4.73512816059022,53.2153304752956],[4.7273691263191,53.2497926391902],[4.73478159391672,53.2842825837465],[4.75689516101976,53.316447171149],[4.79222847001657,53.3440868849561],[4.83838319310498,53.3653077378108],[4.89220481111063,53.3786531356922],[4.95,53.3832059589655],[4.95,53.3832059589655],[5.00779518888937,53.3786531356922],[5.06161680689502,53.3653077378108],[5.10777152998343,53.3440868849561],[5.14310483898024,53.316447171149],[5.16521840608328,53.2842825837465],[5.1726308736809,53.2497926391902],[5.16487183940978,53.2153304752956],[5.14250456517003,53.1832417863788],[5.11633055555555,53.1619611111111]]]}},{"type":"Feature","properties":{"identifier":"7.35","name":"Defensie oefengebied EHR 4C (Vliehors)","restriction":"REQ_AUTHORISATION","rule":"Alle vuchten zijn hier verboden tenzij er toestemming is gegeven door de Militaire luchverkeersdienstverlener","category":"defensie","source":"AIP Nederland ENR 5.3, ED-269, 22 juli 2024"},"geometry":{"type":"Polygon","coordinates":[[[5.25,53.0444444444444],[5.35833333333333,52.8777777777778],[5.25833333333333,52.8583333333333],[5.13581388888889,52.9847416666667],[5.25,53.0444444444444]]]}},{"type":"Feature","properties":{"identifier":"7.36","name":"Defensie oefengebied EHR 4D (Vliehors)","restriction":"REQ_AUTHORISATION","rule":"Alle vuchten zijn hier verboden tenzij er toestemming is gegeven door de Militaire luchverkeersdienstverlener","category":"defensie","source":"AIP Nederland ENR 5.3, ED-269, 22 juli 2024"},"geometry":{"type":"Polygon","coordinates":[[[4.61705,53.25],[4.72803333333333,53.25],[4.7273691263191,53.2497926391902],[4.73512816059022,53.2153304752956],[4.75749543482997,53.1832417863788],[4.77253888888889,53.1701638888889],[4.67444444444445,53.1547222222222],[4.63541944444444,53.185],[4.62782310364528,53.1978509576954],[4.61605503821051,53.2495334398539],[4.61705,53.25]]]}},{"type":"Feature","properties":{"identifier":"7.37","name":"Defensie oefengebied EHR 4F (Vliehors)","restriction":"REQ_AUTHORISATION","rule":"Alle vuchten zijn hier verboden tenzij er toestemming is gegeven door de Militaire luchverkeersdienstverlener","category":"defensie","source":"AIP Nederland ENR 5.3, ED-269, 22 juli 2024"},"geometry":{"type":"Polygon","coordinates":[[[4.67905,53.3663611111111],[4.76953055555556,53.3276416666667],[4.75689516101976,53.316447171149],[4.73478159391672,53.2842825837465],[4.72803333333333,53.25],[4.61705,53.25],[4.62704333821533,53.3012784270977],[4.66011748052183,53.3495535769809],[4.67905,53.3663611111111]]]}},{"type":"Feature","properties":{"identifier":"7.38","name":"Defensie oefengebied EHR 8 (Den Helder)","restriction":"REQ_AUTHORISATION","rule":"Alle vuchten zijn hier verboden tenzij er toestemming is gegeven door de Militaire luchverkeersdienstverlener","category":"defensie","source":"AIP Nederland ENR 5.3, ED-269, 22 juli 2024"},"geometry":{"type":"Polygon","coordinates":[[[4.74027777777778,52.9616666666667],[4.71666666666667,52.8666666666667],[4.68333333333333,52.7833333333333],[4.53333333333333,52.75],[4.43333333333333,52.775],[4.35,52.8166666666667],[4.35,53.0833333333333],[4.51555555555556,53.1027777777778],[4.67944444444444,53.0497222222222],[4.74027777777778,52.9616666666667]]]}},{"type":"Feature","properties":{"identifier":"7.39","name":"Defensie oefengebied EHR 9 (Harskamp)","restriction":"REQ_AUTHORISATION","rule":"Alle vuchten zijn hier verboden tenzij er toestemming is gegeven door de Militaire luchverkeersdienstverlener","category":"defensie","source":"AIP Nederland ENR 5.3, ED-269, 22 juli 2024"},"geometry":{"type":"Polygon","coordinates":[[[5.78333333333333,52.1916666666667],[5.88055555555556,52.1583333333333],[5.88055555555556,52.125],[5.7625,52.1111111111111],[5.73333333333333,52.1555555555556],[5.78333333333333,52.1916666666667]]]}},{"type":"Feature","properties":{"identifier":"7.40","name":"Defensie oefengebied EHR 61 (Arnhemse Heide)","restriction":"REQ_AUTHORISATION","rule":"Alle vuchten zijn hier verboden tenzij er toestemming is gegeven door de Militaire luchverkeersdienstverlener","category":"defensie","source":"AIP Nederland ENR 5.3, ED-269, 22 juli 2024"},"geometry":{"type":"Polygon","coordinates":[[[5.917778,52.044084],[5.918207,52.044071],[5.918633,52.044032],[5.91905,52.043968],[5.919454,52.043879],[5.919843,52.043766],[5.920212,52.04363],[5.920557,52.043472],[5.920876,52.043295],[5.921165,52.043099],[5.921421,52.042886],[5.921642,52.042659],[5.921826,52.04242],[5.92197,52.042171],[5.922075,52.041915],[5.922138,52.041653],[5.922159,52.041389],[5.922138,52.041125],[5.922075,52.040863],[5.92197,52.040607],[5.921826,52.040358],[5.921642,52.040119],[5.921421,52.039892],[5.921165,52.039679],[5.920876,52.039483],[5.920557,52.039306],[5.920212,52.039148],[5.919843,52.039012],[5.919454,52.038899],[5.91905,52.03881],[5.918633,52.038746],[5.918207,52.038707],[5.917778,52.038694],[5.917348,52.038707],[5.916923,52.038746],[5.916506,52.03881],[5.916101,52.038899],[5.915712,52.039012],[5.915344,52.039148],[5.914998,52.039306],[5.91468,52.039483],[5.914391,52.039679],[5.914135,52.039892],[5.913914,52.040119],[5.91373,52.040358],[5.913585,52.040607],[5.913481,52.040863],[5.913418,52.041125],[5.913396,52.041389],[5.913418,52.041653],[5.913481,52.041915],[5.913585,52.042171],[5.91373,52.04242],[5.913914,52.042659],[5.914135,52.042886],[5.914391,52.043099],[5.91468,52.043295],[5.914998,52.043472],[5.915344,52.04363],[5.915712,52.043766],[5.916101,52.043879],[5.916506,52.043968],[5.916923,52.044032],[5.917348,52.044071],[5.917778,52.044084]]]}},{"type":"Feature","properties":{"identifier":"7.41","name":"Defensie oefengebied EHR 62 (Reek)","restriction":"REQ_AUTHORISATION","rule":"Alle vuchten zijn hier verboden tenzij er toestemming is gegeven door de Militaire luchverkeersdienstverlener","category":"defensie","source":"AIP Nederland ENR 5.3, ED-269, 22 juli 2024"},"geometry":{"type":"Polygon","coordinates":[[[5.6925,51.74497],[5.695133,51.74489],[5.69774,51.74465],[5.700297,51.744254],[5.702779,51.743704],[5.705162,51.743006],[5.707423,51.742166],[5.70954,51.741194],[5.711493,51.740097],[5.713263,51.738888],[5.714833,51.737576],[5.716188,51.736176],[5.717315,51.7347],[5.718203,51.733163],[5.718844,51.731579],[5.719231,51.729964],[5.71936,51.728333],[5.719231,51.726703],[5.718844,51.725088],[5.718203,51.723504],[5.717315,51.721967],[5.716188,51.720491],[5.714833,51.71909],[5.713263,51.717779],[5.711493,51.716569],[5.70954,51.715473],[5.707423,51.7145],[5.705162,51.713661],[5.702779,51.712963],[5.700297,51.712413],[5.69774,51.712016],[5.695133,51.711777],[5.6925,51.711697],[5.689867,51.711777],[5.68726,51.712016],[5.684703,51.712413],[5.682221,51.712963],[5.679838,51.713661],[5.677577,51.7145],[5.67546,51.715473],[5.673507,51.716569],[5.671737,51.717779],[5.670167,51.71909],[5.668812,51.720491],[5.667685,51.721967],[5.666797,51.723504],[5.666156,51.725088],[5.665769,51.726703],[5.66564,51.728333],[5.665769,51.729964],[5.666156,51.731579],[5.666797,51.733163],[5.667685,51.7347],[5.668812,51.736176],[5.670167,51.737576],[5.671737,51.738888],[5.673507,51.740097],[5.67546,51.741194],[5.677577,51.742166],[5.679838,51.743006],[5.682221,51.743704],[5.684703,51.744254],[5.68726,51.74465],[5.689867,51.74489],[5.6925,51.74497]]]}},{"type":"Feature","properties":{"identifier":"7.42","name":"Defensie oefengebied EHR 63 (Riel)","restriction":"REQ_AUTHORISATION","rule":"Alle vuchten zijn hier verboden tenzij er toestemming is gegeven door de Militaire luchverkeersdienstverlener","category":"defensie","source":"AIP Nederland ENR 5.3, ED-269, 22 juli 2024"},"geometry":{"type":"Polygon","coordinates":[[[4.996389,51.516637],[4.999008,51.516557],[5.001603,51.516317],[5.004147,51.51592],[5.006616,51.51537],[5.008987,51.514672],[5.011237,51.513833],[5.013343,51.51286],[5.015286,51.511764],[5.017048,51.510554],[5.01861,51.509243],[5.019958,51.507843],[5.02108,51.506367],[5.021963,51.504829],[5.022601,51.503246],[5.022985,51.501631],[5.023114,51.5],[5.022985,51.498369],[5.022601,51.496754],[5.021963,51.495171],[5.02108,51.493633],[5.019958,51.492157],[5.01861,51.490757],[5.017048,51.489446],[5.015286,51.488236],[5.013343,51.48714],[5.011237,51.486167],[5.008987,51.485328],[5.006616,51.48463],[5.004147,51.48408],[5.001603,51.483683],[4.999008,51.483443],[4.996389,51.483363],[4.993769,51.483443],[4.991175,51.483683],[4.988631,51.48408],[4.986162,51.48463],[4.983791,51.485328],[4.981541,51.486167],[4.979435,51.48714],[4.977491,51.488236],[4.97573,51.489446],[4.974168,51.490757],[4.972819,51.492157],[4.971698,51.493633],[4.970815,51.495171],[4.970177,51.496754],[4.969792,51.498369],[4.969664,51.5],[4.969792,51.501631],[4.970177,51.503246],[4.970815,51.504829],[4.971698,51.506367],[4.972819,51.507843],[4.974168,51.509243],[4.97573,51.510554],[4.977491,51.511764],[4.979435,51.51286],[4.981541,51.513833],[4.983791,51.514672],[4.986162,51.51537],[4.988631,51.51592],[4.991175,51.516317],[4.993769,51.516557],[4.996389,51.516637]]]}},{"type":"Feature","properties":{"identifier":"7.43","name":"Defensie oefengebied EHR 65 (Witten; Assen)","restriction":"REQ_AUTHORISATION","rule":"Alle vuchten zijn hier verboden tenzij er toestemming is gegeven door de Militaire luchverkeersdienstverlener","category":"defensie","source":"AIP Nederland ENR 5.3, ED-269, 22 juli 2024"},"geometry":{"type":"Polygon","coordinates":[[[6.521575,52.977575],[6.52765555555556,52.9754527777778],[6.53163055555556,52.9710388888889],[6.52038888888889,52.9611861111111],[6.52001111111111,52.9585416666667],[6.51208888888889,52.9565138888889],[6.50985833333333,52.9545805555556],[6.49585833333333,52.9586027777778],[6.50851944444444,52.9714555555556],[6.521575,52.977575]]]}},{"type":"Feature","properties":{"identifier":"7.44","name":"Defensie oefengebied EHR 66 (NLR RPAS testcentrum Low)","restriction":"REQ_AUTHORISATION","rule":"Alle vuchten zijn hier verboden tenzij er toestemming is gegeven door de Militaire luchverkeersdienstverlener","category":"defensie","source":"AIP Nederland ENR 5.3, ED-269, 22 juli 2024"},"geometry":{"type":"Polygon","coordinates":[[[5.95277777777778,52.7044444444444],[5.95361111111111,52.6886111111111],[5.93027777777778,52.6741666666667],[5.93083333333333,52.6686111111111],[5.89694444444444,52.6636111111111],[5.86888888888889,52.6905555555556],[5.95277777777778,52.7044444444444]]]}},{"type":"Feature","properties":{"identifier":"7.45","name":"Defensie oefengebied EHTSA 1A (De Peel A)","restriction":"REQ_AUTHORISATION","rule":"Alle vuchten zijn hier verboden tenzij er toestemming is gegeven door de Militaire luchverkeersdienstverlener","category":"defensie","source":"AIP Nederland ENR 5.3, ED-269, 22 juli 2024"},"geometry":{"type":"Polygon","coordinates":[[[5.855639,51.625417],[5.872672,51.624896],[5.889542,51.623339],[5.906084,51.620761],[5.922141,51.617185],[5.937558,51.612648],[5.952186,51.607192],[5.965883,51.600871],[5.978519,51.593744],[5.989972,51.585881],[6.000131,51.577357],[6.008899,51.568254],[6.01619,51.558661],[6.021935,51.548669],[6.026079,51.538375],[6.028581,51.527877],[6.029418,51.517278],[6.028581,51.506678],[6.026079,51.496181],[6.021935,51.485887],[6.01619,51.475895],[6.008899,51.466301],[6.000131,51.457199],[5.989972,51.448675],[5.978519,51.440812],[5.965883,51.433685],[5.952186,51.427363],[5.937558,51.421908],[5.922141,51.41737],[5.906084,51.413795],[5.889542,51.411216],[5.872672,51.409659],[5.855639,51.409139],[5.838606,51.409659],[5.821736,51.411216],[5.805193,51.413795],[5.789136,51.41737],[5.77372,51.421908],[5.759092,51.427363],[5.745394,51.433685],[5.732758,51.440812],[5.721306,51.448675],[5.711147,51.457199],[5.702379,51.466301],[5.695088,51.475895],[5.689342,51.485887],[5.685199,51.496181],[5.682696,51.506678],[5.68186,51.517278],[5.682696,51.527877],[5.685199,51.538375],[5.689342,51.548669],[5.695088,51.558661],[5.702379,51.568254],[5.711147,51.577357],[5.721306,51.585881],[5.732758,51.593744],[5.745394,51.600871],[5.759092,51.607192],[5.77372,51.612648],[5.789136,51.617185],[5.805193,51.620761],[5.821736,51.623339],[5.838606,51.624896],[5.855639,51.625417]]]}},{"type":"Feature","properties":{"identifier":"7.46","name":"Defensie oefengebied  EHTSA 1B (De Peel B)","restriction":"REQ_AUTHORISATION","rule":"Alle vuchten zijn hier verboden tenzij er toestemming is gegeven door de Militaire luchverkeersdienstverlener","category":"defensie","source":"AIP Nederland ENR 5.3, ED-269, 22 juli 2024"},"geometry":{"type":"Polygon","coordinates":[[[6.029025,51.5198777777778],[6.03583333333333,51.3333333333333],[5.95,51.2527777777778],[5.81388888888889,51.2555555555556],[5.70248611111111,51.3333333333333],[5.70248611111111,51.4671777777778],[5.70519428508117,51.4630665535738],[5.73286164105817,51.4406835587147],[5.76885491490193,51.4235159180225],[5.81072681280249,51.4127271885618],[5.85563888888889,51.4090479361183],[5.90055096497529,51.4127271885618],[5.94242286287585,51.4235159180225],[5.97841613671961,51.4406835587147],[6.0060834926966,51.4630665535738],[6.02353405288402,51.4891459474514],[6.02956361694508,51.5171491886312],[6.029025,51.5198777777778]]]}},{"type":"Feature","properties":{"identifier":"7.47","name":"Defensie oefengebied EHR 2 (Marnewaard)","restriction":"REQ_AUTHORISATION","rule":"Alle vuchten zijn hier verboden tenzij er toestemming is gegeven door de Militaire luchverkeersdienstverlener","category":"defensie","source":"AIP Nederland ENR 5.3, ED-269, 22 juli 2024"},"geometry":{"type":"Polygon","coordinates":[[[6.23583333333333,53.4113888888889],[6.24888888888889,53.4258333333333],[6.33194444444444,53.4338888888889],[6.33555555555556,53.4025],[6.25444444444444,53.4008333333333],[6.23583333333333,53.4113888888889]]]}},{"type":"Feature","properties":{"identifier":"7.48","name":"Defensie oefengebied EHR 2A (Marnewaard A)","restriction":"REQ_AUTHORISATION","rule":"Alle vuchten zijn hier verboden tenzij er toestemming is gegeven door de Militaire luchverkeersdienstverlener","category":"defensie","source":"AIP Nederland ENR 5.3, ED-269, 22 juli 2024"},"geometry":{"type":"Polygon","coordinates":[[[6.47955277777778,53.4225333333333],[6.48255929734611,53.4176149734975],[6.4893,53.38555],[6.20983888888889,53.2546277777778],[6.20903914603181,53.2546523489098],[6.15530424748891,53.2679216627935],[6.10909849273771,53.2890385832617],[6.07356125221543,53.316574364797],[6.05112337979547,53.3486628680904],[6.04333922444642,53.383124962829],[6.04567777777778,53.3998111111111],[6.47955277777778,53.4225333333333]]]}},{"type":"Feature","properties":{"identifier":"7.49","name":"Defensie oefengebied EHR 2B (Marnewaard B)","restriction":"REQ_AUTHORISATION","rule":"Alle vuchten zijn hier verboden tenzij er toestemming is gegeven door de Militaire luchverkeersdienstverlener","category":"defensie","source":"AIP Nederland ENR 5.3, ED-269, 22 juli 2024"},"geometry":{"type":"Polygon","coordinates":[[[6.45694444444444,53.4213888888889],[5.90722222222222,53.3922222222222],[5.85833333333333,53.3833333333333],[6.03333333333333,53.1666666666667],[6.07142777777778,53.1666027777778],[6.60833333333333,53.4102777777778],[6.6758,53.4578555555556],[6.47955277777778,53.4225333333333],[6.45694444444444,53.4213888888889]]]}},{"type":"Feature","properties":{"identifier":"7.50","name":"Defensie oefengebied EHR 2C (Marnewaard C)","restriction":"REQ_AUTHORISATION","rule":"Alle vuchten zijn hier verboden tenzij er toestemming is gegeven door de Militaire luchverkeersdienstverlener","category":"defensie","source":"AIP Nederland ENR 5.3, ED-269, 22 juli 2024"},"geometry":{"type":"Polygon","coordinates":[[[6.75444444444444,53.4636111111111],[6.85888888888889,53.4447222222222],[6.86992222222222,53.4234638888889],[6.87333333333333,53.3533333333333],[6.39972222222222,53.2494444444444],[6.33416666666667,53.1658333333333],[6.07142777777778,53.1666027777778],[6.60833333333333,53.4102777777778],[6.6758,53.4578555555556],[6.75444444444444,53.4636111111111]]]}},{"type":"Feature","properties":{"identifier":"7.51","name":"Defensie oefengebied EHTRA 11","restriction":"REQ_AUTHORISATION","rule":"Alle vuchten zijn hier verboden tenzij er toestemming is gegeven door de Militaire luchverkeersdienstverlener","category":"defensie","source":"AIP Nederland ENR 5.3, ED-269, 22 juli 2024"},"geometry":{"type":"Polygon","coordinates":[[[5.72535555555556,53.0596694444444],[5.68081749325989,53.0644167889375],[5.61393553181329,53.0809919361381],[5.55640604250387,53.1073723473339],[5.51213485292638,53.1417762742967],[5.48415286506342,53.1818752585431],[5.47440596430058,53.2249485129865],[5.48361215727632,53.268065135223],[5.51119831293714,53.3082826032312],[5.55532460881612,53.3428483837909],[5.61299897371009,53.3693906506255],[5.68027676735883,53.3860842856718],[5.75253333333333,53.3917796709291],[5.82478989930784,53.3860842856718],[5.89206769295658,53.3693906506255],[5.94974205785055,53.3428483837909],[5.99386835372952,53.3082826032312],[6.02145450939034,53.268065135223],[6.03066070236609,53.2249485129865],[6.02613888888889,53.1985416666667],[5.72535555555556,53.0596694444444]]]}},{"type":"Feature","properties":{"identifier":"7.52","name":"Defensie oefengebied EHTRA 14 (Drente)","restriction":"REQ_AUTHORISATION","rule":"Alle vuchten zijn hier verboden tenzij er toestemming is gegeven door de Militaire luchverkeersdienstverlener","category":"defensie","source":"AIP Nederland ENR 5.3, ED-269, 22 juli 2024"},"geometry":{"type":"Polygon","coordinates":[[[7.1875,52.954444],[7.182141,52.94282],[7.1052,52.864458],[7.08731,52.850177],[7.092766,52.838178],[7.070757,52.809895],[7.054755,52.642191],[7.040814,52.632705],[7.03819444444444,52.6328611111111],[7.03613888888889,52.6349444444444],[7.02927777777778,52.6346388888889],[7.01297222222222,52.6363888888889],[7.00627326965332,52.6383759653485],[7.00455665588379,52.6407718462816],[7.00094444444444,52.6423333333333],[6.99338888888889,52.6411944444444],[6.98377777777778,52.6438055555556],[6.98155555555556,52.64525],[6.97503009521484,52.6465543118366],[6.96952777777778,52.6418055555556],[6.95975,52.6419166666667],[6.95425,52.639],[6.94516666666667,52.6395277777778],[6.939116,52.637916],[6.93452777777778,52.6383888888889],[6.92952777777778,52.64025],[6.91872222222222,52.6397222222222],[6.91563888888889,52.6419166666667],[6.91530555555556,52.6461944444444],[6.90911111111111,52.6476388888889],[6.90344444444444,52.6483888888889],[6.89880555555555,52.6510833333333],[6.89084215869141,52.651257],[6.87933333333333,52.6505555555556],[6.87254905700684,52.653426177129],[6.86508333333333,52.6499444444444],[6.85297222222222,52.6495277777778],[6.85125,52.6486944444444],[6.83813888888889,52.6520277777778],[6.83152777777778,52.6516111111111],[6.82927777777778,52.6496388888889],[6.82147222222222,52.6476944444444],[6.81822222222222,52.6478055555556],[6.81675,52.6485277777778],[6.80766666666667,52.6492222222222],[6.80577777777778,52.6511944444444],[6.80311111111111,52.6519722222222],[6.79355921691895,52.6506997867685],[6.79033333333333,52.6526944444444],[6.78758333333333,52.6522777777778],[6.78430555555556,52.6526388888889],[6.77711111111111,52.6516666666667],[6.77427777777778,52.6501388888889],[6.77238888888889,52.6501388888889],[6.768,52.6470277777778],[6.75891666666667,52.6488333333333],[6.75488888888889,52.64675],[6.75333333333333,52.6458888888889],[6.75177777777778,52.6469722222222],[6.75375938415527,52.6478154988726],[6.75290254232788,52.6481840183991],[6.75066947937012,52.6473077690884],[6.75047636032104,52.6468521089472],[6.74625,52.6462777777778],[6.74166666666667,52.6453055555556],[6.73705555555556,52.6411388888889],[6.73087139154053,52.6376006149331],[6.72630555555556,52.6331666666667],[6.7206072807312,52.6313568402719],[6.71819444444444,52.6312777777778],[6.71497222222222,52.6301944444444],[6.71258333333333,52.62875],[6.71,52.6277222222222],[6.71019189416504,52.6272665719036],[6.71233333333333,52.6268055555556],[6.71386111111111,52.6268611111111],[6.71494444444444,52.62575],[6.71833333333333,52.6233611111111],[6.7185,52.6220277777778],[6.72063888888889,52.6214722222222],[6.72188888888889,52.6202777777778],[6.72297222222222,52.62025],[6.72486111111111,52.6186666666667],[6.72710626983643,52.6149285454465],[6.72447222222222,52.6085555555556],[6.72386111111111,52.6033888888889],[6.72069444444444,52.5979444444444],[6.72083333333333,52.5961388888889],[6.7215,52.5948888888889],[6.71991666666667,52.5932777777778],[6.71882991534424,52.5887024201292],[6.76664338623047,52.5634008099548],[6.76691666666667,52.5616111111111],[6.76433333333333,52.5616388888889],[6.7520147565918,52.5588584804686],[6.73918962478638,52.5621210908756],[6.73447222222222,52.5618055555556],[6.726057,52.563307],[6.71997222222222,52.5516944444444],[6.71627777777778,52.5503888888889],[6.71640738623047,52.5487571572581],[6.68126515344238,52.5531601872592],[6.70526113757324,52.520873652975],[6.69792832275391,52.4863157424758],[6.72039270401001,52.4771476745317],[6.72366666666667,52.4769444444444],[6.75291666666667,52.4639166666667],[6.77496661376953,52.4594729365756],[6.83172222222222,52.4598888888889],[6.84466666666667,52.4591666666667],[6.85458033862305,52.4596746900167],[6.85231233862305,52.4501502767582],[6.862231,52.451249],[6.88905555555556,52.4465555555555],[6.90511111111111,52.4424166666667],[6.9419312010498,52.4354010582396],[6.94766666666667,52.4367222222222],[6.96172061376953,52.4444652439857],[6.96663888888889,52.4495277777778],[6.96972222222222,52.4547222222222],[6.97444444444444,52.4599444444444],[6.97713333862305,52.4656636394282],[6.98773903173828,52.4697647121043],[6.99413986242676,52.465452165925],[6.99444444444444,52.4620833333333],[6.99986111111111,52.4547777777778],[7.005,52.4459166666667],[7.01075350793457,52.4290753503329],[7.022476,52.422834],[7.03497,52.403717],[7.03608333333333,52.4024722222222],[7.04113888888889,52.4025833333333],[7.04655555555556,52.4006944444444],[7.05091666666667,52.4008055555556],[7.05177777777778,52.3999722222222],[7.05536003173828,52.4010432093188],[7.05891666666667,52.3993333333333],[7.05891666666667,52.3958888888889],[7.06475,52.3892222222222],[7.07214598413086,52.3735448015863],[7.07236646032715,52.351801],[7.05653683068848,52.3379717644373],[7.05625,52.3348888888889],[7.05486111111111,52.3328333333333],[7.055556,52.332222],[6.774167,52.303056],[6.475,52.468889],[6.333333,52.639167],[6.333333,52.688056],[6.585,52.699167],[6.529444,52.876667],[7.1875,52.954444]]]}},{"type":"Feature","properties":{"identifier":"7.53","name":"Defensie oefengebied EHTRA 14B (Drente)","restriction":"REQ_AUTHORISATION","rule":"Alle vuchten zijn hier verboden tenzij er toestemming is gegeven door de Militaire luchverkeersdienstverlener","category":"defensie","source":"AIP Nederland ENR 5.3, ED-269, 22 juli 2024"},"geometry":{"type":"Polygon","coordinates":[[[6.58341111111111,52.8831194444444],[6.87238611111111,52.9175833333333],[6.91558505759892,52.8974218941895],[6.95055511443398,52.8697830151057],[6.97244290156133,52.8376190356767],[6.97978177168341,52.8031293096818],[6.97210542519996,52.7686669172708],[6.94997058564388,52.7365776148761],[6.91491009781144,52.7090407472155],[6.86932202280386,52.6879227437119],[6.81630396095108,52.674652638363],[6.75944444444444,52.6701273743678],[6.7025849279378,52.674652638363],[6.64956686608503,52.6879227437119],[6.60397879107745,52.7090407472155],[6.56891830324501,52.7365776148761],[6.54678346368893,52.7686669172708],[6.53910711720548,52.8031293096818],[6.54644598732756,52.8376190356767],[6.56833377445491,52.8697830151057],[6.58341111111111,52.8831194444444],[6.87238611111111,52.9175833333333],[6.91558505759892,52.8974218941895],[6.95055511443398,52.8697830151057],[6.97244290156133,52.8376190356767],[6.97978177168341,52.8031293096818],[6.97210542519996,52.7686669172708],[6.94997058564388,52.7365776148761],[6.91491009781144,52.7090407472155],[6.86932202280386,52.6879227437119],[6.81630396095108,52.674652638363],[6.75944444444444,52.6701273743678],[6.7025849279378,52.674652638363],[6.64956686608503,52.6879227437119],[6.60397879107745,52.7090407472155],[6.56891830324501,52.7365776148761],[6.54678346368893,52.7686669172708],[6.53910711720548,52.8031293096818],[6.54644598732756,52.8376190356767],[6.56833377445491,52.8697830151057],[6.58341111111111,52.8831194444444]]]}},{"type":"Feature","properties":{"identifier":"7.54","name":"Defensie oefengebied EHTRA 14C (Drente)","restriction":"REQ_AUTHORISATION","rule":"Alle vuchten zijn hier verboden tenzij er toestemming is gegeven door de Militaire luchverkeersdienstverlener","category":"defensie","source":"AIP Nederland ENR 5.3, ED-269, 22 juli 2024"},"geometry":{"type":"Polygon","coordinates":[[[6.553889,52.702321],[6.569999,52.70184],[6.585953,52.700403],[6.601599,52.698023],[6.616786,52.694722],[6.631366,52.690534],[6.645201,52.685498],[6.658156,52.679663],[6.670107,52.673084],[6.680939,52.665826],[6.690547,52.657957],[6.698839,52.649555],[6.705735,52.6407],[6.711169,52.631476],[6.715088,52.621974],[6.717454,52.612284],[6.718246,52.6025],[6.717454,52.592716],[6.715088,52.583026],[6.711169,52.573524],[6.705735,52.5643],[6.698839,52.555445],[6.690547,52.547043],[6.680939,52.539174],[6.670107,52.531916],[6.658156,52.525337],[6.645201,52.519502],[6.631366,52.514466],[6.616786,52.510278],[6.601599,52.506977],[6.585953,52.504597],[6.569999,52.50316],[6.553889,52.502679],[6.537779,52.50316],[6.521824,52.504597],[6.506179,52.506977],[6.490992,52.510278],[6.476412,52.514466],[6.462577,52.519502],[6.449622,52.525337],[6.437671,52.531916],[6.426839,52.539174],[6.417231,52.547043],[6.408939,52.555445],[6.402043,52.5643],[6.396609,52.573524],[6.39269,52.583026],[6.390323,52.592716],[6.389532,52.6025],[6.390323,52.612284],[6.39269,52.621974],[6.396609,52.631476],[6.402043,52.6407],[6.408939,52.649555],[6.417231,52.657957],[6.426839,52.665826],[6.437671,52.673084],[6.449622,52.679663],[6.462577,52.685498],[6.476412,52.690534],[6.490992,52.694722],[6.506179,52.698023],[6.521824,52.700403],[6.537779,52.70184],[6.553889,52.702321]]]}},{"type":"Feature","properties":{"identifier":"7.55","name":"Defensie oefengebied EHD 41A","restriction":"REQ_AUTHORISATION","rule":"Alle vuchten zijn hier verboden tenzij er toestemming is gegeven door de Militaire luchverkeersdienstverlener","category":"defensie","source":"AIP Nederland ENR 5.3, ED-269, 22 juli 2024"},"geometry":{"type":"Polygon","coordinates":[[[3.75,53.0833333333333],[3.75,53.2166666666667],[4.16666666666667,53.2166666666667],[4.16666666666667,53.0833333333333],[3.75,53.0833333333333]]]}},{"type":"Feature","properties":{"identifier":"7.56","name":"Defensie oefengebied EHD 41B","restriction":"REQ_AUTHORISATION","rule":"Alle vuchten zijn hier verboden tenzij er toestemming is gegeven door de Militaire luchverkeersdienstverlener","category":"defensie","source":"AIP Nederland ENR 5.3, ED-269, 22 juli 2024"},"geometry":{"type":"Polygon","coordinates":[[[3.61666666666667,53.0833333333333],[3.61666666666667,53.2166666666667],[3.75,53.2166666666667],[3.75,53.0833333333333],[3.61666666666667,53.0833333333333]]]}},{"type":"Feature","properties":{"identifier":"7.57","name":"Defensie oefengebied EHD 41C","restriction":"REQ_AUTHORISATION","rule":"Alle vuchten zijn hier verboden tenzij er toestemming is gegeven door de Militaire luchverkeersdienstverlener","category":"defensie","source":"AIP Nederland ENR 5.3, ED-269, 22 juli 2024"},"geometry":{"type":"Polygon","coordinates":[[[4.16666666666667,53.0833333333333],[4.16666666666667,53.2166666666667],[4.3,53.2166666666667],[4.3,53.0833333333333],[4.16666666666667,53.0833333333333]]]}},{"type":"Feature","properties":{"identifier":"7.58","name":"Defensie oefengebied EHD 42","restriction":"REQ_AUTHORISATION","rule":"Alle vuchten zijn hier verboden tenzij er toestemming is gegeven door de Militaire luchverkeersdienstverlener","category":"defensie","source":"AIP Nederland ENR 5.3, ED-269, 22 juli 2024"},"geometry":{"type":"Polygon","coordinates":[[[4.76666666666667,54],[6.10722222222222,54],[6.23277777777778,53.8516666666667],[5.1,53.6272222222222],[4.76666666666667,53.6],[4.76666666666667,54]]]}},{"type":"Feature","properties":{"identifier":"7.59","name":"Defensie oefengebied EHR 49 (Breezanddijk)","restriction":"REQ_AUTHORISATION","rule":"Alle vuchten zijn hier verboden tenzij er toestemming is gegeven door de Militaire luchverkeersdienstverlener","category":"defensie","source":"AIP Nederland ENR 5.3, ED-269, 22 juli 2024"},"geometry":{"type":"Polygon","coordinates":[[[5.20888888888889,53.0175],[5.26666666666667,52.8958333333333],[5.18638888888889,52.8913888888889],[5.17111111111111,52.8108333333333],[5.12583333333333,52.8130555555556],[5.13027777777778,52.8480555555556],[5.05916666666667,52.9333333333333],[5.20888888888889,53.0175]]]}},{"type":"Feature","properties":{"identifier":"7.60","name":"Defensie oefengebied EHTSA 50 (Marne; RPAS)","restriction":"REQ_AUTHORISATION","rule":"Alle vuchten zijn hier verboden tenzij er toestemming is gegeven door de Militaire luchverkeersdienstverlener","category":"defensie","source":"AIP Nederland ENR 5.3, ED-269, 22 juli 2024"},"geometry":{"type":"Polygon","coordinates":[[[6.257792,53.420112],[6.26244,53.419976],[6.267043,53.419569],[6.271557,53.418895],[6.275939,53.41796],[6.280146,53.416773],[6.284137,53.415346],[6.287875,53.413693],[6.291323,53.41183],[6.294449,53.409773],[6.297221,53.407544],[6.299613,53.405164],[6.301603,53.402655],[6.303171,53.400042],[6.304301,53.39735],[6.304984,53.394605],[6.305213,53.391833],[6.304984,53.389062],[6.304301,53.386316],[6.303171,53.383624],[6.301603,53.381011],[6.299613,53.378503],[6.297221,53.376122],[6.294449,53.373893],[6.291323,53.371837],[6.287875,53.369973],[6.284137,53.36832],[6.280146,53.366894],[6.275939,53.365707],[6.271557,53.364772],[6.267043,53.364098],[6.26244,53.363691],[6.257792,53.363554],[6.253144,53.363691],[6.24854,53.364098],[6.244026,53.364772],[6.239644,53.365707],[6.235438,53.366894],[6.231446,53.36832],[6.227708,53.369973],[6.22426,53.371837],[6.221135,53.373893],[6.218363,53.376122],[6.21597,53.378503],[6.21398,53.381011],[6.212413,53.383624],[6.211282,53.386316],[6.210599,53.389062],[6.210371,53.391833],[6.210599,53.394605],[6.211282,53.39735],[6.212413,53.400042],[6.21398,53.402655],[6.21597,53.405164],[6.218363,53.407544],[6.221135,53.409773],[6.22426,53.41183],[6.227708,53.413693],[6.231446,53.415346],[6.235438,53.416773],[6.239644,53.41796],[6.244026,53.418895],[6.24854,53.419569],[6.253144,53.419976],[6.257792,53.420112]]]}},{"type":"Feature","properties":{"identifier":"7.61","name":"Defensie oefengebied EHTSA 51 (De Haar; RPAS)","restriction":"REQ_AUTHORISATION","rule":"Alle vuchten zijn hier verboden tenzij er toestemming is gegeven door de Militaire luchverkeersdienstverlener","category":"defensie","source":"AIP Nederland ENR 5.3, ED-269, 22 juli 2024"},"geometry":{"type":"Polygon","coordinates":[[[6.521319,52.960767],[6.523688,52.960697],[6.526034,52.960487],[6.528335,52.96014],[6.530567,52.959659],[6.532711,52.959048],[6.534745,52.958313],[6.53665,52.957462],[6.538408,52.956502],[6.54,52.955443],[6.541413,52.954296],[6.542632,52.95307],[6.543646,52.951778],[6.544445,52.950433],[6.545021,52.949046],[6.545369,52.947633],[6.545486,52.946206],[6.545369,52.944778],[6.545021,52.943365],[6.544445,52.941979],[6.543646,52.940633],[6.542632,52.939341],[6.541413,52.938116],[6.54,52.936968],[6.538408,52.935909],[6.53665,52.934949],[6.534745,52.934098],[6.532711,52.933363],[6.530567,52.932752],[6.528335,52.932271],[6.526034,52.931924],[6.523688,52.931714],[6.521319,52.931644],[6.518951,52.931714],[6.516605,52.931924],[6.514304,52.932271],[6.512071,52.932752],[6.509928,52.933363],[6.507893,52.934098],[6.505989,52.934949],[6.504231,52.935909],[6.502639,52.936968],[6.501226,52.938116],[6.500007,52.939341],[6.498993,52.940633],[6.498194,52.941979],[6.497618,52.943365],[6.49727,52.944778],[6.497153,52.946206],[6.49727,52.947633],[6.497618,52.949046],[6.498194,52.950433],[6.498993,52.951778],[6.500007,52.95307],[6.501226,52.954296],[6.502639,52.955443],[6.504231,52.956502],[6.505989,52.957462],[6.507893,52.958313],[6.509928,52.959048],[6.512071,52.959659],[6.514304,52.96014],[6.516605,52.960487],[6.518951,52.960697],[6.521319,52.960767]]]}},{"type":"Feature","properties":{"identifier":"7.62","name":"Defensie oefengebied EHTSA 52 (Havelte; RPAS)","restriction":"REQ_AUTHORISATION","rule":"Alle vuchten zijn hier verboden tenzij er toestemming is gegeven door de Militaire luchverkeersdienstverlener","category":"defensie","source":"AIP Nederland ENR 5.3, ED-269, 22 juli 2024"},"geometry":{"type":"Polygon","coordinates":[[[6.17529722222222,52.8020361111111],[6.216625,52.8177527777778],[6.21760533078407,52.8181330328659],[6.2255774166878,52.8201296134649],[6.23413333333333,52.820810630905],[6.23413333333333,52.820810630905],[6.24268924997887,52.8201296134649],[6.2506613358826,52.8181330328659],[6.25750575112967,52.814957120789],[6.26275585738014,52.8108185398191],[6.26605407269909,52.8059995567007],[6.26717618516823,52.8008287448567],[6.26604648326711,52.7956585477518],[6.26274271209704,52.7908412441319],[6.25749057226214,52.7867049574002],[6.25064819059593,52.7835313395618],[6.24498333333333,52.7819777777778],[6.19895,52.7722333333333],[6.19701774878571,52.7718580688349],[6.18989444444444,52.771290921796],[6.18277114010318,52.7718580688349],[6.1761327514367,52.7735209024061],[6.17043128861206,52.7761662195202],[6.1660551556424,52.7796139052008],[6.16330271921868,52.7836291644576],[6.16236193805493,52.787938480566],[6.16329745090594,52.7922482235309],[6.16604603065644,52.7962646489813],[6.17042075198486,52.7997139277121],[6.17612362644902,52.8023608378766],[6.17529722222222,52.8020361111111]]]}},{"type":"Feature","properties":{"identifier":"7.63","name":"Defensie oefengebied EHTSA 53 (Beekhuizerzand; RPAS)","restriction":"REQ_AUTHORISATION","rule":"Alle vuchten zijn hier verboden tenzij er toestemming is gegeven door de Militaire luchverkeersdienstverlener","category":"defensie","source":"AIP Nederland ENR 5.3, ED-269, 22 juli 2024"},"geometry":{"type":"Polygon","coordinates":[[[5.674633,52.348517],[5.677302,52.348437],[5.679945,52.348198],[5.682536,52.347801],[5.685052,52.347251],[5.687467,52.346553],[5.689759,52.345714],[5.691905,52.344741],[5.693884,52.343645],[5.695678,52.342435],[5.69727,52.341123],[5.698644,52.339723],[5.699786,52.338247],[5.700686,52.33671],[5.701335,52.335126],[5.701727,52.333511],[5.701858,52.331881],[5.701727,52.33025],[5.701335,52.328635],[5.700686,52.327051],[5.699786,52.325514],[5.698644,52.324038],[5.69727,52.322638],[5.695678,52.321326],[5.693884,52.320117],[5.691905,52.31902],[5.689759,52.318048],[5.687467,52.317208],[5.685052,52.31651],[5.682536,52.31596],[5.679945,52.315563],[5.677302,52.315324],[5.674633,52.315244],[5.671965,52.315324],[5.669322,52.315563],[5.66673,52.31596],[5.664215,52.31651],[5.6618,52.317208],[5.659508,52.318048],[5.657362,52.31902],[5.655382,52.320117],[5.653588,52.321326],[5.651997,52.322638],[5.650623,52.324038],[5.649481,52.325514],[5.648581,52.327051],[5.647932,52.328635],[5.647539,52.33025],[5.647408,52.331881],[5.647539,52.333511],[5.647932,52.335126],[5.648581,52.33671],[5.649481,52.338247],[5.650623,52.339723],[5.651997,52.341123],[5.653588,52.342435],[5.655382,52.343645],[5.657362,52.344741],[5.659508,52.345714],[5.6618,52.346553],[5.664215,52.347251],[5.66673,52.347801],[5.669322,52.348198],[5.671965,52.348437],[5.674633,52.348517]]]}},{"type":"Feature","properties":{"identifier":"7.64","name":"Defensie oefengebied EHTSA 54 (Ermelosche Heide; RPAS)","restriction":"REQ_AUTHORISATION","rule":"Alle vuchten zijn hier verboden tenzij er toestemming is gegeven door de Militaire luchverkeersdienstverlener","category":"defensie","source":"AIP Nederland ENR 5.3, ED-269, 22 juli 2024"},"geometry":{"type":"Polygon","coordinates":[[[5.680536,52.307653],[5.683362,52.307568],[5.68616,52.307315],[5.688905,52.306894],[5.691569,52.306311],[5.694126,52.305571],[5.696553,52.304682],[5.698825,52.303651],[5.700922,52.302489],[5.702822,52.301206],[5.704507,52.299816],[5.705961,52.298332],[5.707171,52.296768],[5.708124,52.295138],[5.708812,52.29346],[5.709227,52.291748],[5.709366,52.290019],[5.709227,52.288291],[5.708812,52.286579],[5.708124,52.284901],[5.707171,52.283271],[5.705961,52.281707],[5.704507,52.280223],[5.702822,52.278833],[5.700922,52.27755],[5.698825,52.276388],[5.696553,52.275357],[5.694126,52.274468],[5.691569,52.273728],[5.688905,52.273145],[5.68616,52.272724],[5.683362,52.27247],[5.680536,52.272386],[5.67771,52.27247],[5.674912,52.272724],[5.672167,52.273145],[5.669504,52.273728],[5.666946,52.274468],[5.664519,52.275357],[5.662247,52.276388],[5.660151,52.27755],[5.658251,52.278833],[5.656565,52.280223],[5.655111,52.281707],[5.653901,52.283271],[5.652948,52.284901],[5.652261,52.286579],[5.651846,52.288291],[5.651707,52.290019],[5.651846,52.291748],[5.652261,52.29346],[5.652948,52.295138],[5.653901,52.296768],[5.655111,52.298332],[5.656565,52.299816],[5.658251,52.301206],[5.660151,52.302489],[5.662247,52.303651],[5.664519,52.304682],[5.666946,52.305571],[5.669504,52.306311],[5.672167,52.306894],[5.674912,52.307315],[5.67771,52.307568],[5.680536,52.307653]]]}},{"type":"Feature","properties":{"identifier":"7.65","name":"Defensie oefengebied EHTSA 55 (Vlasakkers; RPAS)","restriction":"REQ_AUTHORISATION","rule":"Alle vuchten zijn hier verboden tenzij er toestemming is gegeven door de Militaire luchverkeersdienstverlener","category":"defensie","source":"AIP Nederland ENR 5.3, ED-269, 22 juli 2024"},"geometry":{"type":"Polygon","coordinates":[[[5.33575,52.1457222222222],[5.34077777777778,52.1383888888889],[5.30127777777778,52.1278333333333],[5.29655555555556,52.1312777777778],[5.29222222222222,52.1320833333333],[5.29108333333333,52.1328611111111],[5.29091666666667,52.1373611111111],[5.29972222222222,52.1449166666667],[5.31808333333333,52.1441111111111],[5.33575,52.1457222222222]]]}},{"type":"Feature","properties":{"identifier":"7.66","name":"Defensie oefengebied EHTSA 56 (Leusderheide; RPAS)","restriction":"REQ_AUTHORISATION","rule":"Alle vuchten zijn hier verboden tenzij er toestemming is gegeven door de Militaire luchverkeersdienstverlener","category":"defensie","source":"AIP Nederland ENR 5.3, ED-269, 22 juli 2024"},"geometry":{"type":"Polygon","coordinates":[[[5.341328,52.126147],[5.344513,52.126051],[5.347668,52.125763],[5.350762,52.125287],[5.353764,52.124627],[5.356647,52.12379],[5.359383,52.122783],[5.361945,52.121616],[5.364308,52.1203],[5.366449,52.118849],[5.368349,52.117276],[5.369989,52.115595],[5.371352,52.113825],[5.372427,52.11198],[5.373202,52.11008],[5.37367,52.108143],[5.373826,52.106186],[5.37367,52.10423],[5.373202,52.102292],[5.372427,52.100392],[5.371352,52.098548],[5.369989,52.096777],[5.368349,52.095097],[5.366449,52.093523],[5.364308,52.092072],[5.361945,52.090756],[5.359383,52.08959],[5.356647,52.088582],[5.353764,52.087745],[5.350762,52.087085],[5.347668,52.086609],[5.344513,52.086322],[5.341328,52.086226],[5.338142,52.086322],[5.334988,52.086609],[5.331894,52.087085],[5.328891,52.087745],[5.326008,52.088582],[5.323273,52.08959],[5.320711,52.090756],[5.318348,52.092072],[5.316206,52.093523],[5.314306,52.095097],[5.312667,52.096777],[5.311303,52.098548],[5.310229,52.100392],[5.309454,52.102292],[5.308986,52.10423],[5.308829,52.106186],[5.308986,52.108143],[5.309454,52.11008],[5.310229,52.11198],[5.311303,52.113825],[5.312667,52.115595],[5.314306,52.117276],[5.316206,52.118849],[5.318348,52.1203],[5.320711,52.121616],[5.323273,52.122783],[5.326008,52.12379],[5.328891,52.124627],[5.331894,52.125287],[5.334988,52.125763],[5.338142,52.126051],[5.341328,52.126147]]]}},{"type":"Feature","properties":{"identifier":"7.67","name":"Defensie oefengebied EHTSA 57 (Rucphense Heide; RPAS)","restriction":"REQ_AUTHORISATION","rule":"Alle vuchten zijn hier verboden tenzij er toestemming is gegeven door de Militaire luchverkeersdienstverlener","category":"defensie","source":"AIP Nederland ENR 5.3, ED-269, 22 juli 2024"},"geometry":{"type":"Polygon","coordinates":[[[4.536458,51.528662],[4.539079,51.528582],[4.541674,51.528342],[4.544218,51.527945],[4.546688,51.527395],[4.54906,51.526697],[4.55131,51.525858],[4.553417,51.524885],[4.555361,51.523789],[4.557123,51.522579],[4.558685,51.521268],[4.560034,51.519868],[4.561156,51.518392],[4.562039,51.516854],[4.562677,51.515271],[4.563062,51.513656],[4.563191,51.512025],[4.563062,51.510394],[4.562677,51.508779],[4.562039,51.507196],[4.561156,51.505658],[4.560034,51.504182],[4.558685,51.502782],[4.557123,51.501471],[4.555361,51.500261],[4.553417,51.499165],[4.55131,51.498192],[4.54906,51.497353],[4.546688,51.496655],[4.544218,51.496105],[4.541674,51.495708],[4.539079,51.495468],[4.536458,51.495388],[4.533838,51.495468],[4.531243,51.495708],[4.528698,51.496105],[4.526228,51.496655],[4.523857,51.497353],[4.521607,51.498192],[4.5195,51.499165],[4.517556,51.500261],[4.515794,51.501471],[4.514231,51.502782],[4.512883,51.504182],[4.511761,51.505658],[4.510877,51.507196],[4.51024,51.508779],[4.509855,51.510394],[4.509726,51.512025],[4.509855,51.513656],[4.51024,51.515271],[4.510877,51.516854],[4.511761,51.518392],[4.512883,51.519868],[4.514231,51.521268],[4.515794,51.522579],[4.517556,51.523789],[4.5195,51.524885],[4.521607,51.525858],[4.523857,51.526697],[4.526228,51.527395],[4.528698,51.527945],[4.531243,51.528342],[4.533838,51.528582],[4.536458,51.528662]]]}},{"type":"Feature","properties":{"identifier":"7.68","name":"Defensie oefengebied EHTRA 58 (Regte Heide)","restriction":"REQ_AUTHORISATION","rule":"Alle vuchten zijn hier verboden tenzij er toestemming is gegeven door de Militaire luchverkeersdienstverlener","category":"defensie","source":"AIP Nederland ENR 5.3, ED-269, 22 juli 2024"},"geometry":{"type":"Polygon","coordinates":[[[5.027778,51.545774],[5.033018,51.545613],[5.038208,51.545134],[5.043298,51.544341],[5.048238,51.543241],[5.052981,51.541845],[5.057481,51.540166],[5.061696,51.538221],[5.065583,51.536028],[5.069107,51.533609],[5.072232,51.530986],[5.07493,51.528185],[5.077173,51.525233],[5.078941,51.522159],[5.080215,51.518991],[5.080985,51.515761],[5.081243,51.5125],[5.080985,51.509239],[5.080215,51.506009],[5.078941,51.502841],[5.077173,51.499767],[5.07493,51.496815],[5.072232,51.494014],[5.069107,51.491391],[5.065583,51.488972],[5.061696,51.486779],[5.057481,51.484834],[5.052981,51.483155],[5.048238,51.481759],[5.043298,51.480659],[5.038208,51.479866],[5.033018,51.479387],[5.027778,51.479226],[5.022537,51.479387],[5.017347,51.479866],[5.012258,51.480659],[5.007318,51.481759],[5.002575,51.483155],[4.998074,51.484834],[4.99386,51.486779],[4.989972,51.488972],[4.986449,51.491391],[4.983323,51.494014],[4.980626,51.496815],[4.978383,51.499767],[4.976615,51.502841],[4.97534,51.506009],[4.97457,51.509239],[4.974313,51.5125],[4.97457,51.515761],[4.97534,51.518991],[4.976615,51.522159],[4.978383,51.525233],[4.980626,51.528185],[4.983323,51.530986],[4.986449,51.533609],[4.989972,51.536028],[4.99386,51.538221],[4.998074,51.540166],[5.002575,51.541845],[5.007318,51.543241],[5.012258,51.544341],[5.017347,51.545134],[5.022537,51.545613],[5.027778,51.545774]]]}},{"type":"Feature","properties":{"identifier":"7.69","name":"Defensie oefengebied EHTRA 59 (Leusderheide)","restriction":"REQ_AUTHORISATION","rule":"Alle vuchten zijn hier verboden tenzij er toestemming is gegeven door de Militaire luchverkeersdienstverlener","category":"defensie","source":"AIP Nederland ENR 5.3, ED-269, 22 juli 2024"},"geometry":{"type":"Polygon","coordinates":[[[5.342778,52.137162],[5.348087,52.137002],[5.353346,52.136523],[5.358503,52.13573],[5.363508,52.13463],[5.368314,52.133234],[5.372874,52.131555],[5.377144,52.12961],[5.381083,52.127417],[5.384653,52.124997],[5.387819,52.122375],[5.390552,52.119574],[5.392825,52.116622],[5.394616,52.113548],[5.395908,52.11038],[5.396688,52.10715],[5.396949,52.103889],[5.396688,52.100628],[5.395908,52.097398],[5.394616,52.09423],[5.392825,52.091156],[5.390552,52.088204],[5.387819,52.085403],[5.384653,52.08278],[5.381083,52.080361],[5.377144,52.078168],[5.372874,52.076223],[5.368314,52.074544],[5.363508,52.073148],[5.358503,52.072048],[5.353346,52.071255],[5.348087,52.070776],[5.342778,52.070615],[5.337468,52.070776],[5.33221,52.071255],[5.327053,52.072048],[5.322047,52.073148],[5.317242,52.074544],[5.312682,52.076223],[5.308412,52.078168],[5.304473,52.080361],[5.300903,52.08278],[5.297736,52.085403],[5.295003,52.088204],[5.29273,52.091156],[5.290939,52.09423],[5.289648,52.097398],[5.288868,52.100628],[5.288607,52.103889],[5.288868,52.10715],[5.289648,52.11038],[5.290939,52.113548],[5.29273,52.116622],[5.295003,52.119574],[5.297736,52.122375],[5.300903,52.124997],[5.304473,52.127417],[5.308412,52.12961],[5.312682,52.131555],[5.317242,52.133234],[5.322047,52.13463],[5.327053,52.13573],[5.33221,52.136523],[5.337468,52.137002],[5.342778,52.137162]]]}},{"type":"Feature","properties":{"identifier":"7.70","name":"Defensie oefengebied EHR 64 (Kruispeel/Achterbroek)","restriction":"REQ_AUTHORISATION","rule":"Alle vuchten zijn hier verboden tenzij er toestemming is gegeven door de Militaire luchverkeersdienstverlener","category":"defensie","source":"AIP Nederland ENR 5.3, ED-269, 22 juli 2024"},"geometry":{"type":"Polygon","coordinates":[[[5.633217,51.217373],[5.633638,51.21736],[5.634056,51.217321],[5.634466,51.217257],[5.634863,51.217168],[5.635245,51.217055],[5.635607,51.216919],[5.635946,51.216761],[5.636259,51.216583],[5.636542,51.216387],[5.636794,51.216175],[5.637011,51.215948],[5.637191,51.215709],[5.637334,51.21546],[5.637436,51.215204],[5.637498,51.214942],[5.637519,51.214678],[5.637498,51.214414],[5.637436,51.214152],[5.637334,51.213895],[5.637191,51.213646],[5.637011,51.213407],[5.636794,51.213181],[5.636542,51.212968],[5.636259,51.212772],[5.635946,51.212595],[5.635607,51.212437],[5.635245,51.212301],[5.634863,51.212188],[5.634466,51.212099],[5.634056,51.212035],[5.633638,51.211996],[5.633217,51.211983],[5.632795,51.211996],[5.632377,51.212035],[5.631968,51.212099],[5.63157,51.212188],[5.631189,51.212301],[5.630826,51.212437],[5.630487,51.212595],[5.630175,51.212772],[5.629891,51.212968],[5.629639,51.213181],[5.629422,51.213407],[5.629242,51.213646],[5.6291,51.213895],[5.628997,51.214152],[5.628935,51.214414],[5.628914,51.214678],[5.628935,51.214942],[5.628997,51.215204],[5.6291,51.21546],[5.629242,51.215709],[5.629422,51.215948],[5.629639,51.216175],[5.629891,51.216387],[5.630175,51.216583],[5.630487,51.216761],[5.630826,51.216919],[5.631189,51.217055],[5.63157,51.217168],[5.631968,51.217257],[5.632377,51.217321],[5.632795,51.21736],[5.633217,51.217373]]]}},{"type":"Feature","properties":{"identifier":"7.71","name":"Defensie oefengebied EHTSA 67 (Kraggenburg)","restriction":"REQ_AUTHORISATION","rule":"Alle vuchten zijn hier verboden tenzij er toestemming is gegeven door de Militaire luchverkeersdienstverlener","category":"defensie","source":"AIP Nederland ENR 5.3, ED-269, 22 juli 2024"},"geometry":{"type":"Polygon","coordinates":[[[5.89694444444444,52.6636111111111],[5.86888888888889,52.6905555555556],[5.84416666666667,52.6813888888889],[5.87166666666667,52.6538888888889],[5.89694444444444,52.6636111111111]]]}},{"type":"Feature","properties":{"identifier":"7.72","name":"Defensie oefengebied EHTRA 72 (Wamel)","restriction":"REQ_AUTHORISATION","rule":"Alle vuchten zijn hier verboden tenzij er toestemming is gegeven door de Militaire luchverkeersdienstverlener","category":"defensie","source":"AIP Nederland ENR 5.3, ED-269, 22 juli 2024"},"geometry":{"type":"Polygon","coordinates":[[[5.50972222222222,51.9105555555556],[5.67777777777778,51.8666666666667],[5.67888888888889,51.8202777777778],[5.38222222222222,51.7311111111111],[5.29222222222222,51.8666666666667],[5.38,51.9030555555556],[5.50972222222222,51.9105555555556]]]}},{"type":"Feature","properties":{"identifier":"7.73","name":"Defensie oefengebied EHTRA 80 (Deelen High) AMC-Manageable Area","restriction":"REQ_AUTHORISATION","rule":"Alle vuchten zijn hier verboden tenzij er toestemming is gegeven door de Militaire luchverkeersdienstverlener","category":"defensie","source":"AIP Nederland ENR 5.3, ED-269, 22 juli 2024"},"geometry":{"type":"Polygon","coordinates":[[[5.871936,52.167867],[5.889176,52.167346],[5.906249,52.165789],[5.922992,52.163211],[5.939243,52.159635],[5.954846,52.155098],[5.969651,52.149642],[5.983514,52.143321],[5.996303,52.136194],[6.007895,52.128331],[6.018177,52.119807],[6.02705,52.110704],[6.03443,52.101111],[6.040245,52.091119],[6.044439,52.080825],[6.046971,52.070327],[6.047818,52.059728],[6.046971,52.049128],[6.044439,52.038631],[6.040245,52.028337],[6.03443,52.018345],[6.02705,52.008751],[6.018177,51.999649],[6.007895,51.991125],[5.996303,51.983262],[5.983514,51.976135],[5.969651,51.969813],[5.954846,51.964358],[5.939243,51.95982],[5.922992,51.956245],[5.906249,51.953666],[5.889176,51.952109],[5.871936,51.951589],[5.854697,51.952109],[5.837623,51.953666],[5.82088,51.956245],[5.804629,51.95982],[5.789026,51.964358],[5.774221,51.969813],[5.760358,51.976135],[5.747569,51.983262],[5.735978,51.991125],[5.725696,51.999649],[5.716822,52.008751],[5.709442,52.018345],[5.703628,52.028337],[5.699434,52.038631],[5.696901,52.049128],[5.696054,52.059728],[5.696901,52.070327],[5.699434,52.080825],[5.703628,52.091119],[5.709442,52.101111],[5.716822,52.110704],[5.725696,52.119807],[5.735978,52.128331],[5.747569,52.136194],[5.760358,52.143321],[5.774221,52.149642],[5.789026,52.155098],[5.804629,52.159635],[5.82088,52.163211],[5.837623,52.165789],[5.854697,52.167346],[5.871936,52.167867]]]}},{"type":"Feature","properties":{"identifier":"7.74","name":"Defensie oefengebied EHTRA 81 (Maas/Waal)","restriction":"REQ_AUTHORISATION","rule":"Alle vuchten zijn hier verboden tenzij er toestemming is gegeven door de Militaire luchverkeersdienstverlener","category":"defensie","source":"AIP Nederland ENR 5.3, ED-269, 22 juli 2024"},"geometry":{"type":"Polygon","coordinates":[[[5.55731111111111,51.8997194444444],[5.57994166666667,51.8755194444444],[5.62125277777778,51.8721555555556],[5.65008611111111,51.8001111111111],[5.58331388888889,51.783325],[5.54168611111111,51.7916861111111],[5.483275,51.783325],[5.483275,51.7501222222222],[5.337025,51.7501138888889],[5.32486111111111,51.7465972222222],[5.31748055555556,51.7437916666667],[5.3059,51.7385388888889],[5.29818055555556,51.7360833333333],[5.29359444444444,51.7361305555556],[5.285125,51.7387944444444],[5.27945833333333,51.7393722222222],[5.265775,51.73865],[5.25648055555556,51.7339138888889],[5.25170833333333,51.7331361111111],[5.24518055555556,51.7332777777778],[5.23041388888889,51.7406],[5.22015555555556,51.7429777777778],[5.21456111111111,51.7423111111111],[5.20742777777778,51.7407055555556],[5.19987222222222,51.7395055555556],[5.19249166666667,51.7396972222222],[5.18440833333333,51.7414083333333],[5.17679166666667,51.7423111111111],[5.16474722222222,51.7422166666667],[5.14104444444444,51.7390305555556],[5.11943888888889,51.7351333333333],[5.10521944444444,51.7314722222222],[5.0876,51.7241388888889],[5.08363055555556,51.7209666666667],[5.07551944444444,51.7142833333333],[5.06677777777778,51.7110138888889],[5.06216388888889,51.7095888888889],[5.05521666666667,51.7081027777778],[5.04593888888889,51.7072111111111],[5.03850833333333,51.7068833333333],[5.03190277777778,51.7070333333333],[5.02306388888889,51.7074777777778],[5.01130833333333,51.7087555555556],[5.007375,51.7094111111111],[4.997225,51.7100027777778],[4.98770277777778,51.7112222222222],[4.96866111111111,51.7090555555556],[4.95928888888889,51.7064388888889],[4.94899166666667,51.7066777777778],[4.93151111111111,51.70865],[4.91615833333333,51.7124388888889],[4.90683333333333,51.7138722222222],[4.90188055555556,51.7153527777778],[4.89848055555556,51.7169555555556],[4.89925555555556,51.7255138888889],[4.91178888888889,51.7310388888889],[4.92393055555556,51.7419722222222],[4.93306111111111,51.7546583333333],[4.93461666666667,51.7641361111111],[4.93510277777778,51.7710277777778],[4.93986111111111,51.7890333333333],[4.93884166666667,51.7961027777778],[4.96473055555556,51.8113138888889],[4.99319166666667,51.8177611111111],[5.00689722222222,51.8197027777778],[5.037475,51.8145138888889],[5.08032222222222,51.8248888888889],[5.09332222222222,51.8247055555556],[5.12628055555555,51.8129277777778],[5.14111388888889,51.8120722222222],[5.16552777777778,51.8153083333333],[5.18328888888889,51.8134777777778],[5.21948333333333,51.8084722222222],[5.247925,51.8154916666667],[5.30407777777778,51.8220833333333],[5.31426944444444,51.8209222222222],[5.32428055555556,51.8159166666667],[5.32989444444444,51.8104861111111],[5.33532777777778,51.805725],[5.34869444444444,51.802125],[5.36328055555555,51.8037222222222],[5.38031111111111,51.8203111111111],[5.41290277777778,51.8443],[5.42767222222222,51.8693222222222],[5.444275,51.8833],[5.462525,51.8876944444444],[5.51110833333333,51.8883055555556],[5.55731111111111,51.8997194444444]]]}},{"type":"Feature","properties":{"identifier":"7.75","name":"Defensie oefengebied EHTRA 82 (Zaltbommel)","restriction":"REQ_AUTHORISATION","rule":"Alle vuchten zijn hier verboden tenzij er toestemming is gegeven door de Militaire luchverkeersdienstverlener","category":"defensie","source":"AIP Nederland ENR 5.3, ED-269, 22 juli 2024"},"geometry":{"type":"Polygon","coordinates":[[[4.88333333333333,51.7166666666667],[4.93333333333333,51.8166666666667],[5.5,51.8833333333333],[5.5,51.7833333333333],[4.88333333333333,51.7166666666667]]]}},{"type":"Feature","properties":{"identifier":"7.76","name":"Defensie oefengebied EHTRA 83 (Ginkel)","restriction":"REQ_AUTHORISATION","rule":"Alle vuchten zijn hier verboden tenzij er toestemming is gegeven door de Militaire luchverkeersdienstverlener","category":"defensie","source":"AIP Nederland ENR 5.3, ED-269, 22 juli 2024"},"geometry":{"type":"Polygon","coordinates":[[[5.716667,52.116517],[5.72992,52.116117],[5.743046,52.114919],[5.755917,52.112935],[5.768411,52.110185],[5.780406,52.106695],[5.791787,52.102498],[5.802445,52.097635],[5.812277,52.092153],[5.821188,52.086105],[5.829093,52.079548],[5.835915,52.072546],[5.841588,52.065166],[5.846058,52.05748],[5.849282,52.049562],[5.851229,52.041487],[5.851881,52.033333],[5.851229,52.02518],[5.849282,52.017105],[5.846058,52.009186],[5.841588,52.0015],[5.835915,51.994121],[5.829093,51.987119],[5.821188,51.980562],[5.812277,51.974513],[5.802445,51.969031],[5.791787,51.964168],[5.780406,51.959972],[5.768411,51.956481],[5.755917,51.953731],[5.743046,51.951748],[5.72992,51.95055],[5.716667,51.950149],[5.703413,51.95055],[5.690288,51.951748],[5.677416,51.953731],[5.664923,51.956481],[5.652927,51.959972],[5.641546,51.964168],[5.630888,51.969031],[5.621056,51.974513],[5.612145,51.980562],[5.60424,51.987119],[5.597419,51.994121],[5.591745,52.0015],[5.587275,52.009186],[5.584051,52.017105],[5.582104,52.02518],[5.581453,52.033333],[5.582104,52.041487],[5.584051,52.049562],[5.587275,52.05748],[5.591745,52.065166],[5.597419,52.072546],[5.60424,52.079548],[5.612145,52.086105],[5.621056,52.092153],[5.630888,52.097635],[5.641546,52.102498],[5.652927,52.106695],[5.664923,52.110185],[5.677416,52.112935],[5.690288,52.114919],[5.703413,52.116117],[5.716667,52.116517]]]}},{"type":"Feature","properties":{"identifier":"7.77","name":"Defensie oefengebied EHTRA 84 (Uddel)","restriction":"REQ_AUTHORISATION","rule":"Alle vuchten zijn hier verboden tenzij er toestemming is gegeven door de Militaire luchverkeersdienstverlener","category":"defensie","source":"AIP Nederland ENR 5.3, ED-269, 22 juli 2024"},"geometry":{"type":"Polygon","coordinates":[[[5.63333333333333,52.1666666666667],[5.65227777777778,52.2615277777778],[5.66666666666667,52.3333333333333],[5.91666666666667,52.3333333333333],[5.88333333333333,52.1666666666667],[5.63333333333333,52.1666666666667]]]}},{"type":"Feature","properties":{"identifier":"7.78","name":"Defensie oefengebied EHTSA 85 (Deelen Low)","restriction":"REQ_AUTHORISATION","rule":"Alle vuchten zijn hier verboden tenzij er toestemming is gegeven door de Militaire luchverkeersdienstverlener","category":"defensie","source":"AIP Nederland ENR 5.3, ED-269, 22 juli 2024"},"geometry":{"type":"Polygon","coordinates":[[[5.69711111111111,52.0448888888889],[5.69888888888889,52.0804444444444],[5.71992777777778,52.1139055555556],[5.74644444444444,52.1354722222222],[5.73333333333333,52.1555555555556],[5.78333333333333,52.1916666666667],[5.84244166666667,52.1714166666667],[5.85742777777778,52.2016555555556],[5.96515555555556,52.1813916666667],[5.88090833333333,52.0302694444444],[5.69711111111111,52.0448888888889]]]}},{"type":"Feature","properties":{"identifier":"7.79","name":"Defensie oefengebied EHTSA 100 (Combi Recovery Circle)","restriction":"REQ_AUTHORISATION","rule":"Alle vuchten zijn hier verboden tenzij er toestemming is gegeven door de Militaire luchverkeersdienstverlener","category":"defensie","source":"AIP Nederland ENR 5.3, ED-269, 22 juli 2024"},"geometry":{"type":"Polygon","coordinates":[[[5.69711111111111,52.0448888888889],[5.69888888888889,52.0804444444444],[5.71992777777778,52.1139055555556],[5.74644444444444,52.1354722222222],[5.73333333333333,52.1555555555556],[5.78333333333333,52.1916666666667],[5.84244166666667,52.1714166666667],[5.85742777777778,52.2016555555556],[5.96515555555556,52.1813916666667],[5.88090833333333,52.0302694444444],[5.69711111111111,52.0448888888889]]]}},{"type":"Feature","properties":{"identifier":"7.80","name":"Defensie oefengebied EHTSA 101 (Emmer-Compascuum)","restriction":"REQ_AUTHORISATION","rule":"Alle vuchten zijn hier verboden tenzij er toestemming is gegeven door de Militaire luchverkeersdienstverlener","category":"defensie","source":"AIP Nederland ENR 5.3, ED-269, 22 juli 2024"},"geometry":{"type":"Polygon","coordinates":[[[7.003722,52.816316],[7.007767,52.816196],[7.011773,52.815837],[7.015702,52.815242],[7.019515,52.814417],[7.023176,52.81337],[7.026649,52.812111],[7.029902,52.810652],[7.032903,52.809007],[7.035622,52.807193],[7.038035,52.805225],[7.040117,52.803125],[7.041848,52.800911],[7.043213,52.798605],[7.044197,52.79623],[7.044791,52.793807],[7.04499,52.791361],[7.044791,52.788915],[7.044197,52.786493],[7.043213,52.784117],[7.041848,52.781811],[7.040117,52.779597],[7.038035,52.777497],[7.035622,52.77553],[7.032903,52.773715],[7.029902,52.77207],[7.026649,52.770612],[7.023176,52.769353],[7.019515,52.768306],[7.015702,52.76748],[7.011773,52.766885],[7.007767,52.766526],[7.003722,52.766406],[6.999677,52.766526],[6.995671,52.766885],[6.991743,52.76748],[6.98793,52.768306],[6.984269,52.769353],[6.980795,52.770612],[6.977542,52.77207],[6.974542,52.773715],[6.971822,52.77553],[6.96941,52.777497],[6.967328,52.779597],[6.965596,52.781811],[6.964232,52.784117],[6.963248,52.786493],[6.962654,52.788915],[6.962455,52.791361],[6.962654,52.793807],[6.963248,52.79623],[6.964232,52.798605],[6.965596,52.800911],[6.967328,52.803125],[6.96941,52.805225],[6.971822,52.807193],[6.974542,52.809007],[6.977542,52.810652],[6.980795,52.812111],[6.984269,52.81337],[6.98793,52.814417],[6.991743,52.815242],[6.995671,52.815837],[6.999677,52.816196],[7.003722,52.816316]]]}},{"type":"Feature","properties":{"identifier":"7.81","name":"Defensie oefengebied EHTSA 102 (De Krim)","restriction":"REQ_AUTHORISATION","rule":"Alle vuchten zijn hier verboden tenzij er toestemming is gegeven door de Militaire luchverkeersdienstverlener","category":"defensie","source":"AIP Nederland ENR 5.3, ED-269, 22 juli 2024"},"geometry":{"type":"Polygon","coordinates":[[[6.641306,52.688927],[6.645339,52.688807],[6.649333,52.688448],[6.65325,52.687853],[6.657052,52.687028],[6.660702,52.685981],[6.664166,52.684722],[6.667409,52.683263],[6.670401,52.681618],[6.673113,52.679804],[6.675518,52.677837],[6.677594,52.675736],[6.67932,52.673522],[6.680681,52.671216],[6.681662,52.668841],[6.682254,52.666418],[6.682453,52.663972],[6.682254,52.661526],[6.681662,52.659104],[6.680681,52.656728],[6.67932,52.654422],[6.677594,52.652208],[6.675518,52.650108],[6.673113,52.648141],[6.670401,52.646326],[6.667409,52.644682],[6.664166,52.643223],[6.660702,52.641964],[6.657052,52.640917],[6.65325,52.640092],[6.649333,52.639497],[6.645339,52.639137],[6.641306,52.639017],[6.637272,52.639137],[6.633278,52.639497],[6.629361,52.640092],[6.625559,52.640917],[6.621909,52.641964],[6.618445,52.643223],[6.615202,52.644682],[6.61221,52.646326],[6.609498,52.648141],[6.607093,52.650108],[6.605017,52.652208],[6.603291,52.654422],[6.60193,52.656728],[6.600949,52.659104],[6.600357,52.661526],[6.600159,52.663972],[6.600357,52.666418],[6.600949,52.668841],[6.60193,52.671216],[6.603291,52.673522],[6.605017,52.675736],[6.607093,52.677837],[6.609498,52.679804],[6.61221,52.681618],[6.615202,52.683263],[6.618445,52.684722],[6.621909,52.685981],[6.625559,52.687028],[6.629361,52.687853],[6.633278,52.688448],[6.637272,52.688807],[6.641306,52.688927]]]}}]}