{"type":"FeatureCollection","name":"Landingsplaatsen van trauma- en reddingshelikopters","source":"Afgeleid uit nl/uas-zones.json, AIP Nederland ENR 5.3, uitgave 22 juli 2024. Cirkels zijn benaderd met 64 punten.","features":[{"type":"Feature","properties":{"identifier":"3.q","name":"TRAUMAHELIKOPTER landingsplaats AMSTERDAM/VU Medisch Centrum","restriction":"CONDITIONAL","rule":"Vluchten in de OPEN categorie zijn hier niet toegestaan","category":"helikopter","source":"AIP Nederland ENR 5.3, ED-269, 22 juli 2024"},"geometry":{"type":"Polygon","coordinates":[[[4.859167,52.345224],[4.860896,52.345172],[4.862608,52.345017],[4.864288,52.34476],[4.865918,52.344404],[4.867483,52.343951],[4.868968,52.343408],[4.870358,52.342777],[4.871641,52.342067],[4.872804,52.341283],[4.873835,52.340433],[4.874725,52.339526],[4.875465,52.33857],[4.876048,52.337574],[4.876469,52.336547],[4.876723,52.335501],[4.876808,52.334444],[4.876723,52.333388],[4.876469,52.332341],[4.876048,52.331315],[4.875465,52.330319],[4.874725,52.329363],[4.873835,52.328456],[4.872804,52.327606],[4.871641,52.326822],[4.870358,52.326112],[4.868968,52.325481],[4.867483,52.324938],[4.865918,52.324485],[4.864288,52.324129],[4.862608,52.323872],[4.860896,52.323717],[4.859167,52.323665],[4.857438,52.323717],[4.855725,52.323872],[4.854046,52.324129],[4.852416,52.324485],[4.850851,52.324938],[4.849366,52.325481],[4.847975,52.326112],[4.846692,52.326822],[4.84553,52.327606],[4.844498,52.328456],[4.843608,52.329363],[4.842868,52.330319],[4.842285,52.331315],[4.841864,52.332341],[4.84161,52.333388],[4.841525,52.334444],[4.84161,52.335501],[4.841864,52.336547],[4.842285,52.337574],[4.842868,52.33857],[4.843608,52.339526],[4.844498,52.340433],[4.84553,52.341283],[4.846692,52.342067],[4.847975,52.342777],[4.849366,52.343408],[4.850851,52.343951],[4.852416,52.344404],[4.854046,52.34476],[4.855725,52.345017],[4.857438,52.345172],[4.859167,52.345224]]]}},{"type":"Feature","properties":{"identifier":"3.r","name":"TRAUMAHELIKOPTER landingsplaats BEVERWIJK/Rode Kruis Ziekenhuis","restriction":"CONDITIONAL","rule":"Vluchten in de OPEN categorie zijn hier niet toegestaan","category":"helikopter","source":"AIP Nederland ENR 5.3, ED-269, 22 juli 2024"},"geometry":{"type":"Polygon","coordinates":[[[4.651667,52.489946],[4.653402,52.489895],[4.65512,52.489739],[4.656805,52.489482],[4.65844,52.489126],[4.66001,52.488674],[4.6615,52.48813],[4.662895,52.4875],[4.664182,52.486789],[4.665348,52.486005],[4.666383,52.485156],[4.667276,52.484248],[4.668019,52.483292],[4.668604,52.482296],[4.669026,52.48127],[4.669281,52.480223],[4.669366,52.479167],[4.669281,52.47811],[4.669026,52.477064],[4.668604,52.476037],[4.668019,52.475041],[4.667276,52.474085],[4.666383,52.473178],[4.665348,52.472328],[4.664182,52.471544],[4.662895,52.470834],[4.6615,52.470204],[4.66001,52.46966],[4.65844,52.469207],[4.656805,52.468851],[4.65512,52.468594],[4.653402,52.468439],[4.651667,52.468387],[4.649932,52.468439],[4.648214,52.468594],[4.646529,52.468851],[4.644893,52.469207],[4.643323,52.46966],[4.641833,52.470204],[4.640438,52.470834],[4.639151,52.471544],[4.637985,52.472328],[4.63695,52.473178],[4.636057,52.474085],[4.635315,52.475041],[4.634729,52.476037],[4.634307,52.477064],[4.634053,52.47811],[4.633967,52.479167],[4.634053,52.480223],[4.634307,52.48127],[4.634729,52.482296],[4.635315,52.483292],[4.636057,52.484248],[4.63695,52.485156],[4.637985,52.486005],[4.639151,52.486789],[4.640438,52.4875],[4.641833,52.48813],[4.643323,52.488674],[4.644893,52.489126],[4.646529,52.489482],[4.648214,52.489739],[4.649932,52.489895],[4.651667,52.489946]]]}},{"type":"Feature","properties":{"identifier":"3.s","name":"TRAUMAHELIKOPTER landingsplaats DEN HAAG/Haga Ziekenhuis  Locatie Leyweg","restriction":"CONDITIONAL","rule":"Vluchten in de OPEN categorie zijn hier niet toegestaan","category":"helikopter","source":"AIP Nederland ENR 5.3, ED-269, 22 juli 2024"},"geometry":{"type":"Polygon","coordinates":[[[4.2625,52.066613],[4.264218,52.066561],[4.26592,52.066406],[4.267589,52.066149],[4.269209,52.065793],[4.270764,52.06534],[4.27224,52.064796],[4.273622,52.064166],[4.274896,52.063456],[4.276052,52.062672],[4.277077,52.061822],[4.277961,52.060915],[4.278697,52.059959],[4.279276,52.058963],[4.279694,52.057936],[4.279947,52.05689],[4.280031,52.055833],[4.279947,52.054777],[4.279694,52.05373],[4.279276,52.052704],[4.278697,52.051708],[4.277961,52.050752],[4.277077,52.049844],[4.276052,52.048995],[4.274896,52.048211],[4.273622,52.0475],[4.27224,52.04687],[4.270764,52.046326],[4.269209,52.045874],[4.267589,52.045518],[4.26592,52.045261],[4.264218,52.045105],[4.2625,52.045054],[4.260782,52.045105],[4.25908,52.045261],[4.257411,52.045518],[4.255791,52.045874],[4.254236,52.046326],[4.25276,52.04687],[4.251378,52.0475],[4.250104,52.048211],[4.248948,52.048995],[4.247923,52.049844],[4.247039,52.050752],[4.246303,52.051708],[4.245724,52.052704],[4.245306,52.05373],[4.245053,52.054777],[4.244969,52.055833],[4.245053,52.05689],[4.245306,52.057936],[4.245724,52.058963],[4.246303,52.059959],[4.247039,52.060915],[4.247923,52.061822],[4.248948,52.062672],[4.250104,52.063456],[4.251378,52.064166],[4.25276,52.064796],[4.254236,52.06534],[4.255791,52.065793],[4.257411,52.066149],[4.25908,52.066406],[4.260782,52.066561],[4.2625,52.066613]]]}},{"type":"Feature","properties":{"identifier":"3.t","name":"TRAUMAHELIKOPTER landingsplaats DEN HAAG/MC Haaglanden  Locatie Westeinde","restriction":"CONDITIONAL","rule":"Vluchten in de OPEN categorie zijn hier niet toegestaan","category":"helikopter","source":"AIP Nederland ENR 5.3, ED-269, 22 juli 2024"},"geometry":{"type":"Polygon","coordinates":[[[4.300278,52.084669],[4.301997,52.084617],[4.303699,52.084462],[4.305369,52.084204],[4.306989,52.083848],[4.308545,52.083396],[4.310021,52.082852],[4.311404,52.082222],[4.312679,52.081511],[4.313835,52.080728],[4.31486,52.079878],[4.315745,52.07897],[4.316481,52.078014],[4.317061,52.077018],[4.317479,52.075992],[4.317732,52.074945],[4.317816,52.073889],[4.317732,52.072832],[4.317479,52.071786],[4.317061,52.07076],[4.316481,52.069764],[4.315745,52.068807],[4.31486,52.0679],[4.313835,52.06705],[4.312679,52.066266],[4.311404,52.065556],[4.310021,52.064926],[4.308545,52.064382],[4.306989,52.06393],[4.305369,52.063573],[4.303699,52.063316],[4.301997,52.063161],[4.300278,52.063109],[4.298559,52.063161],[4.296856,52.063316],[4.295187,52.063573],[4.293566,52.06393],[4.29201,52.064382],[4.290534,52.064926],[4.289152,52.065556],[4.287876,52.066266],[4.286721,52.06705],[4.285695,52.0679],[4.28481,52.068807],[4.284075,52.069764],[4.283495,52.07076],[4.283077,52.071786],[4.282824,52.072832],[4.28274,52.073889],[4.282824,52.074945],[4.283077,52.075992],[4.283495,52.077018],[4.284075,52.078014],[4.28481,52.07897],[4.285695,52.079878],[4.286721,52.080728],[4.287876,52.081511],[4.289152,52.082222],[4.290534,52.082852],[4.29201,52.083396],[4.293566,52.083848],[4.295187,52.084204],[4.296856,52.084462],[4.298559,52.084617],[4.300278,52.084669]]]}},{"type":"Feature","properties":{"identifier":"3.u","name":"TRAUMAHELIKOPTER landingsplaats DORDRECHT/Albert Schweitzer Ziekenhuis  Locatie Amstelwijck","restriction":"CONDITIONAL","rule":"Vluchten in de OPEN categorie zijn hier niet toegestaan","category":"helikopter","source":"AIP Nederland ENR 5.3, ED-269, 22 juli 2024"},"geometry":{"type":"Polygon","coordinates":[[[4.651111,51.787169],[4.652819,51.787117],[4.65451,51.786962],[4.656169,51.786704],[4.657778,51.786348],[4.659324,51.785896],[4.66079,51.785352],[4.662164,51.784722],[4.663431,51.784011],[4.664579,51.783228],[4.665597,51.782378],[4.666476,51.78147],[4.667207,51.780514],[4.667783,51.779518],[4.668199,51.778492],[4.66845,51.777445],[4.668533,51.776389],[4.66845,51.775332],[4.668199,51.774286],[4.667783,51.77326],[4.667207,51.772264],[4.666476,51.771307],[4.665597,51.7704],[4.664579,51.76955],[4.663431,51.768766],[4.662164,51.768056],[4.66079,51.767426],[4.659324,51.766882],[4.657778,51.76643],[4.656169,51.766073],[4.65451,51.765816],[4.652819,51.765661],[4.651111,51.765609],[4.649403,51.765661],[4.647712,51.765816],[4.646054,51.766073],[4.644444,51.76643],[4.642898,51.766882],[4.641432,51.767426],[4.640058,51.768056],[4.638792,51.768766],[4.637643,51.76955],[4.636625,51.7704],[4.635746,51.771307],[4.635015,51.772264],[4.634439,51.77326],[4.634024,51.774286],[4.633773,51.775332],[4.633689,51.776389],[4.633773,51.777445],[4.634024,51.778492],[4.634439,51.779518],[4.635015,51.780514],[4.635746,51.78147],[4.636625,51.782378],[4.637643,51.783228],[4.638792,51.784011],[4.640058,51.784722],[4.641432,51.785352],[4.642898,51.785896],[4.644444,51.786348],[4.646054,51.786704],[4.647712,51.786962],[4.649403,51.787117],[4.651111,51.787169]]]}},{"type":"Feature","properties":{"identifier":"3.v","name":"TRAUMAHELIKOPTER landingsplaats ENSCHEDE/Medisch Spectrum Twente","restriction":"CONDITIONAL","rule":"Vluchten in de OPEN categorie zijn hier niet toegestaan","category":"helikopter","source":"AIP Nederland ENR 5.3, ED-269, 22 juli 2024"},"geometry":{"type":"Polygon","coordinates":[[[6.891389,52.226335],[6.893113,52.226283],[6.894821,52.226128],[6.896496,52.225871],[6.898122,52.225515],[6.899683,52.225062],[6.901164,52.224519],[6.90255,52.223888],[6.90383,52.223178],[6.904989,52.222394],[6.906018,52.221544],[6.906906,52.220637],[6.907644,52.219681],[6.908225,52.218685],[6.908645,52.217659],[6.908898,52.216612],[6.908983,52.215556],[6.908898,52.214499],[6.908645,52.213453],[6.908225,52.212426],[6.907644,52.21143],[6.906906,52.210474],[6.906018,52.209567],[6.904989,52.208717],[6.90383,52.207933],[6.90255,52.207223],[6.901164,52.206592],[6.899683,52.206049],[6.898122,52.205596],[6.896496,52.20524],[6.894821,52.204983],[6.893113,52.204828],[6.891389,52.204776],[6.889664,52.204828],[6.887956,52.204983],[6.886282,52.20524],[6.884656,52.205596],[6.883095,52.206049],[6.881614,52.206592],[6.880227,52.207223],[6.878948,52.207933],[6.877788,52.208717],[6.87676,52.209567],[6.875872,52.210474],[6.875134,52.21143],[6.874552,52.212426],[6.874133,52.213453],[6.873879,52.214499],[6.873795,52.215556],[6.873879,52.216612],[6.874133,52.217659],[6.874552,52.218685],[6.875134,52.219681],[6.875872,52.220637],[6.87676,52.221544],[6.877788,52.222394],[6.878948,52.223178],[6.880227,52.223888],[6.881614,52.224519],[6.883095,52.225062],[6.884656,52.225515],[6.886282,52.225871],[6.887956,52.226128],[6.889664,52.226283],[6.891389,52.226335]]]}},{"type":"Feature","properties":{"identifier":"3.w","name":"TRAUMAHELIKOPTER landingsplaats GOES/ Adrz","restriction":"CONDITIONAL","rule":"Vluchten in de OPEN categorie zijn hier niet toegestaan","category":"helikopter","source":"AIP Nederland ENR 5.3, ED-269, 22 juli 2024"},"geometry":{"type":"Polygon","coordinates":[[[3.910556,51.495502],[3.912252,51.49545],[3.913933,51.495295],[3.915581,51.495038],[3.91718,51.494681],[3.918716,51.494229],[3.920173,51.493685],[3.921537,51.493055],[3.922796,51.492345],[3.923937,51.491561],[3.924949,51.490711],[3.925822,51.489804],[3.926549,51.488847],[3.927121,51.487851],[3.927534,51.486825],[3.927783,51.485779],[3.927866,51.484722],[3.927783,51.483666],[3.927534,51.482619],[3.927121,51.481593],[3.926549,51.480597],[3.925822,51.479641],[3.924949,51.478733],[3.923937,51.477884],[3.922796,51.4771],[3.921537,51.476389],[3.920173,51.475759],[3.918716,51.475215],[3.91718,51.474763],[3.915581,51.474407],[3.913933,51.47415],[3.912252,51.473994],[3.910556,51.473942],[3.908859,51.473994],[3.907178,51.47415],[3.905531,51.474407],[3.903931,51.474763],[3.902395,51.475215],[3.900938,51.475759],[3.899574,51.476389],[3.898315,51.4771],[3.897174,51.477884],[3.896162,51.478733],[3.895289,51.479641],[3.894563,51.480597],[3.89399,51.481593],[3.893577,51.482619],[3.893328,51.483666],[3.893245,51.484722],[3.893328,51.485779],[3.893577,51.486825],[3.89399,51.487851],[3.894563,51.488847],[3.895289,51.489804],[3.896162,51.490711],[3.897174,51.491561],[3.898315,51.492345],[3.899574,51.493055],[3.900938,51.493685],[3.902395,51.494229],[3.903931,51.494681],[3.905531,51.495038],[3.907178,51.495295],[3.908859,51.49545],[3.910556,51.495502]]]}},{"type":"Feature","properties":{"identifier":"3.x","name":"TRAUMAHELIKOPTER landingsplaats GRONINGEN/Universitair Medisch Centrum","restriction":"CONDITIONAL","rule":"Vluchten in de OPEN categorie zijn hier niet toegestaan","category":"helikopter","source":"AIP Nederland ENR 5.3, ED-269, 22 juli 2024"},"geometry":{"type":"Polygon","coordinates":[[[6.576111,53.232446],[6.577876,53.232395],[6.579624,53.232239],[6.581338,53.231982],[6.583001,53.231626],[6.584598,53.231174],[6.586114,53.23063],[6.587533,53.23],[6.588842,53.229289],[6.590029,53.228505],[6.591081,53.227656],[6.59199,53.226748],[6.592745,53.225792],[6.593341,53.224796],[6.59377,53.22377],[6.594029,53.222723],[6.594116,53.221667],[6.594029,53.22061],[6.59377,53.219564],[6.593341,53.218537],[6.592745,53.217541],[6.59199,53.216585],[6.591081,53.215678],[6.590029,53.214828],[6.588842,53.214044],[6.587533,53.213334],[6.586114,53.212704],[6.584598,53.21216],[6.583001,53.211707],[6.581338,53.211351],[6.579624,53.211094],[6.577876,53.210939],[6.576111,53.210887],[6.574346,53.210939],[6.572599,53.211094],[6.570885,53.211351],[6.569221,53.211707],[6.567624,53.21216],[6.566108,53.212704],[6.564689,53.213334],[6.56338,53.214044],[6.562193,53.214828],[6.561141,53.215678],[6.560232,53.216585],[6.559477,53.217541],[6.558882,53.218537],[6.558452,53.219564],[6.558193,53.22061],[6.558106,53.221667],[6.558193,53.222723],[6.558452,53.22377],[6.558882,53.224796],[6.559477,53.225792],[6.560232,53.226748],[6.561141,53.227656],[6.562193,53.228505],[6.56338,53.229289],[6.564689,53.23],[6.566108,53.23063],[6.567624,53.231174],[6.569221,53.231626],[6.570885,53.231982],[6.572599,53.232239],[6.574346,53.232395],[6.576111,53.232446]]]}},{"type":"Feature","properties":{"identifier":"3.y","name":"TRAUMAHELIKOPTER landingsplaats LEEUWARDEN/Medisch Centrum Leeuwarden  Locatie Zuid","restriction":"CONDITIONAL","rule":"Vluchten in de OPEN categorie zijn hier niet toegestaan","category":"helikopter","source":"AIP Nederland ENR 5.3, ED-269, 22 juli 2024"},"geometry":{"type":"Polygon","coordinates":[[[5.802778,53.199391],[5.804541,53.199339],[5.806288,53.199184],[5.808,53.198927],[5.809663,53.19857],[5.811259,53.198118],[5.812773,53.197574],[5.814191,53.196944],[5.815499,53.196234],[5.816685,53.19545],[5.817737,53.1946],[5.818644,53.193693],[5.819399,53.192736],[5.819994,53.19174],[5.820423,53.190714],[5.820682,53.189668],[5.820769,53.188611],[5.820682,53.187555],[5.820423,53.186508],[5.819994,53.185482],[5.819399,53.184486],[5.818644,53.18353],[5.817737,53.182622],[5.816685,53.181772],[5.815499,53.180989],[5.814191,53.180278],[5.812773,53.179648],[5.811259,53.179104],[5.809663,53.178652],[5.808,53.178296],[5.806288,53.178038],[5.804541,53.177883],[5.802778,53.177831],[5.801014,53.177883],[5.799268,53.178038],[5.797555,53.178296],[5.795893,53.178652],[5.794297,53.179104],[5.792783,53.179648],[5.791365,53.180278],[5.790056,53.180989],[5.788871,53.181772],[5.787819,53.182622],[5.786911,53.18353],[5.786156,53.184486],[5.785562,53.185482],[5.785133,53.186508],[5.784874,53.187555],[5.784787,53.188611],[5.784874,53.189668],[5.785133,53.190714],[5.785562,53.19174],[5.786156,53.192736],[5.786911,53.193693],[5.787819,53.1946],[5.788871,53.19545],[5.790056,53.196234],[5.791365,53.196944],[5.792783,53.197574],[5.794297,53.198118],[5.795893,53.19857],[5.797555,53.198927],[5.799268,53.199184],[5.801014,53.199339],[5.802778,53.199391]]]}},{"type":"Feature","properties":{"identifier":"3.z","name":"TRAUMAHELIKOPTER landingsplaats LEIDEN/Leids Universitair Medisch Centrum","restriction":"CONDITIONAL","rule":"Vluchten in de OPEN categorie zijn hier niet toegestaan","category":"helikopter","source":"AIP Nederland ENR 5.3, ED-269, 22 juli 2024"},"geometry":{"type":"Polygon","coordinates":[[[4.478056,52.177169],[4.479778,52.177117],[4.481484,52.176962],[4.483157,52.176704],[4.484781,52.176348],[4.48634,52.175896],[4.48782,52.175352],[4.489205,52.174722],[4.490483,52.174011],[4.491641,52.173228],[4.492668,52.172378],[4.493555,52.17147],[4.494292,52.170514],[4.494873,52.169518],[4.495293,52.168492],[4.495546,52.167445],[4.49563,52.166389],[4.495546,52.165332],[4.495293,52.164286],[4.494873,52.16326],[4.494292,52.162264],[4.493555,52.161307],[4.492668,52.1604],[4.491641,52.15955],[4.490483,52.158766],[4.489205,52.158056],[4.48782,52.157426],[4.48634,52.156882],[4.484781,52.15643],[4.483157,52.156073],[4.481484,52.155816],[4.479778,52.155661],[4.478056,52.155609],[4.476333,52.155661],[4.474627,52.155816],[4.472954,52.156073],[4.47133,52.15643],[4.469771,52.156882],[4.468292,52.157426],[4.466906,52.158056],[4.465628,52.158766],[4.46447,52.15955],[4.463443,52.1604],[4.462556,52.161307],[4.461819,52.162264],[4.461238,52.16326],[4.460819,52.164286],[4.460566,52.165332],[4.460481,52.166389],[4.460566,52.167445],[4.460819,52.168492],[4.461238,52.169518],[4.461819,52.170514],[4.462556,52.17147],[4.463443,52.172378],[4.46447,52.173228],[4.465628,52.174011],[4.466906,52.174722],[4.468292,52.175352],[4.469771,52.175896],[4.47133,52.176348],[4.472954,52.176704],[4.474627,52.176962],[4.476333,52.177117],[4.478056,52.177169]]]}},{"type":"Feature","properties":{"identifier":"3.aa","name":"TRAUMAHELIKOPTER landingsplaats MAASTRICHT/Maastricht Universitair Medisch Centrum","restriction":"CONDITIONAL","rule":"Vluchten in de OPEN categorie zijn hier niet toegestaan","category":"helikopter","source":"AIP Nederland ENR 5.3, ED-269, 22 juli 2024"},"geometry":{"type":"Polygon","coordinates":[[[5.7125,50.845224],[5.714173,50.845172],[5.71583,50.845017],[5.717455,50.84476],[5.719032,50.844404],[5.720546,50.843951],[5.721983,50.843408],[5.723328,50.842777],[5.724569,50.842067],[5.725694,50.841283],[5.726692,50.840433],[5.727553,50.839526],[5.728269,50.83857],[5.728833,50.837574],[5.72924,50.836547],[5.729486,50.835501],[5.729568,50.834444],[5.729486,50.833388],[5.72924,50.832341],[5.728833,50.831315],[5.728269,50.830319],[5.727553,50.829363],[5.726692,50.828456],[5.725694,50.827606],[5.724569,50.826822],[5.723328,50.826112],[5.721983,50.825481],[5.720546,50.824938],[5.719032,50.824485],[5.717455,50.824129],[5.71583,50.823872],[5.714173,50.823717],[5.7125,50.823665],[5.710827,50.823717],[5.70917,50.823872],[5.707545,50.824129],[5.705968,50.824485],[5.704454,50.824938],[5.703017,50.825481],[5.701672,50.826112],[5.700431,50.826822],[5.699306,50.827606],[5.698308,50.828456],[5.697447,50.829363],[5.696731,50.830319],[5.696167,50.831315],[5.69576,50.832341],[5.695514,50.833388],[5.695432,50.834444],[5.695514,50.835501],[5.69576,50.836547],[5.696167,50.837574],[5.696731,50.83857],[5.697447,50.839526],[5.698308,50.840433],[5.699306,50.841283],[5.700431,50.842067],[5.701672,50.842777],[5.703017,50.843408],[5.704454,50.843951],[5.705968,50.844404],[5.707545,50.84476],[5.70917,50.845017],[5.710827,50.845172],[5.7125,50.845224]]]}},{"type":"Feature","properties":{"identifier":"3.bb","name":"TRAUMAHELIKOPTER landingsplaats NIJMEGEN/UMC St. Radboud","restriction":"CONDITIONAL","rule":"Vluchten in de OPEN categorie zijn hier niet toegestaan","category":"helikopter","source":"AIP Nederland ENR 5.3, ED-269, 22 juli 2024"},"geometry":{"type":"Polygon","coordinates":[[[5.863056,51.834113],[5.864765,51.834061],[5.866458,51.833906],[5.868118,51.833649],[5.86973,51.833293],[5.871277,51.83284],[5.872745,51.832296],[5.87412,51.831666],[5.875388,51.830956],[5.876537,51.830172],[5.877557,51.829322],[5.878437,51.828415],[5.879168,51.827459],[5.879745,51.826463],[5.880161,51.825436],[5.880412,51.82439],[5.880496,51.823333],[5.880412,51.822277],[5.880161,51.82123],[5.879745,51.820204],[5.879168,51.819208],[5.878437,51.818252],[5.877557,51.817344],[5.876537,51.816495],[5.875388,51.815711],[5.87412,51.815],[5.872745,51.81437],[5.871277,51.813826],[5.86973,51.813374],[5.868118,51.813018],[5.866458,51.812761],[5.864765,51.812605],[5.863056,51.812554],[5.861346,51.812605],[5.859653,51.812761],[5.857993,51.813018],[5.856381,51.813374],[5.854834,51.813826],[5.853366,51.81437],[5.851991,51.815],[5.850723,51.815711],[5.849574,51.816495],[5.848554,51.817344],[5.847674,51.818252],[5.846943,51.819208],[5.846366,51.820204],[5.84595,51.82123],[5.845699,51.822277],[5.845615,51.823333],[5.845699,51.82439],[5.84595,51.825436],[5.846366,51.826463],[5.846943,51.827459],[5.847674,51.828415],[5.848554,51.829322],[5.849574,51.830172],[5.850723,51.830956],[5.851991,51.831666],[5.853366,51.832296],[5.854834,51.83284],[5.856381,51.833293],[5.857993,51.833649],[5.859653,51.833906],[5.861346,51.834061],[5.863056,51.834113]]]}},{"type":"Feature","properties":{"identifier":"3.cc","name":"TRAUMAHELIKOPTER landingsplaats ROTTERDAM/Erasmus Medisch Centrum","restriction":"CONDITIONAL","rule":"Vluchten in de OPEN categorie zijn hier niet toegestaan","category":"helikopter","source":"AIP Nederland ENR 5.3, ED-269, 22 juli 2024"},"geometry":{"type":"Polygon","coordinates":[[[4.470833,51.92078],[4.472546,51.920728],[4.474242,51.920573],[4.475906,51.920316],[4.47752,51.919959],[4.479071,51.919507],[4.480541,51.918963],[4.481919,51.918333],[4.483189,51.917622],[4.484341,51.916839],[4.485363,51.915989],[4.486244,51.915082],[4.486977,51.914125],[4.487555,51.913129],[4.487972,51.912103],[4.488223,51.911057],[4.488307,51.91],[4.488223,51.908943],[4.487972,51.907897],[4.487555,51.906871],[4.486977,51.905875],[4.486244,51.904918],[4.485363,51.904011],[4.484341,51.903161],[4.483189,51.902378],[4.481919,51.901667],[4.480541,51.901037],[4.479071,51.900493],[4.47752,51.900041],[4.475906,51.899684],[4.474242,51.899427],[4.472546,51.899272],[4.470833,51.89922],[4.469121,51.899272],[4.467424,51.899427],[4.465761,51.899684],[4.464146,51.900041],[4.462596,51.900493],[4.461125,51.901037],[4.459748,51.901667],[4.458477,51.902378],[4.457326,51.903161],[4.456304,51.904011],[4.455423,51.904918],[4.454689,51.905875],[4.454112,51.906871],[4.453695,51.907897],[4.453443,51.908943],[4.453359,51.91],[4.453443,51.911057],[4.453695,51.912103],[4.454112,51.913129],[4.454689,51.914125],[4.455423,51.915082],[4.456304,51.915989],[4.457326,51.916839],[4.458477,51.917622],[4.459748,51.918333],[4.461125,51.918963],[4.462596,51.919507],[4.464146,51.919959],[4.465761,51.920316],[4.467424,51.920573],[4.469121,51.920728],[4.470833,51.92078]]]}},{"type":"Feature","properties":{"identifier":"3.dd","name":"TRAUMAHELIKOPTER landingsplaats SNEEK/Antonius Ziekenhuis","restriction":"CONDITIONAL","rule":"Vluchten in de OPEN categorie zijn hier niet toegestaan","category":"helikopter","source":"AIP Nederland ENR 5.3, ED-269, 22 juli 2024"},"geometry":{"type":"Polygon","coordinates":[[[5.64,53.045502],[5.641757,53.04545],[5.643497,53.045295],[5.645204,53.045038],[5.64686,53.044681],[5.648451,53.044229],[5.649959,53.043685],[5.651372,53.043055],[5.652676,53.042345],[5.653857,53.041561],[5.654905,53.040711],[5.65581,53.039804],[5.656562,53.038847],[5.657155,53.037851],[5.657582,53.036825],[5.65784,53.035779],[5.657927,53.034722],[5.65784,53.033666],[5.657582,53.032619],[5.657155,53.031593],[5.656562,53.030597],[5.65581,53.029641],[5.654905,53.028733],[5.653857,53.027884],[5.652676,53.0271],[5.651372,53.026389],[5.649959,53.025759],[5.648451,53.025215],[5.64686,53.024763],[5.645204,53.024407],[5.643497,53.02415],[5.641757,53.023994],[5.64,53.023942],[5.638243,53.023994],[5.636503,53.02415],[5.634796,53.024407],[5.63314,53.024763],[5.631549,53.025215],[5.630041,53.025759],[5.628628,53.026389],[5.627324,53.0271],[5.626143,53.027884],[5.625095,53.028733],[5.62419,53.029641],[5.623438,53.030597],[5.622845,53.031593],[5.622418,53.032619],[5.62216,53.033666],[5.622073,53.034722],[5.62216,53.035779],[5.622418,53.036825],[5.622845,53.037851],[5.623438,53.038847],[5.62419,53.039804],[5.625095,53.040711],[5.626143,53.041561],[5.627324,53.042345],[5.628628,53.043055],[5.630041,53.043685],[5.631549,53.044229],[5.63314,53.044681],[5.634796,53.045038],[5.636503,53.045295],[5.638243,53.04545],[5.64,53.045502]]]}},{"type":"Feature","properties":{"identifier":"3.ee","name":"TRAUMAHELIKOPTER landingsplaats TERNEUZEN/Ziekenhuis ZeeuwsVlaanderen  Locatie De Honte","restriction":"CONDITIONAL","rule":"Vluchten in de OPEN categorie zijn hier niet toegestaan","category":"helikopter","source":"AIP Nederland ENR 5.3, ED-269, 22 juli 2024"},"geometry":{"type":"Polygon","coordinates":[[[3.8625,51.319113],[3.86419,51.319061],[3.865864,51.318906],[3.867506,51.318649],[3.869099,51.318293],[3.870629,51.31784],[3.87208,51.317296],[3.87344,51.316666],[3.874693,51.315956],[3.87583,51.315172],[3.876838,51.314322],[3.877708,51.313415],[3.878431,51.312459],[3.879002,51.311463],[3.879413,51.310436],[3.879661,51.30939],[3.879744,51.308333],[3.879661,51.307277],[3.879413,51.30623],[3.879002,51.305204],[3.878431,51.304208],[3.877708,51.303252],[3.876838,51.302344],[3.87583,51.301495],[3.874693,51.300711],[3.87344,51.3],[3.87208,51.29937],[3.870629,51.298826],[3.869099,51.298374],[3.867506,51.298018],[3.865864,51.297761],[3.86419,51.297605],[3.8625,51.297554],[3.86081,51.297605],[3.859136,51.297761],[3.857494,51.298018],[3.855901,51.298374],[3.854371,51.298826],[3.85292,51.29937],[3.85156,51.3],[3.850307,51.300711],[3.84917,51.301495],[3.848162,51.302344],[3.847292,51.303252],[3.846569,51.304208],[3.845998,51.305204],[3.845587,51.30623],[3.845339,51.307277],[3.845256,51.308333],[3.845339,51.30939],[3.845587,51.310436],[3.845998,51.311463],[3.846569,51.312459],[3.847292,51.313415],[3.848162,51.314322],[3.84917,51.315172],[3.850307,51.315956],[3.85156,51.316666],[3.85292,51.317296],[3.854371,51.31784],[3.855901,51.318293],[3.857494,51.318649],[3.859136,51.318906],[3.86081,51.319061],[3.8625,51.319113]]]}},{"type":"Feature","properties":{"identifier":"3.ff","name":"TRAUMAHELIKOPTER landingsplaats TILBURG/St. Elisabeth Ziekenhuis","restriction":"CONDITIONAL","rule":"Vluchten in de OPEN categorie zijn hier niet toegestaan","category":"helikopter","source":"AIP Nederland ENR 5.3, ED-269, 22 juli 2024"},"geometry":{"type":"Polygon","coordinates":[[[5.104722,51.549669],[5.106421,51.549617],[5.108103,51.549462],[5.109753,51.549204],[5.111355,51.548848],[5.112892,51.548396],[5.114351,51.547852],[5.115717,51.547222],[5.116977,51.546511],[5.11812,51.545728],[5.119133,51.544878],[5.120007,51.54397],[5.120734,51.543014],[5.121307,51.542018],[5.121721,51.540992],[5.12197,51.539945],[5.122054,51.538889],[5.12197,51.537832],[5.121721,51.536786],[5.121307,51.53576],[5.120734,51.534764],[5.120007,51.533807],[5.119133,51.5329],[5.11812,51.53205],[5.116977,51.531266],[5.115717,51.530556],[5.114351,51.529926],[5.112892,51.529382],[5.111355,51.52893],[5.109753,51.528573],[5.108103,51.528316],[5.106421,51.528161],[5.104722,51.528109],[5.103023,51.528161],[5.101341,51.528316],[5.099691,51.528573],[5.09809,51.52893],[5.096552,51.529382],[5.095093,51.529926],[5.093727,51.530556],[5.092467,51.531266],[5.091325,51.53205],[5.090312,51.5329],[5.089437,51.533807],[5.08871,51.534764],[5.088137,51.53576],[5.087724,51.536786],[5.087474,51.537832],[5.087391,51.538889],[5.087474,51.539945],[5.087724,51.540992],[5.088137,51.542018],[5.08871,51.543014],[5.089437,51.54397],[5.090312,51.544878],[5.091325,51.545728],[5.092467,51.546511],[5.093727,51.547222],[5.095093,51.547852],[5.096552,51.548396],[5.09809,51.548848],[5.099691,51.549204],[5.101341,51.549462],[5.103023,51.549617],[5.104722,51.549669]]]}},{"type":"Feature","properties":{"identifier":"3.gg","name":"TRAUMAHELIKOPTER landingsplaats UTRECHT/Universitair Medisch Centrum Utrecht","restriction":"CONDITIONAL","rule":"Vluchten in de OPEN categorie zijn hier niet toegestaan","category":"helikopter","source":"AIP Nederland ENR 5.3, ED-269, 22 juli 2024"},"geometry":{"type":"Polygon","coordinates":[[[5.181389,52.097446],[5.183108,52.097395],[5.184811,52.097239],[5.186481,52.096982],[5.188102,52.096626],[5.189659,52.096174],[5.191135,52.09563],[5.192518,52.095],[5.193794,52.094289],[5.19495,52.093505],[5.195976,52.092656],[5.196861,52.091748],[5.197597,52.090792],[5.198177,52.089796],[5.198595,52.08877],[5.198848,52.087723],[5.198932,52.086667],[5.198848,52.08561],[5.198595,52.084564],[5.198177,52.083537],[5.197597,52.082541],[5.196861,52.081585],[5.195976,52.080678],[5.19495,52.079828],[5.193794,52.079044],[5.192518,52.078334],[5.191135,52.077704],[5.189659,52.07716],[5.188102,52.076707],[5.186481,52.076351],[5.184811,52.076094],[5.183108,52.075939],[5.181389,52.075887],[5.179669,52.075939],[5.177966,52.076094],[5.176296,52.076351],[5.174675,52.076707],[5.173119,52.07716],[5.171642,52.077704],[5.17026,52.078334],[5.168984,52.079044],[5.167828,52.079828],[5.166802,52.080678],[5.165917,52.081585],[5.165181,52.082541],[5.164601,52.083537],[5.164183,52.084564],[5.16393,52.08561],[5.163846,52.086667],[5.16393,52.087723],[5.164183,52.08877],[5.164601,52.089796],[5.165181,52.090792],[5.165917,52.091748],[5.166802,52.092656],[5.167828,52.093505],[5.168984,52.094289],[5.17026,52.095],[5.171642,52.09563],[5.173119,52.096174],[5.174675,52.096626],[5.176296,52.096982],[5.177966,52.097239],[5.179669,52.097395],[5.181389,52.097446]]]}},{"type":"Feature","properties":{"identifier":"3.hh","name":"TRAUMAHELIKOPTER landingsplaats","restriction":"CONDITIONAL","rule":"Vluchten in de OPEN categorie zijn hier niet toegestaan","category":"helikopter","source":"AIP Nederland ENR 5.3, ED-269, 22 juli 2024"},"geometry":{"type":"Polygon","coordinates":[[[6.1225,52.524391],[6.124236,52.524339],[6.125956,52.524184],[6.127642,52.523927],[6.129279,52.52357],[6.13085,52.523118],[6.132341,52.522574],[6.133737,52.521944],[6.135025,52.521234],[6.136193,52.52045],[6.137228,52.5196],[6.138122,52.518693],[6.138865,52.517736],[6.13945,52.51674],[6.139873,52.515714],[6.140128,52.514668],[6.140213,52.513611],[6.140128,52.512555],[6.139873,52.511508],[6.13945,52.510482],[6.138865,52.509486],[6.138122,52.50853],[6.137228,52.507622],[6.136193,52.506772],[6.135025,52.505989],[6.133737,52.505278],[6.132341,52.504648],[6.13085,52.504104],[6.129279,52.503652],[6.127642,52.503296],[6.125956,52.503038],[6.124236,52.502883],[6.1225,52.502831],[6.120764,52.502883],[6.119044,52.503038],[6.117358,52.503296],[6.115721,52.503652],[6.11415,52.504104],[6.112659,52.504648],[6.111263,52.505278],[6.109975,52.505989],[6.108807,52.506772],[6.107772,52.507622],[6.106878,52.50853],[6.106135,52.509486],[6.10555,52.510482],[6.105127,52.511508],[6.104872,52.512555],[6.104787,52.513611],[6.104872,52.514668],[6.105127,52.515714],[6.10555,52.51674],[6.106135,52.517736],[6.106878,52.518693],[6.107772,52.5196],[6.108807,52.52045],[6.109975,52.521234],[6.111263,52.521944],[6.112659,52.522574],[6.11415,52.523118],[6.115721,52.52357],[6.117358,52.523927],[6.119044,52.524184],[6.120764,52.524339],[6.1225,52.524391]]]}},{"type":"Feature","properties":{"identifier":"3.ii","name":"TRAUMAHELIKOPTER en reddingshelikopter landingsplaats EHTP","restriction":"CONDITIONAL","rule":"Vluchten in de OPEN categorie zijn hier niet toegestaan","category":"helikopter","source":"AIP Nederland ENR 5.3, ED-269, 22 juli 2024"},"geometry":{"type":"Polygon","coordinates":[[[4.089917,51.970141],[4.091631,51.970089],[4.093329,51.969934],[4.094995,51.969677],[4.096611,51.96932],[4.098163,51.968868],[4.099635,51.968324],[4.101014,51.967694],[4.102286,51.966984],[4.103439,51.9662],[4.104462,51.96535],[4.105344,51.964443],[4.106078,51.963486],[4.106657,51.96249],[4.107074,51.961464],[4.107326,51.960418],[4.10741,51.959361],[4.107326,51.958305],[4.107074,51.957258],[4.106657,51.956232],[4.106078,51.955236],[4.105344,51.95428],[4.104462,51.953372],[4.103439,51.952522],[4.102286,51.951739],[4.101014,51.951028],[4.099635,51.950398],[4.098163,51.949854],[4.096611,51.949402],[4.094995,51.949046],[4.093329,51.948788],[4.091631,51.948633],[4.089917,51.948581],[4.088202,51.948633],[4.086504,51.948788],[4.084839,51.949046],[4.083222,51.949402],[4.08167,51.949854],[4.080198,51.950398],[4.078819,51.951028],[4.077547,51.951739],[4.076394,51.952522],[4.075371,51.953372],[4.074489,51.95428],[4.073755,51.955236],[4.073177,51.956232],[4.072759,51.957258],[4.072508,51.958305],[4.072423,51.959361],[4.072508,51.960418],[4.072759,51.961464],[4.073177,51.96249],[4.073755,51.963486],[4.074489,51.964443],[4.075371,51.96535],[4.076394,51.9662],[4.077547,51.966984],[4.078819,51.967694],[4.080198,51.968324],[4.08167,51.968868],[4.083222,51.96932],[4.084839,51.969677],[4.086504,51.969934],[4.088202,51.970089],[4.089917,51.970141]]]}},{"type":"Feature","properties":{"identifier":"3.jj","name":"TRAUMAHELIKOPTER en reddingshelikopter landingsplaats EHAD","restriction":"CONDITIONAL","rule":"Vluchten in de OPEN categorie zijn hier niet toegestaan","category":"helikopter","source":"AIP Nederland ENR 5.3, ED-269, 22 juli 2024"},"geometry":{"type":"Polygon","coordinates":[[[5.677222,53.462446],[5.678997,53.462395],[5.680754,53.462239],[5.682477,53.461982],[5.68415,53.461626],[5.685755,53.461174],[5.687279,53.46063],[5.688706,53.46],[5.690022,53.459289],[5.691215,53.458505],[5.692274,53.457656],[5.693187,53.456748],[5.693946,53.455792],[5.694545,53.454796],[5.694976,53.45377],[5.695237,53.452723],[5.695324,53.451667],[5.695237,53.45061],[5.694976,53.449564],[5.694545,53.448537],[5.693946,53.447541],[5.693187,53.446585],[5.692274,53.445678],[5.691215,53.444828],[5.690022,53.444044],[5.688706,53.443334],[5.687279,53.442704],[5.685755,53.44216],[5.68415,53.441707],[5.682477,53.441351],[5.680754,53.441094],[5.678997,53.440939],[5.677222,53.440887],[5.675448,53.440939],[5.673691,53.441094],[5.671967,53.441351],[5.670295,53.441707],[5.668689,53.44216],[5.667165,53.442704],[5.665738,53.443334],[5.664422,53.444044],[5.663229,53.444828],[5.662171,53.445678],[5.661258,53.446585],[5.660498,53.447541],[5.6599,53.448537],[5.659468,53.449564],[5.659207,53.45061],[5.65912,53.451667],[5.659207,53.452723],[5.659468,53.45377],[5.6599,53.454796],[5.660498,53.455792],[5.661258,53.456748],[5.662171,53.457656],[5.663229,53.458505],[5.664422,53.459289],[5.665738,53.46],[5.667165,53.46063],[5.668689,53.461174],[5.670295,53.461626],[5.671967,53.461982],[5.673691,53.462239],[5.675448,53.462395],[5.677222,53.462446]]]}},{"type":"Feature","properties":{"identifier":"3.kk","name":"TRAUMAHELIKOPTER en reddingshelikopter landingsplaats EHVD","restriction":"CONDITIONAL","rule":"Vluchten in de OPEN categorie zijn hier niet toegestaan","category":"helikopter","source":"AIP Nederland ENR 5.3, ED-269, 22 juli 2024"},"geometry":{"type":"Polygon","coordinates":[[[5.085625,53.307646],[5.087393,53.307595],[5.089144,53.307439],[5.090861,53.307182],[5.092527,53.306826],[5.094127,53.306374],[5.095645,53.30583],[5.097067,53.3052],[5.098379,53.304489],[5.099567,53.303705],[5.100622,53.302856],[5.101532,53.301948],[5.102288,53.300992],[5.102885,53.299996],[5.103315,53.29897],[5.103575,53.297923],[5.103661,53.296867],[5.103575,53.29581],[5.103315,53.294764],[5.102885,53.293737],[5.102288,53.292741],[5.101532,53.291785],[5.100622,53.290878],[5.099567,53.290028],[5.098379,53.289244],[5.097067,53.288534],[5.095645,53.287904],[5.094127,53.28736],[5.092527,53.286907],[5.090861,53.286551],[5.089144,53.286294],[5.087393,53.286139],[5.085625,53.286087],[5.083857,53.286139],[5.082106,53.286294],[5.080389,53.286551],[5.078723,53.286907],[5.077123,53.28736],[5.075605,53.287904],[5.074183,53.288534],[5.072871,53.289244],[5.071683,53.290028],[5.070628,53.290878],[5.069718,53.291785],[5.068962,53.292741],[5.068365,53.293737],[5.067935,53.294764],[5.067675,53.29581],[5.067589,53.296867],[5.067675,53.297923],[5.067935,53.29897],[5.068365,53.299996],[5.068962,53.300992],[5.069718,53.301948],[5.070628,53.302856],[5.071683,53.303705],[5.072871,53.304489],[5.074183,53.3052],[5.075605,53.30583],[5.077123,53.306374],[5.078723,53.306826],[5.080389,53.307182],[5.082106,53.307439],[5.083857,53.307595],[5.085625,53.307646]]]}},{"type":"Feature","properties":{"identifier":"3.ll","name":"TRAUMAHELIKOPTER en reddingshelikopter landingsplaats EHTS","restriction":"CONDITIONAL","rule":"Vluchten in de OPEN categorie zijn hier niet toegestaan","category":"helikopter","source":"AIP Nederland ENR 5.3, ED-269, 22 juli 2024"},"geometry":{"type":"Polygon","coordinates":[[[5.278056,53.394919],[5.279827,53.394867],[5.281581,53.394712],[5.283302,53.394454],[5.284972,53.394098],[5.286575,53.393646],[5.288097,53.393102],[5.289521,53.392472],[5.290835,53.391761],[5.292026,53.390978],[5.293083,53.390128],[5.293995,53.38922],[5.294753,53.388264],[5.295351,53.387268],[5.295782,53.386242],[5.296042,53.385195],[5.296129,53.384139],[5.296042,53.383082],[5.295782,53.382036],[5.295351,53.38101],[5.294753,53.380014],[5.293995,53.379057],[5.293083,53.37815],[5.292026,53.3773],[5.290835,53.376516],[5.289521,53.375806],[5.288097,53.375176],[5.286575,53.374632],[5.284972,53.37418],[5.283302,53.373823],[5.281581,53.373566],[5.279827,53.373411],[5.278056,53.373359],[5.276284,53.373411],[5.27453,53.373566],[5.272809,53.373823],[5.271139,53.37418],[5.269536,53.374632],[5.268015,53.375176],[5.26659,53.375806],[5.265276,53.376516],[5.264085,53.3773],[5.263028,53.37815],[5.262116,53.379057],[5.261358,53.380014],[5.26076,53.38101],[5.26033,53.382036],[5.260069,53.383082],[5.259982,53.384139],[5.260069,53.385195],[5.26033,53.386242],[5.26076,53.387268],[5.261358,53.388264],[5.262116,53.38922],[5.263028,53.390128],[5.264085,53.390978],[5.265276,53.391761],[5.26659,53.392472],[5.268015,53.393102],[5.269536,53.393646],[5.271139,53.394098],[5.272809,53.394454],[5.27453,53.394712],[5.276284,53.394867],[5.278056,53.394919]]]}},{"type":"Feature","properties":{"identifier":"3.mm","name":"TRAUMAHELIKOPTER en reddingshelikopter landingsplaats EHSO","restriction":"CONDITIONAL","rule":"Vluchten in de OPEN categorie zijn hier niet toegestaan","category":"helikopter","source":"AIP Nederland ENR 5.3, ED-269, 22 juli 2024"},"geometry":{"type":"Polygon","coordinates":[[[6.194711,53.48393],[6.196486,53.483878],[6.198244,53.483723],[6.199969,53.483466],[6.201642,53.483109],[6.203249,53.482657],[6.204773,53.482113],[6.206201,53.481483],[6.207518,53.480772],[6.208711,53.479989],[6.20977,53.479139],[6.210684,53.478232],[6.211444,53.477275],[6.212042,53.476279],[6.212474,53.475253],[6.212735,53.474207],[6.212822,53.47315],[6.212735,53.472093],[6.212474,53.471047],[6.212042,53.470021],[6.211444,53.469025],[6.210684,53.468068],[6.20977,53.467161],[6.208711,53.466311],[6.207518,53.465528],[6.206201,53.464817],[6.204773,53.464187],[6.203249,53.463643],[6.201642,53.463191],[6.199969,53.462834],[6.198244,53.462577],[6.196486,53.462422],[6.194711,53.46237],[6.192936,53.462422],[6.191178,53.462577],[6.189454,53.462834],[6.18778,53.463191],[6.186174,53.463643],[6.184649,53.464187],[6.183221,53.464817],[6.181905,53.465528],[6.180711,53.466311],[6.179652,53.467161],[6.178738,53.468068],[6.177979,53.469025],[6.17738,53.470021],[6.176948,53.471047],[6.176687,53.472093],[6.1766,53.47315],[6.176687,53.474207],[6.176948,53.475253],[6.17738,53.476279],[6.177979,53.477275],[6.178738,53.478232],[6.179652,53.479139],[6.180711,53.479989],[6.181905,53.480772],[6.183221,53.481483],[6.184649,53.482113],[6.186174,53.482657],[6.18778,53.483109],[6.189454,53.483466],[6.191178,53.483723],[6.192936,53.483878],[6.194711,53.48393]]]}}]}