{"type":"FeatureCollection","name":"Laagvlieggebieden en blusoefengebieden","source":"Afgeleid uit nl/uas-zones.json, AIP Nederland ENR 5.3, uitgave 22 juli 2024. Cirkels zijn benaderd met 64 punten.","features":[{"type":"Feature","properties":{"identifier":"2.a","name":"Laagvliegroute 10 laagvlieggebied voor bemand luchtverkeer","restriction":"CONDITIONAL","rule":"OPEN A1/2 toegestaan tot max 30m hoogte boven de grond; A3 niet toegestaan","category":"laagvlieg","source":"AIP Nederland ENR 5.3, ED-269, 22 juli 2024"},"geometry":{"type":"Polygon","coordinates":[[[6.72026270898438,52.073290361593],[6.73487663269043,52.0746000950834],[6.7455097565918,52.0808096357122],[6.672732,52.244087],[6.65438,52.295054],[6.634967,52.369852],[6.606921,52.465686],[6.565098,52.608146],[6.891604,52.821013],[7.20963813208008,53.027606654824],[7.20547930151367,53.048748458688],[6.86877,52.830234],[6.536773,52.615006],[6.534802,52.608787],[6.582093,52.460162],[6.608345,52.365803],[6.62923,52.2895],[6.647756,52.239057],[6.72009104760742,52.073184843659]]]}},{"type":"Feature","properties":{"identifier":"2.b","name":"GLV I (Noord-Drenthe) laagvlieggebied voor bemand luchtverkeer","restriction":"CONDITIONAL","rule":"OPEN A1/2 toegestaan tot max 30m hoogte boven de grond; A3 niet toegestaan","category":"laagvlieg","source":"AIP Nederland ENR 5.3, ED-269, 22 juli 2024"},"geometry":{"type":"Polygon","coordinates":[[[6.72509722222222,53.0625],[6.65008611111111,52.9874888888889],[6.63348333333333,53.0167222222222],[6.67511111111111,53.0625],[6.72509722222222,53.0625]]]}},{"type":"Feature","properties":{"identifier":"2.c","name":"GLV II (Midden-Drenthe) laagvlieggebied voor bemand luchtverkeer","restriction":"CONDITIONAL","rule":"OPEN A1/2 toegestaan tot max 30m hoogte boven de grond; A3 niet toegestaan","category":"laagvlieg","source":"AIP Nederland ENR 5.3, ED-269, 22 juli 2024"},"geometry":{"type":"Polygon","coordinates":[[[6.66645,52.7666972222222],[6.33689444444444,52.7666277777778],[6.38080555555555,52.8836333333333],[6.50011388888889,52.9873777777778],[6.54823333333333,52.9707166666667],[6.57148611111111,52.9671083333333],[6.63806944444444,52.9708527777778],[6.65844722222222,52.975825],[6.80944166666667,52.9674944444444],[6.66645,52.7666972222222]]]}},{"type":"Feature","properties":{"identifier":"2.d","name":"GLV III (West-Drenthe) laagvlieggebied voor bemand luchtverkeer","restriction":"CONDITIONAL","rule":"OPEN A1/2 toegestaan tot max 30m hoogte boven de grond; A3 niet toegestaan","category":"laagvlieg","source":"AIP Nederland ENR 5.3, ED-269, 22 juli 2024"},"geometry":{"type":"Polygon","coordinates":[[[6.35,52.9],[6.23333333333333,52.7666666666667],[6.21666666666667,52.7833333333333],[6.21666666666667,52.8833333333333],[6.35,52.9]]]}},{"type":"Feature","properties":{"identifier":"2.e","name":"GLV IV (Ginkelse Hei) laagvlieggebied voor bemand luchtverkeer","restriction":"CONDITIONAL","rule":"OPEN A1/2 toegestaan tot max 30m hoogte boven de grond; A3 niet toegestaan","category":"laagvlieg","source":"AIP Nederland ENR 5.3, ED-269, 22 juli 2024"},"geometry":{"type":"Polygon","coordinates":[[[5.7417,52.0709222222222],[5.74591111111111,52.0250861111111],[5.716675,52.0307],[5.69171111111111,52.0750722222222],[5.7417,52.0709222222222]]]}},{"type":"Feature","properties":{"identifier":"2.f","name":"GLV V (Oirschot) laagvlieggebied voor bemand luchtverkeer","restriction":"CONDITIONAL","rule":"OPEN A1/2 toegestaan tot max 30m hoogte boven de grond; A3 niet toegestaan","category":"laagvlieg","source":"AIP Nederland ENR 5.3, ED-269, 22 juli 2024"},"geometry":{"type":"Polygon","coordinates":[[[5.39016388888889,51.4715861111111],[5.37928611111111,51.4637472222222],[5.34509444444444,51.4691305555556],[5.31226111111111,51.4655361111111],[5.31203888888889,51.4924888888889],[5.35406388888889,51.4918472222222],[5.35884166666667,51.4915972222222],[5.38555555555556,51.4858472222222],[5.38818055555556,51.482675],[5.39016388888889,51.4715861111111]]]}},{"type":"Feature","properties":{"identifier":"2.g","name":"GLV VI (Salland) laagvlieggebied voor bemand luchtverkeer","restriction":"CONDITIONAL","rule":"OPEN A1/2 toegestaan tot max 30m hoogte boven de grond; A3 niet toegestaan","category":"laagvlieg","source":"AIP Nederland ENR 5.3, ED-269, 22 juli 2024"},"geometry":{"type":"Polygon","coordinates":[[[6.466675,52.3001111111111],[6.283325,52.283325],[6.25012222222222,52.3834833333333],[6.50012222222222,52.3333138888889],[6.466675,52.3001111111111]]]}},{"type":"Feature","properties":{"identifier":"2.h","name":"GLV VII (Veluwe/Randmeren) laagvlieggebied voor bemand luchtverkeer","restriction":"CONDITIONAL","rule":"OPEN A1/2 toegestaan tot max 30m hoogte boven de grond; A3 niet toegestaan","category":"laagvlieg","source":"AIP Nederland ENR 5.3, ED-269, 22 juli 2024"},"geometry":{"type":"Polygon","coordinates":[[[5.966675,52.5001222222222],[5.985925,52.4480027777778],[6.01569166666667,52.4070611111111],[5.94211111111111,52.3820527777778],[5.88348333333333,52.1000972222222],[5.66668611111111,52.1334833333333],[5.56671111111111,52.216675],[5.63348333333333,52.233275],[5.68328888888889,52.4166861111111],[5.83331388888889,52.5833138888889],[5.966675,52.5001222222222]]]}},{"type":"Feature","properties":{"identifier":"2.i","name":"GLV VIII (De Peel) laagvlieggebied voor bemand luchtverkeer","restriction":"CONDITIONAL","rule":"OPEN A1/2 toegestaan tot max 30m hoogte boven de grond; A3 niet toegestaan","category":"laagvlieg","source":"AIP Nederland ENR 5.3, ED-269, 22 juli 2024"},"geometry":{"type":"Polygon","coordinates":[[[6.04168611111111,51.283325],[5.80011111111111,51.283325],[5.80011111111111,51.4332888888889],[6.04168611111111,51.4332888888889],[6.108275,51.4000861111111],[6.108275,51.3667],[6.06671111111111,51.3333138888889],[6.10009722222222,51.3001111111111],[6.04168611111111,51.283325]]]}},{"type":"Feature","properties":{"identifier":"2.j","name":"GLV IX (Maas/Waal) laagvlieggebied voor bemand luchtverkeer","restriction":"CONDITIONAL","rule":"OPEN A1/2 toegestaan tot max 30m hoogte boven de grond; A3 niet toegestaan","category":"laagvlieg","source":"AIP Nederland ENR 5.3, ED-269, 22 juli 2024"},"geometry":{"type":"Polygon","coordinates":[[[5.62125277777778,51.8721555555556],[5.65008611111111,51.8001111111111],[5.58331388888889,51.783325],[5.54168611111111,51.7916861111111],[5.483275,51.783325],[5.483275,51.7501222222222],[5.337025,51.7501138888889],[5.32486111111111,51.7465972222222],[5.31748055555556,51.7437916666667],[5.3059,51.7385388888889],[5.29818055555556,51.7360833333333],[5.29359444444444,51.7361305555556],[5.285125,51.7387944444444],[5.27945833333333,51.7393722222222],[5.265775,51.73865],[5.25648055555556,51.7339138888889],[5.25170833333333,51.7331361111111],[5.24518055555556,51.7332777777778],[5.23041388888889,51.7406],[5.22015555555556,51.7429777777778],[5.21456111111111,51.7423111111111],[5.20742777777778,51.7407055555556],[5.19987222222222,51.7395055555556],[5.19249166666667,51.7396972222222],[5.18440833333333,51.7414083333333],[5.17679166666667,51.7423111111111],[5.16474722222222,51.7422166666667],[5.14104444444444,51.7390305555556],[5.11943888888889,51.7351333333333],[5.10521944444444,51.7314722222222],[5.0876,51.7241388888889],[5.08363055555556,51.7209666666667],[5.07551944444444,51.7142833333333],[5.06677777777778,51.7110138888889],[5.06216388888889,51.7095888888889],[5.05521666666667,51.7081027777778],[5.04593888888889,51.7072111111111],[5.03850833333333,51.7068833333333],[5.03190277777778,51.7070333333333],[5.02306388888889,51.7074777777778],[5.01130833333333,51.7087555555556],[5.007375,51.7094111111111],[4.997225,51.7100027777778],[4.98770277777778,51.7112222222222],[4.98659722222222,51.7090555555556],[4.95928888888889,51.7064388888889],[4.94899166666667,51.7066777777778],[4.93151111111111,51.70865],[4.91615833333333,51.7124388888889],[4.90683333333333,51.7138722222222],[4.90188055555556,51.7153527777778],[4.89848055555556,51.7169555555556],[4.89925555555556,51.7255138888889],[4.91178888888889,51.7310388888889],[4.92393055555556,51.7419722222222],[4.93306111111111,51.7546583333333],[4.93461666666667,51.7641361111111],[4.93510277777778,51.7710277777778],[4.93986111111111,51.7890333333333],[4.93884166666667,51.7961027777778],[4.96473055555556,51.8113138888889],[4.99319166666667,51.8177611111111],[5.00689722222222,51.8197027777778],[5.037475,51.8145138888889],[5.08032222222222,51.8248888888889],[5.09332222222222,51.8247055555556],[5.12628055555555,51.8129277777778],[5.14111388888889,51.8120722222222],[5.16552777777778,51.8153083333333],[5.18328888888889,51.8134777777778],[5.21948333333333,51.8084722222222],[5.247925,51.8154916666667],[5.30407777777778,51.8220833333333],[5.31426944444444,51.8209222222222],[5.32428055555556,51.8159166666667],[5.32989444444444,51.8104861111111],[5.33532777777778,51.805725],[5.34869444444444,51.802125],[5.36328055555555,51.8037222222222],[5.38031111111111,51.8203111111111],[5.41290277777778,51.8443],[5.42767222222222,51.8693222222222],[5.444275,51.8833],[5.462525,51.8876944444444],[5.51110833333333,51.8883055555556],[5.55731111111111,51.8997194444444],[5.57994166666667,51.8755194444444],[5.62125277777778,51.8721555555556]]]}},{"type":"Feature","properties":{"identifier":"2.k","name":"GLV X (Voorne-Putten/Hoeksewaard) laagvlieggebied voor bemand luchtverkeer","restriction":"CONDITIONAL","rule":"OPEN A1/2 toegestaan tot max 30m hoogte boven de grond; A3 niet toegestaan","category":"laagvlieg","source":"AIP Nederland ENR 5.3, ED-269, 22 juli 2024"},"geometry":{"type":"Polygon","coordinates":[[[4.03029444444444,51.8886833333333],[4.05204722222222,51.9061833333333],[4.07315277777778,51.9243638888889],[4.08020833333333,51.9269916666667],[4.14388333333333,51.929525],[4.14812222222222,51.9255277777778],[4.16555555555556,51.9166305555556],[4.15939281529711,51.9159730160137],[4.15299803390648,51.9142692892867],[4.1460526816762,51.9107371344197],[4.1415953173472,51.9060670680487],[4.13977018235752,51.9007172494093],[4.1409491227844,51.8952963710453],[4.14456038590523,51.8905665158691],[4.14982376133177,51.8869839020602],[4.15687134364374,51.8845455131899],[4.16372582307401,51.8833986060727],[4.17160443124512,51.883581167524],[4.17802939997642,51.8848565050317],[4.18365510825179,51.8869990602948],[4.18794440800525,51.8897291446598],[4.19074753087966,51.8926808869745],[4.19288689763795,51.8960445587074],[4.19356578852911,51.8991279331643],[4.19325555555556,51.9025555555556],[4.20258333333333,51.9013472222222],[4.21592222222222,51.8910361111111],[4.22714444444444,51.8852083333333],[4.23695277777778,51.8723722222222],[4.25939722222222,51.8646638888889],[4.26865833333333,51.8633138888889],[4.28427222222222,51.8636138888889],[4.30976193638429,51.8578896865811],[4.30692660739508,51.8527645783597],[4.30687053545499,51.8475609513951],[4.30946033002041,51.8424908860444],[4.3139455420321,51.8384808206599],[4.31953675742866,51.8357544896323],[4.3262950433868,51.8339779209566],[4.33265194006199,51.8333886414659],[4.33926454936838,51.8337775130458],[4.34463852119637,51.8349789689603],[4.35005655425384,51.836943160064],[4.35523481396508,51.8403256854379],[4.35762146576945,51.8428261677283],[4.35959055585271,51.8466553091046],[4.38506944444444,51.8409777777778],[4.41453888888889,51.8416388888889],[4.44985277777778,51.83075],[4.47017777777778,51.8299333333333],[4.49591666666667,51.8330638888889],[4.50478611111111,51.8323416666667],[4.52055833333333,51.8277638888889],[4.54551388888889,51.8307027777778],[4.55061388888889,51.8300277777778],[4.5667,51.8112416666667],[4.58239722222222,51.8053638888889],[4.58938055555556,51.8061611111111],[4.61590277777778,51.8003305555556],[4.61990555555556,51.7969361111111],[4.62634166666667,51.7796666666667],[4.62422222222222,51.7591916666667],[4.62948055555556,51.7505694444444],[4.62791111111111,51.7361194444444],[4.61865,51.7226305555556],[4.60688055555555,51.7170416666667],[4.55791111111111,51.7044222222222],[4.53115277777778,51.7006166666667],[4.46908055555556,51.7148277777778],[4.43557222222222,51.7164166666667],[4.40991111111111,51.7218361111111],[4.35592777777778,51.7402138888889],[4.31346666666667,51.7526888888889],[4.26598888888889,51.7613611111111],[4.24880277777778,51.7659861111111],[4.18296388888889,51.8041111111111],[4.16368611111111,51.8190111111111],[4.16927587978325,51.8216916244533],[4.17274280222118,51.8244267521515],[4.17463322668733,51.8265810390063],[4.17601587722709,51.8290338343709],[4.17681303633959,51.8319824636574],[4.17676879108123,51.8348686918205],[4.17578314621694,51.8379655737584],[4.17409617948216,51.840759343508],[4.17154041918419,51.8432704876416],[4.16802074221235,51.8456275958102],[4.16390191247182,51.8475661922063],[4.15927236276522,51.8490116333319],[4.15393450902179,51.849783396715],[4.14938437899207,51.849937549039],[4.14441698260077,51.8496131395949],[4.14021294318045,51.8488280511165],[4.13545228254458,51.8473686326692],[4.13090146549796,51.8450668449282],[4.12785756701813,51.8428281876899],[4.12561685881529,51.8402549175187],[4.12395550384431,51.8373223703352],[4.12328986176282,51.8340672989392],[4.12338280086224,51.8317195113203],[4.12434706713307,51.8286508290245],[4.12586097686982,51.8261851932355],[4.12778059368412,51.8239493274268],[4.12998107308784,51.8221723231502],[4.13255043813252,51.8207520007628],[4.13420555555556,51.8198694444444],[4.09478333333333,51.8278861111111],[4.03029444444444,51.8886833333333]]]}},{"type":"Feature","properties":{"identifier":"2.l","name":"GLV XI (Wieringermeerpolder) laagvlieggebied voor bemand luchtverkeer","restriction":"CONDITIONAL","rule":"OPEN A1/2 toegestaan tot max 30m hoogte boven de grond; A3 niet toegestaan","category":"laagvlieg","source":"AIP Nederland ENR 5.3, ED-269, 22 juli 2024"},"geometry":{"type":"Polygon","coordinates":[[[5.03088333333333,52.9376833333333],[5.03808611111111,52.9334722222222],[5.03912222222222,52.9235222222222],[5.04888888888889,52.9240722222222],[5.0755,52.8934944444444],[5.07971111111111,52.8891],[5.11431944444444,52.8461305555556],[5.10430833333333,52.7750861111111],[4.95709166666667,52.7584833333333],[4.93792777777778,52.8723138888889],[4.934875,52.8803111111111],[4.93231111111111,52.8826916666667],[4.93511944444445,52.8847055555556],[4.93310555555556,52.8869027777778],[4.92730833333333,52.8840944444444],[4.92327777777778,52.8839111111111],[4.91888333333333,52.8840944444444],[4.91607777777778,52.886475],[4.91308611111111,52.8889166666667],[4.90972777777778,52.8903194444444],[4.90771388888889,52.8933111111111],[4.9115,52.895875],[4.9151,52.8969111111111],[4.91851666666667,52.898925],[4.93871944444444,52.9044805555556],[4.95471111111111,52.9166861111111],[4.957275,52.9215083333333],[4.95831388888889,52.9246833333333],[4.96691944444444,52.9296861111111],[4.96990833333333,52.930725],[4.976075,52.931275],[4.97991944444444,52.9317027777778],[4.98730555555556,52.9321277777778],[4.99810833333333,52.934875],[5.00231944444444,52.9354861111111],[5.00531111111111,52.9357305555556],[5.00909444444444,52.9345083333333],[5.01232777777778,52.9339],[5.02008055555556,52.934875],[5.02612222222222,52.9370722222222],[5.03088333333333,52.9376833333333]]]}},{"type":"Feature","properties":{"identifier":"2.m","name":"GLV XII (Noordzee) laagvlieggebied voor bemand luchtverkeer","restriction":"CONDITIONAL","rule":"OPEN A1/2 toegestaan tot max 30m hoogte boven de grond; A3 niet toegestaan","category":"laagvlieg","source":"AIP Nederland ENR 5.3, ED-269, 22 juli 2024"},"geometry":{"type":"Polygon","coordinates":[[[4.66666666666667,53.5833333333333],[5.0,53.5833333333333],[5.0,53.3797166666667],[4.98678400097663,53.381140888293],[4.97445445867692,53.382263821919],[4.96098925841828,53.382694847152],[4.94809824108562,53.3831282319153],[4.93722460357454,53.3827183746021],[4.92578265018663,53.3821332225764],[4.91377276701171,53.3813726866441],[4.8960644888648,53.3792067449863],[4.88379689414612,53.3770752186561],[4.86983149084422,53.3740772958726],[4.85559733770655,53.3703934585044],[4.83967934743713,53.3653310532466],[4.8246332322511,53.3599328003287],[4.81104049031686,53.3536911496574],[4.79831201024369,53.3474560658676],[4.78534121224669,53.3395136501161],[4.77494407555451,53.3317619632506],[4.76457600091282,53.322988942691],[4.75480457343506,53.3133700948852],[4.74674697026905,53.3039369476174],[4.74068617275968,53.2946917516328],[4.73688911078988,53.286317770427],[4.73282487292968,53.2772625297753],[4.73019867672578,53.2677100739433],[4.72870843037748,53.2583389540077],[4.72803333333333,53.25],[4.61705,53.25],[4.51555555555556,53.1027777777778],[4.35,53.0833333333333],[4.16666666666667,53.0833333333333],[4.16666666666667,53.2040555555556],[4.18023568938207,53.2019637303084],[4.19067993346979,53.2009961844568],[4.20294424034408,53.2004164732611],[4.21442191954403,53.2004273450229],[4.22882135279995,53.2013441152033],[4.23919109310579,53.2023237941132],[4.2493323971706,53.2040320642634],[4.26047399131462,53.2063615445565],[4.27179740762925,53.2094245896017],[4.28310008584629,53.213219085124],[4.29174666929482,53.2172266668819],[4.30039656636889,53.221234254716],[4.30701268324607,53.2250966307944],[4.31423255229816,53.2293327299289],[4.3170906499835,53.231931591948],[4.32771666666667,53.2409583333333],[4.66666666666667,53.5833333333333]]]}},{"type":"Feature","properties":{"identifier":"2.n","name":"Oefengebied externe blusinstallatie helikopters  Lek West","restriction":"CONDITIONAL","rule":"OPEN A1/2 toegestaan tot max 30m hoogte boven de grond; A3 niet toegestaan","category":"laagvlieg","source":"AIP Nederland ENR 5.3, ED-269, 22 juli 2024"},"geometry":{"type":"Polygon","coordinates":[[[5.12033333333333,52.0022861111111],[5.11659722222222,52.0000611111111],[5.12472777777778,51.9968222222222],[5.13066111111111,51.992575],[5.14406388888889,51.9790194444444],[5.14604166666667,51.9744333333333],[5.15340277777778,51.9709277777778],[5.16010277777778,51.9695777777778],[5.174275,51.9680611111111],[5.18130833333333,51.9653638888889],[5.19163333333333,51.960575],[5.20361111111111,51.9584833333333],[5.21163055555556,51.9589555555556],[5.21525555555556,51.9606416666667],[5.214375,51.9625972222222],[5.20778333333333,51.9605083333333],[5.19701666666667,51.9615861111111],[5.18899722222222,51.9646222222222],[5.18196666666667,51.9683972222222],[5.17658333333333,51.9701861111111],[5.16922222222222,51.9711277777778],[5.15538055555556,51.9722083333333],[5.14999722222222,51.9751083333333],[5.14691944444445,51.97875],[5.14527222222222,51.9850222222222],[5.14571111111111,51.9896083333333],[5.14164722222222,51.9943277777778],[5.13648333333333,51.9970916666667],[5.12033333333333,52.0022861111111]]]}},{"type":"Feature","properties":{"identifier":"2.o","name":"Oefengebied externe blusinstallatie helikopters  Lek Oost","restriction":"CONDITIONAL","rule":"OPEN A1/2 toegestaan tot max 30m hoogte boven de grond; A3 niet toegestaan","category":"laagvlieg","source":"AIP Nederland ENR 5.3, ED-269, 22 juli 2024"},"geometry":{"type":"Polygon","coordinates":[[[5.32498611111111,52.1826944444444],[5.32391111111111,52.1820083333333],[5.32639166666667,52.1814805555556],[5.33017222222222,52.1818583333333],[5.33157777777778,52.1820083333333],[5.33307222222222,52.1827611111111],[5.33467777777778,52.1828416666667],[5.33711666666667,52.1821694444444],[5.34034722222222,52.1781416666667],[5.34118055555555,52.1784666666667],[5.33792777777778,52.1826472222222],[5.33617222222222,52.1831805555556],[5.33346666666667,52.18345],[5.33001944444444,52.1823722222222],[5.32667777777778,52.1820888888889],[5.32498611111111,52.1826944444444]]]}},{"type":"Feature","properties":{"identifier":"2.p","name":"Oefengebied externe blusinstallatie helikopters  Bergse Maas: Bergse Maas 1","restriction":"CONDITIONAL","rule":"OPEN A1/2 toegestaan tot max 30m hoogte boven de grond; A3 niet toegestaan","category":"laagvlieg","source":"AIP Nederland ENR 5.3, ED-269, 22 juli 2024"},"geometry":{"type":"Polygon","coordinates":[[[4.97228888888889,51.7197472222222],[4.96141388888889,51.7213777777778],[4.95196666666667,51.7220527777778],[4.93933055555556,51.72165],[4.91599722222222,51.718575],[4.91538055555556,51.7207055555556],[4.93691388888889,51.7235361111111],[4.94724166666667,51.7240777777778],[4.95932777777778,51.7236027777778],[4.9735,51.7214805555556],[4.97228888888889,51.7197472222222]]]}},{"type":"Feature","properties":{"identifier":"2.q","name":"Oefengebied externe blusinstallatie helikopters  Bergse Maas: Bergse Maas 2","restriction":"CONDITIONAL","rule":"OPEN A1/2 toegestaan tot max 30m hoogte boven de grond; A3 niet toegestaan","category":"laagvlieg","source":"AIP Nederland ENR 5.3, ED-269, 22 juli 2024"},"geometry":{"type":"Polygon","coordinates":[[[5.04431666666667,51.7100777777778],[5.02996944444444,51.71005],[5.01557777777778,51.7111277777778],[4.99986666666667,51.7134222222222],[5.00063611111111,51.7152416666667],[5.01447777777778,51.7130166666667],[5.02952777777778,51.7118694444444],[5.04416388888889,51.7118861111111],[5.04431666666667,51.7100777777778]]]}},{"type":"Feature","properties":{"identifier":"2.r","name":"Oefengebied externe blusinstallatie helikopters  Bergse Maas: Bergse Maas 3","restriction":"CONDITIONAL","rule":"OPEN A1/2 toegestaan tot max 30m hoogte boven de grond; A3 niet toegestaan","category":"laagvlieg","source":"AIP Nederland ENR 5.3, ED-269, 22 juli 2024"},"geometry":{"type":"Polygon","coordinates":[[[5.08107777777778,51.7228638888889],[5.09259166666667,51.728675],[5.10368611111111,51.732675],[5.10509166666667,51.7313722222222],[5.09346944444444,51.7271444444444],[5.08261388888889,51.7217166666667],[5.08107777777778,51.7228638888889]]]}},{"type":"Feature","properties":{"identifier":"2.s","name":"VO laagvliegroute voor bemand luchtverkeer","restriction":"CONDITIONAL","rule":"OPEN A1/2 toegestaan tot max 30m hoogte boven de grond; A3 niet toegestaan","category":"laagvlieg","source":"AIP Nederland ENR 5.3, ED-269, 22 juli 2024"},"geometry":{"type":"Polygon","coordinates":[[[4.67165358448939,51.6384472156339],[4.99552042436039,51.6924229141578],[5.25840920823063,51.7415770267379],[5.5812927637378,51.8000107112965],[5.68742291212782,51.8189890790583],[5.69939209671941,51.8291288875587],[5.68977051344053,51.8344693746323],[5.56649461868796,51.8570401955033],[5.2579296338484,51.8563150772901],[5.05979621111141,51.8781906858214],[4.94106330634777,51.8730594720066],[4.63905356801829,51.7711736742133],[4.6170357029355,51.7236117239504],[4.4189141371188,51.7189503348687],[4.32889763155508,51.6590243648666],[4.32377549993908,51.4468761436602],[4.33081078860444,51.4407508326144],[4.34617176484638,51.4427647481105],[4.3621168378652,51.459859755495],[4.522174503441,51.6133206374817],[4.67165358448939,51.6384472156339],[4.6654375207652,51.6539609781254],[4.50494766903931,51.6281752447389],[4.35120131953544,51.4799462433589],[4.35631549287398,51.6535144876484],[4.4278818539319,51.7010770395252],[4.63630491753002,51.7081343419273],[4.66130378915908,51.7599201244568],[4.9436300597434,51.8556815000034],[5.04898911188919,51.8610338044182],[5.25319585988549,51.8395470752743],[5.55866015981145,51.8402006917774],[5.63238429541413,51.8271614040202],[5.3624877117153,51.777506354889],[5.15006514842424,51.7380952486099],[4.8658830361214,51.6884276844363],[4.6654375207652,51.6539609781254],[4.67165358448939,51.6384472156339]]]}},{"type":"Feature","properties":{"identifier":"2.t","name":"Deventer laagvlieggebied voor bemand luchtverkeer","restriction":"CONDITIONAL","rule":"OPEN A1/2 toegestaan tot max 30m hoogte boven de grond; A3 niet toegestaan","category":"laagvlieg","source":"AIP Nederland ENR 5.3, ED-269, 22 juli 2024"},"geometry":{"type":"Polygon","coordinates":[[[6.14330833333333,52.2463555555556],[6.15900277777778,52.2495944444444],[6.19205555555556,52.2269638888889],[6.19596111111111,52.2001277777778],[6.22627777777778,52.1710611111111],[6.20333611111111,52.147675],[6.18410555555556,52.1425916666667],[6.14136666666667,52.1550972222222],[6.14145555555556,52.1733444444444],[6.12897222222222,52.1917583333333],[6.14690277777778,52.2184277777778],[6.14330833333333,52.2463555555556]]]}},{"type":"Feature","properties":{"identifier":"2.u","name":"Flevopolder laagvlieggebied voor bemand luchtverkeer","restriction":"CONDITIONAL","rule":"OPEN A1/2 toegestaan tot max 30m hoogte boven de grond; A3 niet toegestaan","category":"laagvlieg","source":"AIP Nederland ENR 5.3, ED-269, 22 juli 2024"},"geometry":{"type":"Polygon","coordinates":[[[5.32888888888889,52.3416666666667],[5.35416666666667,52.3525],[5.38472222222222,52.3247222222222],[5.35944444444444,52.315],[5.32888888888889,52.3416666666667]]]}},{"type":"Feature","properties":{"identifier":"2.v","name":"Gouda laagvlieggebied voor bemand luchtverkeer","restriction":"CONDITIONAL","rule":"OPEN A1/2 toegestaan tot max 30m hoogte boven de grond; A3 niet toegestaan","category":"laagvlieg","source":"AIP Nederland ENR 5.3, ED-269, 22 juli 2024"},"geometry":{"type":"Polygon","coordinates":[[[4.72081388888889,52.0067638888889],[4.749775,51.990925],[4.76820833333333,51.97185],[4.780125,51.9526055555556],[4.77950833333333,51.9304083333333],[4.78228055555556,51.9188277777778],[4.76697222222222,51.9179583333333],[4.721175,51.8989222222222],[4.67181666666667,51.8917555555556],[4.62148055555556,51.8916638888889],[4.56236388888889,51.9069916666667],[4.63395555555555,51.9361472222222],[4.64900555555556,51.95395],[4.63216388888889,51.9691694444444],[4.66991388888889,51.9791138888889],[4.68208055555556,51.992175],[4.72081388888889,52.0067638888889]]]}},{"type":"Feature","properties":{"identifier":"2.w","name":"Groningen laagvlieggebied voor bemand luchtverkeer","restriction":"CONDITIONAL","rule":"OPEN A1/2 toegestaan tot max 30m hoogte boven de grond; A3 niet toegestaan","category":"laagvlieg","source":"AIP Nederland ENR 5.3, ED-269, 22 juli 2024"},"geometry":{"type":"Polygon","coordinates":[[[6.29416666666667,53.3872222222222],[6.30416666666667,53.3813888888889],[6.38111111111111,53.4025],[6.41666666666667,53.4077777777778],[6.43833333333333,53.4072222222222],[6.45055555555556,53.4119444444444],[6.52027777777778,53.4172222222222],[6.52722222222222,53.4138888888889],[6.61,53.4286111111111],[6.65166666666667,53.4430555555556],[6.75333333333333,53.4394444444444],[6.81805555555556,53.4263888888889],[6.86777777777778,53.3986111111111],[6.89305555555555,53.3297222222222],[6.86416666666667,53.3261111111111],[6.73638888888889,53.3355555555556],[6.5425,53.2969444444444],[6.51916666666667,53.3361111111111],[6.39666666666667,53.3636111111111],[6.32722222222222,53.3619444444444],[6.29277777777778,53.3666666666667],[6.2775,53.3825],[6.28527777777778,53.3830555555556],[6.29416666666667,53.3872222222222]]]}}]}