{"type":"FeatureCollection","name":"Verboden voor al het luchtverkeer","source":"Afgeleid uit nl/uas-zones.json, AIP Nederland ENR 5.3, uitgave 22 juli 2024. Cirkels zijn benaderd met 64 punten.","features":[{"type":"Feature","properties":{"identifier":"7.28","name":"Verboden gebied voor al het luchtverkeer EHP25 (Drakensteijn Castle)","restriction":"PROHIBITED","rule":"Alle vluchten zijn hier verboden","category":"verboden","source":"AIP Nederland ENR 5.3, ED-269, 22 juli 2024"},"geometry":{"type":"Polygon","coordinates":[[[5.227222,52.188041],[5.228552,52.188001],[5.229869,52.187881],[5.23116,52.187682],[5.232414,52.187407],[5.233617,52.187058],[5.234759,52.186639],[5.235828,52.186152],[5.236815,52.185604],[5.237709,52.184999],[5.238502,52.184344],[5.239186,52.183643],[5.239755,52.182906],[5.240204,52.182137],[5.240527,52.181345],[5.240723,52.180538],[5.240788,52.179722],[5.240723,52.178907],[5.240527,52.178099],[5.240204,52.177308],[5.239755,52.176539],[5.239186,52.175801],[5.238502,52.175101],[5.237709,52.174445],[5.236815,52.17384],[5.235828,52.173292],[5.234759,52.172806],[5.233617,52.172386],[5.232414,52.172037],[5.23116,52.171762],[5.229869,52.171564],[5.228552,52.171444],[5.227222,52.171404],[5.225893,52.171444],[5.224576,52.171564],[5.223284,52.171762],[5.222031,52.172037],[5.220827,52.172386],[5.219685,52.172806],[5.218616,52.173292],[5.21763,52.17384],[5.216736,52.174445],[5.215943,52.175101],[5.215258,52.175801],[5.214689,52.176539],[5.214241,52.177308],[5.213917,52.178099],[5.213722,52.178907],[5.213656,52.179722],[5.213722,52.180538],[5.213917,52.181345],[5.214241,52.182137],[5.214689,52.182906],[5.215258,52.183643],[5.215943,52.184344],[5.216736,52.184999],[5.21763,52.185604],[5.218616,52.186152],[5.219685,52.186639],[5.220827,52.187058],[5.222031,52.187407],[5.223284,52.187682],[5.224576,52.187881],[5.225893,52.188001],[5.227222,52.188041]]]}},{"type":"Feature","properties":{"identifier":"7.29","name":"Verboden gebied voor al het luchtverkeer EHP26 (royal palaces and government buildings)","restriction":"PROHIBITED","rule":"Alle vluchten zijn hier verboden","category":"verboden","source":"AIP Nederland ENR 5.3, ED-269, 22 juli 2024"},"geometry":{"type":"Polygon","coordinates":[[[4.30555555555556,52.0619444444444],[4.40555555555556,52.1069444444444],[4.43416666666667,52.1269444444444],[4.39722222222222,52.1433333333333],[4.27416666666667,52.0880555555556],[4.30555555555556,52.0619444444444]]]}},{"type":"Feature","properties":{"identifier":"7.30","name":"Verboden gebied voor al het luchtverkeer EHP26A (Scheveningen)","restriction":"PROHIBITED","rule":"Alle vluchten zijn hier verboden","category":"verboden","source":"AIP Nederland ENR 5.3, ED-269, 22 juli 2024"},"geometry":{"type":"Polygon","coordinates":[[[4.27722222222222,52.1072222222222],[4.30138888888889,52.1194444444444],[4.33,52.1130555555556],[4.29944444444444,52.0994444444444],[4.27722222222222,52.1072222222222]]]}},{"type":"Feature","properties":{"identifier":"7.82","name":"Verboden gebied tijdens Dodenherdenking 4 mei EHTSA 16 (Amsterdam/Dam)","restriction":"PROHIBITED","rule":"Alle vluchten zijn hier verboden op 4 mei","category":"verboden","source":"AIP Nederland ENR 5.3, ED-269, 22 juli 2024"},"geometry":{"type":"Polygon","coordinates":[[[4.9,52.39994],[4.905341,52.39978],[4.910631,52.399301],[4.915818,52.398508],[4.920853,52.397407],[4.925688,52.396011],[4.930275,52.394333],[4.93457,52.392388],[4.938532,52.390195],[4.942123,52.387775],[4.945309,52.385152],[4.948058,52.382352],[4.950345,52.3794],[4.952146,52.376325],[4.953446,52.373158],[4.95423,52.369928],[4.954493,52.366667],[4.95423,52.363405],[4.953446,52.360175],[4.952146,52.357008],[4.950345,52.353933],[4.948058,52.350982],[4.945309,52.348181],[4.942123,52.345558],[4.938532,52.343139],[4.93457,52.340946],[4.930275,52.339001],[4.925688,52.337322],[4.920853,52.335926],[4.915818,52.334826],[4.910631,52.334032],[4.905341,52.333553],[4.9,52.333393],[4.894659,52.333553],[4.889369,52.334032],[4.884182,52.334826],[4.879147,52.335926],[4.874312,52.337322],[4.869725,52.339001],[4.86543,52.340946],[4.861468,52.343139],[4.857877,52.345558],[4.854691,52.348181],[4.851942,52.350982],[4.849655,52.353933],[4.847854,52.357008],[4.846554,52.360175],[4.84577,52.363405],[4.845507,52.366667],[4.84577,52.369928],[4.846554,52.373158],[4.847854,52.376325],[4.849655,52.3794],[4.851942,52.382352],[4.854691,52.385152],[4.857877,52.387775],[4.861468,52.390195],[4.86543,52.392388],[4.869725,52.394333],[4.874312,52.396011],[4.879147,52.397407],[4.884182,52.398508],[4.889369,52.399301],[4.894659,52.39978],[4.9,52.39994]]]}},{"type":"Feature","properties":{"identifier":"7.83","name":"Verboden gebied tijdens Dodenherdenking 4 mei EHTSA 16a (Amsterdam/Dam)","restriction":"PROHIBITED","rule":"Alle vluchten zijn hier verboden op 4 mei","category":"verboden","source":"AIP Nederland ENR 5.3, ED-269, 22 juli 2024"},"geometry":{"type":"Polygon","coordinates":[[[4.9,52.39994],[4.905341,52.39978],[4.910631,52.399301],[4.915818,52.398508],[4.920853,52.397407],[4.925688,52.396011],[4.930275,52.394333],[4.93457,52.392388],[4.938532,52.390195],[4.942123,52.387775],[4.945309,52.385152],[4.948058,52.382352],[4.950345,52.3794],[4.952146,52.376325],[4.953446,52.373158],[4.95423,52.369928],[4.954493,52.366667],[4.95423,52.363405],[4.953446,52.360175],[4.952146,52.357008],[4.950345,52.353933],[4.948058,52.350982],[4.945309,52.348181],[4.942123,52.345558],[4.938532,52.343139],[4.93457,52.340946],[4.930275,52.339001],[4.925688,52.337322],[4.920853,52.335926],[4.915818,52.334826],[4.910631,52.334032],[4.905341,52.333553],[4.9,52.333393],[4.894659,52.333553],[4.889369,52.334032],[4.884182,52.334826],[4.879147,52.335926],[4.874312,52.337322],[4.869725,52.339001],[4.86543,52.340946],[4.861468,52.343139],[4.857877,52.345558],[4.854691,52.348181],[4.851942,52.350982],[4.849655,52.353933],[4.847854,52.357008],[4.846554,52.360175],[4.84577,52.363405],[4.845507,52.366667],[4.84577,52.369928],[4.846554,52.373158],[4.847854,52.376325],[4.849655,52.3794],[4.851942,52.382352],[4.854691,52.385152],[4.857877,52.387775],[4.861468,52.390195],[4.86543,52.392388],[4.869725,52.394333],[4.874312,52.396011],[4.879147,52.397407],[4.884182,52.398508],[4.889369,52.399301],[4.894659,52.39978],[4.9,52.39994]]]}},{"type":"Feature","properties":{"identifier":"7.84","name":"Verboden gebied tijdens Dodenherdenking 4 mei EHTSA 17 (Apeldoorn/Loenen)","restriction":"PROHIBITED","rule":"Alle vluchten zijn hier verboden op 4 mei","category":"verboden","source":"AIP Nederland ENR 5.3, ED-269, 22 juli 2024"},"geometry":{"type":"Polygon","coordinates":[[[6.016667,52.14994],[6.021978,52.14978],[6.027238,52.149301],[6.032396,52.148508],[6.037403,52.147407],[6.04221,52.146011],[6.046771,52.144333],[6.051042,52.142388],[6.054982,52.140195],[6.058553,52.137775],[6.061721,52.135152],[6.064455,52.132352],[6.066729,52.1294],[6.06852,52.126325],[6.069812,52.123158],[6.070592,52.119928],[6.070853,52.116667],[6.070592,52.113405],[6.069812,52.110175],[6.06852,52.107008],[6.066729,52.103933],[6.064455,52.100982],[6.061721,52.098181],[6.058553,52.095558],[6.054982,52.093139],[6.051042,52.090946],[6.046771,52.089001],[6.04221,52.087322],[6.037403,52.085926],[6.032396,52.084826],[6.027238,52.084032],[6.021978,52.083553],[6.016667,52.083393],[6.011355,52.083553],[6.006095,52.084032],[6.000937,52.084826],[5.99593,52.085926],[5.991123,52.087322],[5.986562,52.089001],[5.982291,52.090946],[5.978351,52.093139],[5.97478,52.095558],[5.971612,52.098181],[5.968878,52.100982],[5.966605,52.103933],[5.964813,52.107008],[5.963521,52.110175],[5.962741,52.113405],[5.96248,52.116667],[5.962741,52.119928],[5.963521,52.123158],[5.964813,52.126325],[5.966605,52.1294],[5.968878,52.132352],[5.971612,52.135152],[5.97478,52.137775],[5.978351,52.140195],[5.982291,52.142388],[5.986562,52.144333],[5.991123,52.146011],[5.99593,52.147407],[6.000937,52.148508],[6.006095,52.149301],[6.011355,52.14978],[6.016667,52.14994]]]}},{"type":"Feature","properties":{"identifier":"7.85","name":"Verboden gebied tijdens Dodenherdenking 4 mei EHTSA 18 (Bloemendaal/Overveen)","restriction":"PROHIBITED","rule":"Alle vluchten zijn hier verboden op 4 mei","category":"verboden","source":"AIP Nederland ENR 5.3, ED-269, 22 juli 2024"},"geometry":{"type":"Polygon","coordinates":[[[4.616667,52.433274],[4.622012,52.433113],[4.627306,52.432634],[4.632497,52.431841],[4.637536,52.430741],[4.642374,52.429345],[4.646964,52.427666],[4.651263,52.425721],[4.655228,52.423528],[4.658822,52.421109],[4.66201,52.418486],[4.664761,52.415685],[4.667049,52.412733],[4.668852,52.409659],[4.670153,52.406491],[4.670938,52.403261],[4.671201,52.4],[4.670938,52.396739],[4.670153,52.393509],[4.668852,52.390341],[4.667049,52.387267],[4.664761,52.384315],[4.66201,52.381514],[4.658822,52.378891],[4.655228,52.376472],[4.651263,52.374279],[4.646964,52.372334],[4.642374,52.370655],[4.637536,52.369259],[4.632497,52.368159],[4.627306,52.367366],[4.622012,52.366887],[4.616667,52.366726],[4.611321,52.366887],[4.606028,52.367366],[4.600836,52.368159],[4.595797,52.369259],[4.59096,52.370655],[4.586369,52.372334],[4.582071,52.374279],[4.578105,52.376472],[4.574511,52.378891],[4.571323,52.381514],[4.568572,52.384315],[4.566284,52.387267],[4.564481,52.390341],[4.563181,52.393509],[4.562395,52.396739],[4.562133,52.4],[4.562395,52.403261],[4.563181,52.406491],[4.564481,52.409659],[4.566284,52.412733],[4.568572,52.415685],[4.571323,52.418486],[4.574511,52.421109],[4.578105,52.423528],[4.582071,52.425721],[4.586369,52.427666],[4.59096,52.429345],[4.595797,52.430741],[4.600836,52.431841],[4.606028,52.432634],[4.611321,52.433113],[4.616667,52.433274]]]}},{"type":"Feature","properties":{"identifier":"7.86","name":"Verboden gebied tijdens Dodenherdenking 4 mei EHTSA 19 (Rhenen/Grebbeberg)","restriction":"PROHIBITED","rule":"Alle vluchten zijn hier verboden op 4 mei","category":"verboden","source":"AIP Nederland ENR 5.3, ED-269, 22 juli 2024"},"geometry":{"type":"Polygon","coordinates":[[[5.591667,51.991607],[5.596959,51.991447],[5.602201,51.990968],[5.607341,51.990174],[5.61233,51.989074],[5.61712,51.987678],[5.621665,51.985999],[5.625921,51.984054],[5.629847,51.981861],[5.633405,51.979442],[5.636562,51.976819],[5.639286,51.974018],[5.641552,51.971067],[5.643337,51.967992],[5.644624,51.964825],[5.645402,51.961595],[5.645662,51.958333],[5.645402,51.955072],[5.644624,51.951842],[5.643337,51.948675],[5.641552,51.9456],[5.639286,51.942648],[5.636562,51.939848],[5.633405,51.937225],[5.629847,51.934805],[5.625921,51.932612],[5.621665,51.930667],[5.61712,51.928989],[5.61233,51.927593],[5.607341,51.926492],[5.602201,51.925699],[5.596959,51.92522],[5.591667,51.92506],[5.586374,51.92522],[5.581133,51.925699],[5.575993,51.926492],[5.571004,51.927593],[5.566214,51.928989],[5.561669,51.930667],[5.557413,51.932612],[5.553486,51.934805],[5.549928,51.937225],[5.546771,51.939848],[5.544047,51.942648],[5.541782,51.9456],[5.539997,51.948675],[5.538709,51.951842],[5.537932,51.955072],[5.537672,51.958333],[5.537932,51.961595],[5.538709,51.964825],[5.539997,51.967992],[5.541782,51.971067],[5.544047,51.974018],[5.546771,51.976819],[5.549928,51.979442],[5.553486,51.981861],[5.557413,51.984054],[5.561669,51.985999],[5.566214,51.987678],[5.571004,51.989074],[5.575993,51.990174],[5.581133,51.990968],[5.586374,51.991447],[5.591667,51.991607]]]}},{"type":"Feature","properties":{"identifier":"7.87","name":"Verboden gebied tijdens Dodenherdenking 4 mei EHTSA 21 (Westerbork)","restriction":"PROHIBITED","rule":"Alle vluchten zijn hier verboden op 4 mei","category":"verboden","source":"AIP Nederland ENR 5.3, ED-269, 22 juli 2024"},"geometry":{"type":"Polygon","coordinates":[[[6.569642,52.945936],[6.573699,52.945816],[6.577717,52.945456],[6.581657,52.944861],[6.585481,52.944036],[6.589153,52.942989],[6.592637,52.94173],[6.5959,52.940271],[6.598909,52.938627],[6.601637,52.936812],[6.604057,52.934845],[6.606145,52.932744],[6.607882,52.93053],[6.60925,52.928225],[6.610237,52.925849],[6.610833,52.923427],[6.611033,52.920981],[6.610833,52.918535],[6.610237,52.916112],[6.60925,52.913736],[6.607882,52.911431],[6.606145,52.909217],[6.604057,52.907116],[6.601637,52.905149],[6.598909,52.903335],[6.5959,52.90169],[6.592637,52.900231],[6.589153,52.898972],[6.585481,52.897925],[6.581657,52.8971],[6.577717,52.896505],[6.573699,52.896146],[6.569642,52.896025],[6.565585,52.896146],[6.561567,52.896505],[6.557627,52.8971],[6.553802,52.897925],[6.55013,52.898972],[6.546646,52.900231],[6.543384,52.90169],[6.540374,52.903335],[6.537646,52.905149],[6.535226,52.907116],[6.533138,52.909217],[6.531402,52.911431],[6.530033,52.913736],[6.529046,52.916112],[6.52845,52.918535],[6.528251,52.920981],[6.52845,52.923427],[6.529046,52.925849],[6.530033,52.928225],[6.531402,52.93053],[6.533138,52.932744],[6.535226,52.934845],[6.537646,52.936812],[6.540374,52.938627],[6.543384,52.940271],[6.546646,52.94173],[6.55013,52.942989],[6.553802,52.944036],[6.557627,52.944861],[6.561567,52.945456],[6.565585,52.945816],[6.569642,52.945936]]]}},{"type":"Feature","properties":{"identifier":"8.1","name":"Millieubeschermingsgebied Waddenzee","restriction":"PROHIBITED","rule":"Alle vluchten zijn hier verboden","category":"verboden","source":"AIP Nederland ENR 5.3, ED-269, 22 juli 2024"},"geometry":{"type":"Polygon","coordinates":[[[4.572805556,52.95272222],[4.575111111,52.97263889],[4.608777778,53.05597222],[4.614944444,53.07536111],[4.626972222,53.10030556],[4.646527778,53.12947222],[4.661111111,53.14708333],[4.693555556,53.17877778],[4.718972222,53.20275],[4.761027778,53.23777778],[4.774083333,53.24811111],[4.789444444,53.25936111],[4.801888889,53.26844444],[4.81125,53.27527778],[4.834166667,53.28933333],[4.843777778,53.29533333],[4.853027778,53.30144444],[4.864638889,53.30816667],[4.873638889,53.31436111],[4.884722222,53.32072222],[4.907111111,53.33272222],[4.921111111,53.33988889],[4.950805556,53.35444444],[4.963166667,53.36027778],[4.976722222,53.36633333],[5.001194444,53.37722222],[5.054055556,53.39644444],[5.085805556,53.40780556],[5.129666667,53.42211111],[5.156888889,53.43086111],[5.182888889,53.43766667],[5.200055556,53.44230556],[5.208472222,53.44497222],[5.222027778,53.44941667],[5.278083333,53.47138889],[5.292222222,53.47891667],[5.303222222,53.48366667],[5.323305556,53.49008333],[5.339361111,53.49416667],[5.422444444,53.51127778],[5.43025,53.51275],[5.484833333,53.52175],[5.529305556,53.52713889],[5.576666667,53.53080556],[5.645861111,53.53175],[5.681388889,53.53219444],[5.727833333,53.53091667],[5.801027778,53.52888889],[5.859305556,53.52975],[5.917083333,53.53616667],[5.971833333,53.54230556],[5.99475,53.5455],[6.050888889,53.55219444],[6.079388889,53.55969444],[6.106083333,53.56905556],[6.113027778,53.57208333],[6.154138889,53.57191667],[6.240833333,53.57155556],[6.335583333,53.57136111],[6.407694444,53.57116667],[6.414138889,53.57063889],[6.445888889,53.56622222],[6.453944444,53.56463889],[6.458944444,53.56397222],[6.464694444,53.56422222],[6.470694444,53.56427778],[6.481166667,53.56311111],[6.488111111,53.56355556],[6.496444444,53.56311111],[6.506222222,53.56355556],[6.526222222,53.56483333],[6.536444444,53.56569444],[6.553333333,53.56655556],[6.5675,53.56580556],[6.578416667,53.56427778],[6.591972222,53.56172222],[6.594888889,53.56147222],[6.602861111,53.55983333],[6.637027778,53.57641667],[6.645444444,53.57161111],[6.667916667,53.56030556],[6.6735,53.55788889],[6.720027778,53.53786111],[6.749388889,53.5255],[6.790333333,53.50694444],[6.820361111,53.49355556],[6.857444444,53.46883333],[6.873916667,53.46463889],[6.891166667,53.46511111],[6.907472222,53.46152778],[6.915805556,53.45733333],[6.924138889,53.44936111],[6.932027778,53.43852778],[6.945583333,53.40855556],[6.951944444,53.39413889],[6.959416667,53.38588889],[6.9685,53.3775],[6.993388889,53.34897222],[6.994527778,53.34322222],[6.993138889,53.33630556],[6.995277778,53.33211111],[7.005333333,53.32683333],[7.019416667,53.32425],[7.061027778,53.32386111],[7.11125,53.33183333],[7.13725,53.33277778],[7.172194444,53.33327778],[7.187472222,53.33219444],[7.210972222,53.23394444],[7.210472222,53.23269444],[7.2085,53.23188889],[7.207722222,53.23255556],[7.207361111,53.23238889],[7.206694444,53.23394444],[7.197416667,53.23436111],[7.172861111,53.23269444],[7.167555556,53.23594444],[7.143166667,53.23672222],[7.139388889,53.23733333],[7.099055556,53.24944444],[7.097,53.25041667],[7.085916667,53.25422222],[7.071166667,53.26491667],[7.079305556,53.27372222],[7.078722222,53.27788889],[7.084305556,53.28116667],[7.084805556,53.28194444],[7.084972222,53.28286111],[7.083444444,53.28672222],[7.082138889,53.29119444],[7.084027778,53.29847222],[7.084472222,53.29891667],[7.084722222,53.30047222],[7.084388889,53.30119444],[7.083166667,53.30158333],[7.080777778,53.30163889],[7.079833333,53.30222222],[7.078888889,53.30113889],[7.077944444,53.30055556],[7.076388889,53.30036111],[7.075611111,53.30041667],[7.074333333,53.30030556],[7.070138889,53.30047222],[7.068333333,53.29988889],[7.048833333,53.29963889],[7.047888889,53.29963889],[7.046944444,53.29980556],[7.046694444,53.30025],[7.046694444,53.30052778],[7.044805556,53.3015],[7.039666667,53.30247222],[7.037611111,53.30313889],[7.036472222,53.30386111],[7.037861111,53.30466667],[7.0345,53.304],[7.0315,53.30283333],[7.030305556,53.30261111],[7.026527778,53.30258333],[7.009694444,53.30625],[7.012805556,53.31091667],[7.012805556,53.31144444],[7.010388889,53.31575],[7.003777778,53.31727778],[7.000361111,53.31683333],[6.9965,53.31658333],[6.992361111,53.31677778],[6.987722222,53.31738889],[6.984555556,53.31825],[6.981027778,53.31897222],[6.969805556,53.32188889],[6.957361111,53.32363889],[6.956333333,53.32472222],[6.94825,53.32661111],[6.947138889,53.328],[6.947222222,53.32933333],[6.948,53.33052778],[6.949444444,53.32994444],[6.950222222,53.33011111],[6.947916667,53.33116667],[6.946611111,53.33116667],[6.945333333,53.33077778],[6.944555556,53.33036111],[6.943527778,53.33113889],[6.944055556,53.33152778],[6.944722222,53.33158333],[6.944722222,53.33225],[6.943694444,53.33283333],[6.938638889,53.33436111],[6.937944444,53.33441667],[6.936222222,53.33486111],[6.934777778,53.33516667],[6.934,53.33502778],[6.933583333,53.33466667],[6.93075,53.33491667],[6.929361111,53.33605556],[6.926527778,53.33769444],[6.924555556,53.33911111],[6.918805556,53.34225],[6.916333333,53.34316667],[6.9135,53.34444444],[6.911861111,53.34527778],[6.908611111,53.34736111],[6.902166667,53.34736111],[6.900361111,53.35033333],[6.899166667,53.35091667],[6.899666667,53.35177778],[6.898555556,53.35286111],[6.897944444,53.3545],[6.897361111,53.35475],[6.897,53.357],[6.896333333,53.3585],[6.896138889,53.35911111],[6.896583333,53.36166667],[6.895222222,53.36311111],[6.894444444,53.36525],[6.895472222,53.36980556],[6.894361111,53.37027778],[6.893583333,53.37083333],[6.891527778,53.37405556],[6.891777778,53.37555556],[6.889194444,53.37952778],[6.888694444,53.38133333],[6.888694444,53.38333333],[6.8905,53.389],[6.889361111,53.39122222],[6.8885,53.39166667],[6.886805556,53.39213889],[6.88525,53.39213889],[6.88525,53.39347222],[6.887555556,53.39494444],[6.888166667,53.39566667],[6.887472222,53.397],[6.882,53.40186111],[6.881555556,53.40272222],[6.878222222,53.40575],[6.874,53.40783333],[6.875027778,53.42155556],[6.881555556,53.43358333],[6.882083333,53.43341667],[6.881638889,53.43397222],[6.8825,53.43413889],[6.883277778,53.43597222],[6.883277778,53.43883333],[6.881916667,53.43986111],[6.884472222,53.44161111],[6.884472222,53.44261111],[6.883805556,53.44333333],[6.884472222,53.44380556],[6.881388889,53.44461111],[6.879666667,53.44441667],[6.878305556,53.444],[6.877111111,53.44322222],[6.866194444,53.44922222],[6.858305556,53.45244444],[6.843194444,53.45633333],[6.842861111,53.45855556],[6.841138889,53.46122222],[6.835972222,53.46266667],[6.83325,53.46286111],[6.831861111,53.46225],[6.8305,53.46],[6.823972222,53.46122222],[6.815388889,53.46347222],[6.812638889,53.46286111],[6.800277778,53.45530556],[6.797527778,53.45386111],[6.782083333,53.45980556],[6.773833333,53.46205556],[6.753158569,53.46577385],[6.735388889,53.46572222],[6.705861111,53.46305556],[6.687412262,53.46091952],[6.669645309,53.45703566],[6.663036346,53.45494027],[6.638583333,53.44958333],[6.613426208,53.44297925],[6.605972222,53.43852778],[6.573,53.43158333],[6.529054642,53.42416193],[6.522016525,53.42712826],[6.485710144,53.42421308],[6.438083333,53.42072222],[6.43532753,53.41679637],[6.420555556,53.41766667],[6.41163826,53.41694983],[6.393785477,53.41500594],[6.351222222,53.40416667],[6.30625,53.39227778],[6.297998428,53.40016801],[6.293878555,53.4026243],[6.257833333,53.41458333],[6.252508163,53.41556865],[6.246843338,53.41546634],[6.214583333,53.40969444],[6.212861111,53.41172222],[6.202383041,53.41009464],[6.198777778,53.41194444],[6.193277778,53.4105],[6.186075211,53.41372701],[6.18025,53.41480556],[6.176204681,53.41439205],[6.138095856,53.40334069],[6.131916046,53.40165203],[6.099729538,53.40073092],[6.085472222,53.40313889],[6.069,53.40763889],[6.023694444,53.4015],[6.018527778,53.40355556],[5.998972222,53.39966667],[5.9715,53.39288889],[5.968416667,53.39513889],[5.941277778,53.39025],[5.921361111,53.38636111],[5.893222222,53.38144444],[5.883611111,53.39208333],[5.883944444,53.39311111],[5.881555556,53.39555556],[5.878444444,53.39555556],[5.881194444,53.39269444],[5.890805556,53.38163889],[5.889111111,53.38083333],[5.878805556,53.37775],[5.875361111,53.37569444],[5.858194444,53.37119444],[5.857527778,53.37016667],[5.861305556,53.36647222],[5.858888889,53.36608333],[5.851666667,53.36380556],[5.829361111,53.35686111],[5.81571579,53.35331786],[5.805333333,53.34844444],[5.798120499,53.34471026],[5.789794922,53.3416357],[5.786705017,53.33927872],[5.783443451,53.33815093],[5.780944444,53.33491667],[5.772027778,53.33019444],[5.770305556,53.33019444],[5.769972222,53.32816667],[5.763444444,53.32569444],[5.763111111,53.32488889],[5.755555556,53.32055556],[5.752111111,53.32097222],[5.739055556,53.32527778],[5.728083333,53.3255],[5.675555556,53.31913889],[5.647055556,53.31358333],[5.626472222,53.31052778],[5.61925,53.31052778],[5.599333333,53.30458333],[5.587666667,53.30127778],[5.577361111,53.29616667],[5.561222222,53.2865],[5.556083333,53.2785],[5.554027778,53.27438889],[5.540638889,53.26680556],[5.532388889,53.26105556],[5.526222222,53.25675],[5.516583333,53.25408333],[5.515222222,53.25222222],[5.504583333,53.24933333],[5.503194444,53.24872222],[5.49325,53.24422222],[5.488444444,53.24175],[5.483305556,53.24152778],[5.481583333,53.24011111],[5.480888889,53.23844444],[5.471972222,53.23455556],[5.471277778,53.23311111],[5.462,53.22736111],[5.451694444,53.22305556],[5.443472222,53.21544444],[5.436944444,53.20947222],[5.428361111,53.19672222],[5.422527778,53.18541667],[5.41325,53.18336111],[5.411527778,53.18233333],[5.411527778,53.17925],[5.409138889,53.17677778],[5.405694444,53.17697222],[5.403305556,53.17655556],[5.402944444,53.17491667],[5.404333333,53.17327778],[5.407083333,53.17327778],[5.408444444,53.17244444],[5.410166667,53.17038889],[5.411027778,53.16988889],[5.414638889,53.16916667],[5.414972222,53.16833333],[5.416,53.16513889],[5.41275,53.15691667],[5.411194444,53.14619444],[5.409472222,53.13611111],[5.40775,53.12972222],[5.406555556,53.12755556],[5.404833333,53.12188889],[5.400722222,53.11725],[5.395055556,53.11397222],[5.378916667,53.108],[5.379083333,53.10747222],[5.382194444,53.10519444],[5.381666667,53.10272222],[5.381666667,53.10047222],[5.380638889,53.09769444],[5.378583333,53.09522222],[5.367583333,53.08913889],[5.357111111,53.08263889],[5.348888889,53.078],[5.346833333,53.07705556],[5.339277778,53.07530556],[5.336694444,53.07736111],[5.3355,53.07747222],[5.333083333,53.08047222],[5.323305556,53.07933333],[5.323305556,53.0785],[5.325027778,53.07519444],[5.324333333,53.07375],[5.321583333,53.07313889],[5.320388889,53.07233333],[5.299777778,53.06902778],[5.296694444,53.06830556],[5.291027778,53.0655],[5.206222222,53.02125],[5.205194444,53.02186111],[5.205194444,53.02277778],[5.201583333,53.02072222],[5.201416667,53.01905556],[5.199361111,53.01761111],[5.070111111,52.94961111],[5.053972222,52.94102778],[5.049861111,52.94061111],[5.049,52.94113889],[5.048138889,52.94061111],[5.048638889,52.93980556],[5.048805556,52.93886111],[5.048805556,52.93833333],[5.044,52.93616667],[5.041777778,52.93627778],[5.035777778,52.94094444],[5.030444444,52.94288889],[5.028916667,52.94102778],[5.025805556,52.94216667],[5.028388889,52.94011111],[5.027361111,52.93825],[5.025305556,52.93688889],[5.023055556,52.93544444],[5.020833333,52.93494444],[5.012777778,52.93388889],[5.008305556,52.93461111],[5.005222222,52.93597222],[5.002972222,52.93605556],[5.00025,52.93502778],[4.996472222,52.93513889],[4.987361111,52.93183333],[4.980833333,52.93191667],[4.976555556,52.93119444],[4.975,52.93141667],[4.968638889,52.93047222],[4.960083333,52.92644444],[4.9575,52.92447222],[4.957666667,52.92291667],[4.956805556,52.92025],[4.954916667,52.91744444],[4.944277778,52.90886111],[4.939305556,52.90636111],[4.938277778,52.90511111],[4.936027778,52.90522222],[4.935527778,52.90397222],[4.933972222,52.90358333],[4.9175,52.89922222],[4.914916667,52.89713889],[4.910111111,52.89558333],[4.908222222,52.89425],[4.907194444,52.89383333],[4.906333333,52.89352778],[4.9005,52.8925],[4.878027778,52.88825],[4.875777778,52.88825],[4.873388889,52.88844444],[4.871333333,52.88916667],[4.853472222,52.89508333],[4.851055556,52.89683333],[4.849,52.89694444],[4.847805556,52.89777778],[4.846416667,52.89838889],[4.846611111,52.89891667],[4.8485,52.89880556],[4.849166667,52.89838889],[4.849861111,52.89869444],[4.848138889,52.89963889],[4.84625,52.89975],[4.844194444,52.89952778],[4.843166667,52.89911111],[4.833027778,52.90283333],[4.830111111,52.90438889],[4.828222222,52.90480556],[4.814666667,52.90936111],[4.812111111,52.91133333],[4.810388889,52.91133333],[4.809,52.91247222],[4.810555556,52.91205556],[4.812111111,52.91269444],[4.811583333,52.9135],[4.810555556,52.91486111],[4.808333333,52.91588889],[4.805055556,52.91619444],[4.795777778,52.92747222],[4.794416667,52.92986111],[4.794583333,52.93275],[4.793388889,52.93305556],[4.792194444,52.93286111],[4.791666667,52.94094444],[4.792361111,52.94330556],[4.796472222,52.94755556],[4.801194444,52.95266667],[4.803333333,52.95938889],[4.801444444,52.96455556],[4.795361111,52.9645],[4.790972222,52.96316667],[4.784722222,52.96322222],[4.78325,52.96394444],[4.78325,52.9645],[4.783861111,52.96533333],[4.784805556,52.96580556],[4.784361111,52.96622222],[4.78325,52.96563889],[4.78275,52.96477778],[4.781888889,52.96461111],[4.780944444,52.96491667],[4.779305556,52.96336111],[4.778527778,52.96352778],[4.778027778,52.96269444],[4.777583333,52.96297222],[4.777583333,52.96394444],[4.778277778,52.96419444],[4.779555556,52.96497222],[4.778722222,52.96527778],[4.777,52.96522222],[4.7625,52.96538889],[4.755972222,52.96394444],[4.755194444,52.96394444],[4.752111111,52.96419444],[4.748583333,52.96447222],[4.741555556,52.96411111],[4.730305556,52.96263889],[4.722666667,52.95488889],[4.722222222,52.95397222],[4.720694444,52.95277778],[4.572805556,52.95272222],[4.572805556,52.95272222]]]}}]}