{"type":"FeatureCollection","name":"Nabijheid van vliegvelden","source":"Afgeleid uit nl/uas-zones.json, AIP Nederland ENR 5.3, uitgave 22 juli 2024. Cirkels zijn benaderd met 64 punten.","features":[{"type":"Feature","properties":{"identifier":"3.qq","name":"EHAL nabijheid van vliegveld voor bemand luchtverkeer","restriction":"CONDITIONAL","rule":"Vluchten in de OPEN categorie zijn hier niet toegestaan","category":"vliegvelden","source":"AIP Nederland ENR 5.3, ED-269, 22 juli 2024"},"geometry":{"type":"Polygon","coordinates":[[[5.677222,53.478616],[5.681658,53.478486],[5.686051,53.478098],[5.690359,53.477456],[5.694541,53.476565],[5.698555,53.475434],[5.702365,53.474074],[5.705932,53.472499],[5.709222,53.470723],[5.712205,53.468763],[5.71485,53.466639],[5.717134,53.464371],[5.719033,53.46198],[5.720529,53.45949],[5.721608,53.456924],[5.722259,53.454308],[5.722477,53.451667],[5.722259,53.449025],[5.721608,53.446409],[5.720529,53.443844],[5.719033,53.441354],[5.717134,53.438963],[5.71485,53.436694],[5.712205,53.43457],[5.709222,53.432611],[5.705932,53.430834],[5.702365,53.429259],[5.698555,53.427899],[5.694541,53.426769],[5.690359,53.425878],[5.686051,53.425235],[5.681658,53.424847],[5.677222,53.424717],[5.672786,53.424847],[5.668393,53.425235],[5.664085,53.425878],[5.659904,53.426769],[5.655889,53.427899],[5.65208,53.429259],[5.648513,53.430834],[5.645222,53.432611],[5.64224,53.43457],[5.639594,53.436694],[5.637311,53.438963],[5.635412,53.441354],[5.633916,53.443844],[5.632837,53.446409],[5.632185,53.449025],[5.631967,53.451667],[5.632185,53.454308],[5.632837,53.456924],[5.633916,53.45949],[5.635412,53.46198],[5.637311,53.464371],[5.639594,53.466639],[5.64224,53.468763],[5.645222,53.470723],[5.648513,53.472499],[5.65208,53.474074],[5.655889,53.475434],[5.659904,53.476565],[5.664085,53.477456],[5.668393,53.478098],[5.672786,53.478486],[5.677222,53.478616]]]}},{"type":"Feature","properties":{"identifier":"3.rr","name":"EHBD nabijheid van vliegveld voor bemand luchtverkeer","restriction":"CONDITIONAL","rule":"Vluchten in de OPEN categorie zijn hier niet toegestaan","category":"vliegvelden","source":"AIP Nederland ENR 5.3, ED-269, 22 juli 2024"},"geometry":{"type":"Polygon","coordinates":[[[5.600833,51.281394],[5.605054,51.281264],[5.609234,51.280876],[5.613333,51.280233],[5.617312,51.279342],[5.621132,51.278212],[5.624756,51.276852],[5.62815,51.275277],[5.631281,51.273501],[5.634119,51.271541],[5.636636,51.269417],[5.638809,51.267148],[5.640615,51.264758],[5.642039,51.262267],[5.643066,51.259702],[5.643686,51.257086],[5.643893,51.254444],[5.643686,51.251803],[5.643066,51.249187],[5.642039,51.246621],[5.640615,51.244131],[5.638809,51.241741],[5.636636,51.239472],[5.634119,51.237348],[5.631281,51.235388],[5.62815,51.233612],[5.624756,51.232037],[5.621132,51.230677],[5.617312,51.229546],[5.613333,51.228655],[5.609234,51.228013],[5.605054,51.227625],[5.600833,51.227495],[5.596613,51.227625],[5.592433,51.228013],[5.588334,51.228655],[5.584355,51.229546],[5.580535,51.230677],[5.576911,51.232037],[5.573517,51.233612],[5.570386,51.235388],[5.567548,51.237348],[5.565031,51.239472],[5.562858,51.241741],[5.561051,51.244131],[5.559628,51.246621],[5.558601,51.249187],[5.557981,51.251803],[5.557774,51.254444],[5.557981,51.257086],[5.558601,51.259702],[5.559628,51.262267],[5.561051,51.264758],[5.562858,51.267148],[5.565031,51.269417],[5.567548,51.271541],[5.570386,51.273501],[5.573517,51.275277],[5.576911,51.276852],[5.580535,51.278212],[5.584355,51.279342],[5.588334,51.280233],[5.592433,51.280876],[5.596613,51.281264],[5.600833,51.281394]]]}},{"type":"Feature","properties":{"identifier":"3.ss","name":"EHDR nabijheid van vliegveld voor bemand luchtverkeer","restriction":"CONDITIONAL","rule":"Vluchten in de OPEN categorie zijn hier niet toegestaan","category":"vliegvelden","source":"AIP Nederland ENR 5.3, ED-269, 22 juli 2024"},"geometry":{"type":"Polygon","coordinates":[[[6.129167,53.145005],[6.133568,53.144875],[6.137927,53.144487],[6.142201,53.143845],[6.14635,53.142954],[6.150334,53.141823],[6.154114,53.140463],[6.157653,53.138888],[6.160918,53.137112],[6.163877,53.135152],[6.166502,53.133028],[6.168768,53.130759],[6.170652,53.128369],[6.172136,53.125879],[6.173207,53.123313],[6.173854,53.120697],[6.17407,53.118056],[6.173854,53.115414],[6.173207,53.112798],[6.172136,53.110233],[6.170652,53.107742],[6.168768,53.105352],[6.166502,53.103083],[6.163877,53.100959],[6.160918,53.098999],[6.157653,53.097223],[6.154114,53.095648],[6.150334,53.094288],[6.14635,53.093158],[6.142201,53.092267],[6.137927,53.091624],[6.133568,53.091236],[6.129167,53.091106],[6.124765,53.091236],[6.120406,53.091624],[6.116132,53.092267],[6.111983,53.093158],[6.107999,53.094288],[6.10422,53.095648],[6.10068,53.097223],[6.097415,53.098999],[6.094456,53.100959],[6.091831,53.103083],[6.089566,53.105352],[6.087682,53.107742],[6.086197,53.110233],[6.085126,53.112798],[6.08448,53.115414],[6.084263,53.118056],[6.08448,53.120697],[6.085126,53.123313],[6.086197,53.125879],[6.087682,53.128369],[6.089566,53.130759],[6.091831,53.133028],[6.094456,53.135152],[6.097415,53.137112],[6.10068,53.138888],[6.10422,53.140463],[6.107999,53.141823],[6.111983,53.142954],[6.116132,53.143845],[6.120406,53.144487],[6.124765,53.144875],[6.129167,53.145005]]]}},{"type":"Feature","properties":{"identifier":"3.tt","name":"EHHO nabijheid van vliegveld voor bemand luchtverkeer","restriction":"CONDITIONAL","rule":"Vluchten in de OPEN categorie zijn hier niet toegestaan","category":"vliegvelden","source":"AIP Nederland ENR 5.3, ED-269, 22 juli 2024"},"geometry":{"type":"Polygon","coordinates":[[[6.516111,52.757783],[6.520473,52.757653],[6.524793,52.757265],[6.52903,52.756622],[6.533142,52.755731],[6.53709,52.754601],[6.540836,52.753241],[6.544344,52.751666],[6.54758,52.749889],[6.550513,52.74793],[6.553114,52.745806],[6.55536,52.743537],[6.557227,52.741146],[6.558698,52.738656],[6.559759,52.736091],[6.5604,52.733475],[6.560614,52.730833],[6.5604,52.728192],[6.559759,52.725576],[6.558698,52.72301],[6.557227,52.72052],[6.55536,52.718129],[6.553114,52.715861],[6.550513,52.713737],[6.54758,52.711777],[6.544344,52.710001],[6.540836,52.708426],[6.53709,52.707066],[6.533142,52.705935],[6.52903,52.705044],[6.524793,52.704402],[6.520473,52.704014],[6.516111,52.703884],[6.511749,52.704014],[6.507429,52.704402],[6.503192,52.705044],[6.49908,52.705935],[6.495132,52.707066],[6.491386,52.708426],[6.487878,52.710001],[6.484642,52.711777],[6.48171,52.713737],[6.479108,52.715861],[6.476863,52.718129],[6.474995,52.72052],[6.473524,52.72301],[6.472463,52.725576],[6.471822,52.728192],[6.471608,52.730833],[6.471822,52.733475],[6.472463,52.736091],[6.473524,52.738656],[6.474995,52.741146],[6.476863,52.743537],[6.479108,52.745806],[6.48171,52.74793],[6.484642,52.749889],[6.487878,52.751666],[6.491386,52.753241],[6.495132,52.754601],[6.49908,52.755731],[6.503192,52.756622],[6.507429,52.757265],[6.511749,52.757653],[6.516111,52.757783]]]}},{"type":"Feature","properties":{"identifier":"3.uu","name":"EHHV nabijheid van vliegveld voor bemand luchtverkeer","restriction":"CONDITIONAL","rule":"Vluchten in de OPEN categorie zijn hier niet toegestaan","category":"vliegvelden","source":"AIP Nederland ENR 5.3, ED-269, 22 juli 2024"},"geometry":{"type":"Polygon","coordinates":[[[5.146944,52.218894],[5.151253,52.218764],[5.155521,52.218376],[5.159706,52.217733],[5.163768,52.216842],[5.167668,52.215712],[5.171368,52.214352],[5.174834,52.212777],[5.17803,52.211001],[5.180927,52.209041],[5.183497,52.206917],[5.185715,52.204648],[5.18756,52.202258],[5.189013,52.199767],[5.190062,52.197202],[5.190695,52.194586],[5.190906,52.191944],[5.190695,52.189303],[5.190062,52.186687],[5.189013,52.184121],[5.18756,52.181631],[5.185715,52.179241],[5.183497,52.176972],[5.180927,52.174848],[5.17803,52.172888],[5.174834,52.171112],[5.171368,52.169537],[5.167668,52.168177],[5.163768,52.167046],[5.159706,52.166155],[5.155521,52.165513],[5.151253,52.165125],[5.146944,52.164995],[5.142635,52.165125],[5.138368,52.165513],[5.134183,52.166155],[5.130121,52.167046],[5.126221,52.168177],[5.122521,52.169537],[5.119055,52.171112],[5.115859,52.172888],[5.112961,52.174848],[5.110391,52.176972],[5.108173,52.179241],[5.106329,52.181631],[5.104876,52.184121],[5.103827,52.186687],[5.103194,52.189303],[5.102983,52.191944],[5.103194,52.194586],[5.103827,52.197202],[5.104876,52.199767],[5.106329,52.202258],[5.108173,52.204648],[5.110391,52.206917],[5.112961,52.209041],[5.115859,52.211001],[5.119055,52.212777],[5.122521,52.214352],[5.126221,52.215712],[5.130121,52.216842],[5.134183,52.217733],[5.138368,52.218376],[5.142635,52.218764],[5.146944,52.218894]]]}},{"type":"Feature","properties":{"identifier":"3.vv","name":"EHMZ nabijheid van vliegveld voor bemand luchtverkeer","restriction":"CONDITIONAL","rule":"Vluchten in de OPEN categorie zijn hier niet toegestaan","category":"vliegvelden","source":"AIP Nederland ENR 5.3, ED-269, 22 juli 2024"},"geometry":{"type":"Polygon","coordinates":[[[3.731111,51.539172],[3.735356,51.539042],[3.739559,51.538654],[3.743681,51.538011],[3.747682,51.53712],[3.751524,51.53599],[3.755169,51.53463],[3.758582,51.533054],[3.761731,51.531278],[3.764585,51.529319],[3.767116,51.527195],[3.769301,51.524926],[3.771118,51.522535],[3.772549,51.520045],[3.773582,51.51748],[3.774205,51.514864],[3.774414,51.512222],[3.774205,51.509581],[3.773582,51.506965],[3.772549,51.504399],[3.771118,51.501909],[3.769301,51.499518],[3.767116,51.49725],[3.764585,51.495126],[3.761731,51.493166],[3.758582,51.49139],[3.755169,51.489815],[3.751524,51.488455],[3.747682,51.487324],[3.743681,51.486433],[3.739559,51.485791],[3.735356,51.485403],[3.731111,51.485273],[3.726867,51.485403],[3.722663,51.485791],[3.718541,51.486433],[3.71454,51.487324],[3.710698,51.488455],[3.707053,51.489815],[3.70364,51.49139],[3.700491,51.493166],[3.697638,51.495126],[3.695106,51.49725],[3.692921,51.499518],[3.691104,51.501909],[3.689673,51.504399],[3.68864,51.506965],[3.688017,51.509581],[3.687808,51.512222],[3.688017,51.514864],[3.68864,51.51748],[3.689673,51.520045],[3.691104,51.522535],[3.692921,51.524926],[3.695106,51.527195],[3.697638,51.529319],[3.700491,51.531278],[3.70364,51.533054],[3.707053,51.53463],[3.710698,51.53599],[3.71454,51.53712],[3.718541,51.538011],[3.722663,51.538654],[3.726867,51.539042],[3.731111,51.539172]]]}},{"type":"Feature","properties":{"identifier":"3.ww","name":"EHOW nabijheid van vliegveld voor bemand luchtverkeer","restriction":"CONDITIONAL","rule":"Vluchten in de OPEN categorie zijn hier niet toegestaan","category":"vliegvelden","source":"AIP Nederland ENR 5.3, ED-269, 22 juli 2024"},"geometry":{"type":"Polygon","coordinates":[[[7.032778,53.235561],[7.037188,53.235431],[7.041556,53.235043],[7.04584,53.2344],[7.049998,53.233509],[7.05399,53.232378],[7.057777,53.231019],[7.061324,53.229443],[7.064596,53.227667],[7.067562,53.225708],[7.070192,53.223583],[7.072462,53.221315],[7.074351,53.218924],[7.075838,53.216434],[7.076911,53.213869],[7.077559,53.211253],[7.077776,53.208611],[7.077559,53.20597],[7.076911,53.203354],[7.075838,53.200788],[7.074351,53.198298],[7.072462,53.195907],[7.070192,53.193639],[7.067562,53.191515],[7.064596,53.189555],[7.061324,53.187779],[7.057777,53.186203],[7.05399,53.184844],[7.049998,53.183713],[7.04584,53.182822],[7.041556,53.182179],[7.037188,53.181791],[7.032778,53.181662],[7.028367,53.181791],[7.023999,53.182179],[7.019716,53.182822],[7.015558,53.183713],[7.011566,53.184844],[7.007778,53.186203],[7.004231,53.187779],[7.000959,53.189555],[6.997994,53.191515],[6.995363,53.193639],[6.993093,53.195907],[6.991205,53.198298],[6.989717,53.200788],[6.988644,53.203354],[6.987996,53.20597],[6.98778,53.208611],[6.987996,53.211253],[6.988644,53.213869],[6.989717,53.216434],[6.991205,53.218924],[6.993093,53.221315],[6.995363,53.223583],[6.997994,53.225708],[7.000959,53.227667],[7.004231,53.229443],[7.007778,53.231019],[7.011566,53.232378],[7.015558,53.233509],[7.019716,53.2344],[7.023999,53.235043],[7.028367,53.235431],[7.032778,53.235561]]]}},{"type":"Feature","properties":{"identifier":"3.xx","name":"EHSE nabijheid van vliegveld voor bemand luchtverkeer","restriction":"CONDITIONAL","rule":"Vluchten in de OPEN categorie zijn hier niet toegestaan","category":"vliegvelden","source":"AIP Nederland ENR 5.3, ED-269, 22 juli 2024"},"geometry":{"type":"Polygon","coordinates":[[[4.5525,51.581672],[4.556748,51.581542],[4.560956,51.581154],[4.565082,51.580511],[4.569087,51.57962],[4.572932,51.57849],[4.57658,51.57713],[4.579997,51.575554],[4.583148,51.573778],[4.586005,51.571819],[4.588539,51.569695],[4.590725,51.567426],[4.592544,51.565035],[4.593977,51.562545],[4.595011,51.55998],[4.595635,51.557364],[4.595843,51.554722],[4.595635,51.552081],[4.595011,51.549465],[4.593977,51.546899],[4.592544,51.544409],[4.590725,51.542018],[4.588539,51.53975],[4.586005,51.537626],[4.583148,51.535666],[4.579997,51.53389],[4.57658,51.532315],[4.572932,51.530955],[4.569087,51.529824],[4.565082,51.528933],[4.560956,51.528291],[4.556748,51.527903],[4.5525,51.527773],[4.548252,51.527903],[4.544044,51.528291],[4.539918,51.528933],[4.535913,51.529824],[4.532068,51.530955],[4.52842,51.532315],[4.525003,51.53389],[4.521852,51.535666],[4.518995,51.537626],[4.516461,51.53975],[4.514275,51.542018],[4.512456,51.544409],[4.511023,51.546899],[4.509989,51.549465],[4.509365,51.552081],[4.509157,51.554722],[4.509365,51.557364],[4.509989,51.55998],[4.511023,51.562545],[4.512456,51.565035],[4.514275,51.567426],[4.516461,51.569695],[4.518995,51.571819],[4.521852,51.573778],[4.525003,51.575554],[4.52842,51.57713],[4.532068,51.57849],[4.535913,51.57962],[4.539918,51.580511],[4.544044,51.581154],[4.548252,51.581542],[4.5525,51.581672]]]}},{"type":"Feature","properties":{"identifier":"3.yy","name":"EHST nabijheid van vliegveld voor bemand luchtverkeer","restriction":"CONDITIONAL","rule":"Vluchten in de OPEN categorie zijn hier niet toegestaan","category":"vliegvelden","source":"AIP Nederland ENR 5.3, ED-269, 22 juli 2024"},"geometry":{"type":"Polygon","coordinates":[[[7.022778,53.025561],[7.027167,53.025431],[7.031514,53.025043],[7.035776,53.0244],[7.039914,53.023509],[7.043886,53.022378],[7.047656,53.021019],[7.051185,53.019443],[7.054441,53.017667],[7.057392,53.015708],[7.06001,53.013583],[7.062269,53.011315],[7.064148,53.008924],[7.065628,53.006434],[7.066696,53.003869],[7.067341,53.001253],[7.067557,52.998611],[7.067341,52.99597],[7.066696,52.993354],[7.065628,52.990788],[7.064148,52.988298],[7.062269,52.985907],[7.06001,52.983639],[7.057392,52.981515],[7.054441,52.979555],[7.051185,52.977779],[7.047656,52.976203],[7.043886,52.974844],[7.039914,52.973713],[7.035776,52.972822],[7.031514,52.972179],[7.027167,52.971791],[7.022778,52.971662],[7.018389,52.971791],[7.014042,52.972179],[7.009779,52.972822],[7.005642,52.973713],[7.001669,52.974844],[6.9979,52.976203],[6.99437,52.977779],[6.991114,52.979555],[6.988163,52.981515],[6.985546,52.983639],[6.983286,52.985907],[6.981408,52.988298],[6.979927,52.990788],[6.978859,52.993354],[6.978215,52.99597],[6.977999,52.998611],[6.978215,53.001253],[6.978859,53.003869],[6.979927,53.006434],[6.981408,53.008924],[6.983286,53.011315],[6.985546,53.013583],[6.988163,53.015708],[6.991114,53.017667],[6.99437,53.019443],[6.9979,53.021019],[7.001669,53.022378],[7.005642,53.023509],[7.009779,53.0244],[7.014042,53.025043],[7.018389,53.025431],[7.022778,53.025561]]]}},{"type":"Feature","properties":{"identifier":"3.zz","name":"EHTE nabijheid van vliegveld voor bemand luchtverkeer","restriction":"CONDITIONAL","rule":"Vluchten in de OPEN categorie zijn hier niet toegestaan","category":"vliegvelden","source":"AIP Nederland ENR 5.3, ED-269, 22 juli 2024"},"geometry":{"type":"Polygon","coordinates":[[[6.046667,52.271672],[6.050981,52.271542],[6.055253,52.271154],[6.059443,52.270511],[6.06351,52.26962],[6.067415,52.26849],[6.07112,52.26713],[6.074589,52.265554],[6.077789,52.263778],[6.08069,52.261819],[6.083263,52.259695],[6.085484,52.257426],[6.08733,52.255035],[6.088786,52.252545],[6.089835,52.24998],[6.090469,52.247364],[6.090681,52.244722],[6.090469,52.242081],[6.089835,52.239465],[6.088786,52.236899],[6.08733,52.234409],[6.085484,52.232018],[6.083263,52.22975],[6.08069,52.227626],[6.077789,52.225666],[6.074589,52.22389],[6.07112,52.222315],[6.067415,52.220955],[6.06351,52.219824],[6.059443,52.218933],[6.055253,52.218291],[6.050981,52.217903],[6.046667,52.217773],[6.042353,52.217903],[6.03808,52.218291],[6.03389,52.218933],[6.029823,52.219824],[6.025919,52.220955],[6.022214,52.222315],[6.018744,52.22389],[6.015544,52.225666],[6.012643,52.227626],[6.01007,52.22975],[6.00785,52.232018],[6.006003,52.234409],[6.004548,52.236899],[6.003498,52.239465],[6.002864,52.242081],[6.002652,52.244722],[6.002864,52.247364],[6.003498,52.24998],[6.004548,52.252545],[6.006003,52.255035],[6.00785,52.257426],[6.01007,52.259695],[6.012643,52.261819],[6.015544,52.263778],[6.018744,52.265554],[6.022214,52.26713],[6.025919,52.26849],[6.029823,52.26962],[6.03389,52.270511],[6.03808,52.271154],[6.042353,52.271542],[6.046667,52.271672]]]}},{"type":"Feature","properties":{"identifier":"3.aaa","name":"EHTL nabijheid van vliegveld voor bemand luchtverkeer","restriction":"CONDITIONAL","rule":"Vluchten in de OPEN categorie zijn hier niet toegestaan","category":"vliegvelden","source":"AIP Nederland ENR 5.3, ED-269, 22 juli 2024"},"geometry":{"type":"Polygon","coordinates":[[[5.924444,52.084172],[5.92874,52.084042],[5.932995,52.083654],[5.937167,52.083011],[5.941217,52.08212],[5.945105,52.08099],[5.948795,52.07963],[5.952249,52.078054],[5.955436,52.076278],[5.958325,52.074319],[5.960887,52.072195],[5.963098,52.069926],[5.964937,52.067535],[5.966386,52.065045],[5.967432,52.06248],[5.968063,52.059864],[5.968274,52.057222],[5.968063,52.054581],[5.967432,52.051965],[5.966386,52.049399],[5.964937,52.046909],[5.963098,52.044518],[5.960887,52.04225],[5.958325,52.040126],[5.955436,52.038166],[5.952249,52.03639],[5.948795,52.034815],[5.945105,52.033455],[5.941217,52.032324],[5.937167,52.031433],[5.932995,52.030791],[5.92874,52.030403],[5.924444,52.030273],[5.920148,52.030403],[5.915894,52.030791],[5.911721,52.031433],[5.907672,52.032324],[5.903783,52.033455],[5.900094,52.034815],[5.896639,52.03639],[5.893453,52.038166],[5.890564,52.040126],[5.888002,52.04225],[5.885791,52.044518],[5.883952,52.046909],[5.882502,52.049399],[5.881457,52.051965],[5.880826,52.054581],[5.880615,52.057222],[5.880826,52.059864],[5.881457,52.06248],[5.882502,52.065045],[5.883952,52.067535],[5.885791,52.069926],[5.888002,52.072195],[5.890564,52.074319],[5.893453,52.076278],[5.896639,52.078054],[5.900094,52.07963],[5.903783,52.08099],[5.907672,52.08212],[5.911721,52.083011],[5.915894,52.083654],[5.920148,52.084042],[5.924444,52.084172]]]}},{"type":"Feature","properties":{"identifier":"3.bbb","name":"EHTW nabijheid van vliegveld voor bemand luchtverkeer","restriction":"CONDITIONAL","rule":"Vluchten in de OPEN categorie zijn hier niet toegestaan","category":"vliegvelden","source":"AIP Nederland ENR 5.3, ED-269, 22 juli 2024"},"geometry":{"type":"Polygon","coordinates":[[[6.889167,52.302783],[6.893484,52.302653],[6.897759,52.302265],[6.901952,52.301622],[6.906022,52.300731],[6.909929,52.299601],[6.913637,52.298241],[6.917109,52.296666],[6.920311,52.294889],[6.923214,52.29293],[6.925789,52.290806],[6.928011,52.288537],[6.929859,52.286146],[6.931315,52.283656],[6.932365,52.281091],[6.933,52.278475],[6.933212,52.275833],[6.933,52.273192],[6.932365,52.270576],[6.931315,52.26801],[6.929859,52.26552],[6.928011,52.263129],[6.925789,52.260861],[6.923214,52.258737],[6.920311,52.256777],[6.917109,52.255001],[6.913637,52.253426],[6.909929,52.252066],[6.906022,52.250935],[6.901952,52.250044],[6.897759,52.249402],[6.893484,52.249014],[6.889167,52.248884],[6.884849,52.249014],[6.880574,52.249402],[6.876381,52.250044],[6.872311,52.250935],[6.868404,52.252066],[6.864697,52.253426],[6.861225,52.255001],[6.858022,52.256777],[6.855119,52.258737],[6.852545,52.260861],[6.850322,52.263129],[6.848474,52.26552],[6.847018,52.26801],[6.845968,52.270576],[6.845334,52.273192],[6.845122,52.275833],[6.845334,52.278475],[6.845968,52.281091],[6.847018,52.283656],[6.848474,52.286146],[6.850322,52.288537],[6.852545,52.290806],[6.855119,52.29293],[6.858022,52.294889],[6.861225,52.296666],[6.864697,52.298241],[6.868404,52.299601],[6.872311,52.300731],[6.876381,52.301622],[6.880574,52.302265],[6.884849,52.302653],[6.889167,52.302783]]]}},{"type":"Feature","properties":{"identifier":"3.ccc","name":"EHTX nabijheid van vliegveld voor bemand luchtverkeer","restriction":"CONDITIONAL","rule":"Vluchten in de OPEN categorie zijn hier niet toegestaan","category":"vliegvelden","source":"AIP Nederland ENR 5.3, ED-269, 22 juli 2024"},"geometry":{"type":"Polygon","coordinates":[[[4.833611,53.142227],[4.838012,53.142097],[4.842371,53.141709],[4.846645,53.141067],[4.850794,53.140176],[4.854777,53.139045],[4.858556,53.137685],[4.862096,53.13611],[4.86536,53.134334],[4.868319,53.132374],[4.870944,53.13025],[4.87321,53.127982],[4.875094,53.125591],[4.876578,53.123101],[4.877649,53.120535],[4.878295,53.117919],[4.878511,53.115278],[4.878295,53.112636],[4.877649,53.11002],[4.876578,53.107455],[4.875094,53.104965],[4.87321,53.102574],[4.870944,53.100305],[4.868319,53.098181],[4.86536,53.096222],[4.862096,53.094446],[4.858556,53.09287],[4.854777,53.09151],[4.850794,53.09038],[4.846645,53.089489],[4.842371,53.088846],[4.838012,53.088458],[4.833611,53.088328],[4.82921,53.088458],[4.824852,53.088846],[4.820577,53.089489],[4.816429,53.09038],[4.812445,53.09151],[4.808666,53.09287],[4.805127,53.094446],[4.801862,53.096222],[4.798903,53.098181],[4.796278,53.100305],[4.794013,53.102574],[4.792129,53.104965],[4.790644,53.107455],[4.789574,53.11002],[4.788927,53.112636],[4.788711,53.115278],[4.788927,53.117919],[4.789574,53.120535],[4.790644,53.123101],[4.792129,53.125591],[4.794013,53.127982],[4.796278,53.13025],[4.798903,53.132374],[4.801862,53.134334],[4.805127,53.13611],[4.808666,53.137685],[4.812445,53.139045],[4.816429,53.140176],[4.820577,53.141067],[4.824852,53.141709],[4.82921,53.142097],[4.833611,53.142227]]]}},{"type":"Feature","properties":{"identifier":"3.nn","name":"EHHA nabijheid van vliegveld voor bemand luchtverkeer","restriction":"CONDITIONAL","rule":"Vluchten in de OPEN categorie zijn hier niet toegestaan","category":"vliegvelden","source":"AIP Nederland ENR 5.3, ED-269, 22 juli 2024"},"geometry":{"type":"Polygon","coordinates":[[[4.804167,52.424113],[4.805899,52.424061],[4.807614,52.423906],[4.809297,52.423649],[4.81093,52.423293],[4.812498,52.42284],[4.813985,52.422296],[4.815378,52.421666],[4.816663,52.420956],[4.817828,52.420172],[4.818861,52.419322],[4.819753,52.418415],[4.820494,52.417459],[4.821079,52.416463],[4.8215,52.415436],[4.821754,52.41439],[4.82184,52.413333],[4.821754,52.412277],[4.8215,52.41123],[4.821079,52.410204],[4.820494,52.409208],[4.819753,52.408252],[4.818861,52.407344],[4.817828,52.406495],[4.816663,52.405711],[4.815378,52.405],[4.813985,52.40437],[4.812498,52.403826],[4.81093,52.403374],[4.809297,52.403018],[4.807614,52.402761],[4.805899,52.402605],[4.804167,52.402554],[4.802434,52.402605],[4.800719,52.402761],[4.799036,52.403018],[4.797404,52.403374],[4.795836,52.403826],[4.794348,52.40437],[4.792955,52.405],[4.79167,52.405711],[4.790505,52.406495],[4.789472,52.407344],[4.788581,52.408252],[4.787839,52.409208],[4.787255,52.410204],[4.786833,52.41123],[4.786579,52.412277],[4.786494,52.413333],[4.786579,52.41439],[4.786833,52.415436],[4.787255,52.416463],[4.787839,52.417459],[4.788581,52.418415],[4.789472,52.419322],[4.790505,52.420172],[4.79167,52.420956],[4.792955,52.421666],[4.794348,52.422296],[4.795836,52.42284],[4.797404,52.423293],[4.799036,52.423649],[4.800719,52.423906],[4.802434,52.424061],[4.804167,52.424113]]]}},{"type":"Feature","properties":{"identifier":"3.oo","name":"EHHE nabijheid van vliegveld voor bemand luchtverkeer","restriction":"CONDITIONAL","rule":"Vluchten in de OPEN categorie zijn hier niet toegestaan","category":"vliegvelden","source":"AIP Nederland ENR 5.3, ED-269, 22 juli 2024"},"geometry":{"type":"Polygon","coordinates":[[[6.814444,53.471613],[6.816219,53.471561],[6.817977,53.471406],[6.8197,53.471149],[6.821373,53.470793],[6.82298,53.47034],[6.824504,53.469796],[6.825931,53.469166],[6.827247,53.468456],[6.828441,53.467672],[6.829499,53.466822],[6.830412,53.465915],[6.831172,53.464959],[6.831771,53.463963],[6.832203,53.462936],[6.832463,53.46189],[6.83255,53.460833],[6.832463,53.459777],[6.832203,53.45873],[6.831771,53.457704],[6.831172,53.456708],[6.830412,53.455752],[6.829499,53.454844],[6.828441,53.453995],[6.827247,53.453211],[6.825931,53.4525],[6.824504,53.45187],[6.82298,53.451326],[6.821373,53.450874],[6.8197,53.450518],[6.817977,53.450261],[6.816219,53.450105],[6.814444,53.450054],[6.81267,53.450105],[6.810912,53.450261],[6.809189,53.450518],[6.807516,53.450874],[6.805909,53.451326],[6.804385,53.45187],[6.802958,53.4525],[6.801642,53.453211],[6.800448,53.453995],[6.79939,53.454844],[6.798476,53.455752],[6.797717,53.456708],[6.797118,53.457704],[6.796686,53.45873],[6.796426,53.459777],[6.796338,53.460833],[6.796426,53.46189],[6.796686,53.462936],[6.797118,53.463963],[6.797717,53.464959],[6.798476,53.465915],[6.79939,53.466822],[6.800448,53.467672],[6.801642,53.468456],[6.802958,53.469166],[6.804385,53.469796],[6.805909,53.47034],[6.807516,53.470793],[6.809189,53.471149],[6.810912,53.471406],[6.81267,53.471561],[6.814444,53.471613]]]}},{"type":"Feature","properties":{"identifier":"3.pp","name":"EHYP nabijheid van vliegveld voor bemand luchtverkeer","restriction":"CONDITIONAL","rule":"Vluchten in de OPEN categorie zijn hier niet toegestaan","category":"vliegvelden","source":"AIP Nederland ENR 5.3, ED-269, 22 juli 2024"},"geometry":{"type":"Polygon","coordinates":[[[4.593361,52.480669],[4.595096,52.480617],[4.596813,52.480462],[4.598498,52.480204],[4.600133,52.479848],[4.601703,52.479396],[4.603192,52.478852],[4.604587,52.478222],[4.605874,52.477511],[4.60704,52.476728],[4.608074,52.475878],[4.608967,52.47497],[4.60971,52.474014],[4.610295,52.473018],[4.610717,52.471992],[4.610972,52.470945],[4.611057,52.469889],[4.610972,52.468832],[4.610717,52.467786],[4.610295,52.46676],[4.60971,52.465764],[4.608967,52.464807],[4.608074,52.4639],[4.60704,52.46305],[4.605874,52.462266],[4.604587,52.461556],[4.603192,52.460926],[4.601703,52.460382],[4.600133,52.45993],[4.598498,52.459573],[4.596813,52.459316],[4.595096,52.459161],[4.593361,52.459109],[4.591627,52.459161],[4.589909,52.459316],[4.588224,52.459573],[4.586589,52.45993],[4.585019,52.460382],[4.58353,52.460926],[4.582135,52.461556],[4.580848,52.462266],[4.579682,52.46305],[4.578648,52.4639],[4.577755,52.464807],[4.577012,52.465764],[4.576427,52.46676],[4.576006,52.467786],[4.575751,52.468832],[4.575665,52.469889],[4.575751,52.470945],[4.576006,52.471992],[4.576427,52.473018],[4.577012,52.474014],[4.577755,52.47497],[4.578648,52.475878],[4.579682,52.476728],[4.580848,52.477511],[4.582135,52.478222],[4.58353,52.478852],[4.585019,52.479396],[4.586589,52.479848],[4.588224,52.480204],[4.589909,52.480462],[4.591627,52.480617],[4.593361,52.480669]]]}},{"type":"Feature","properties":{"identifier":"7.1","name":"Nabijheid van vliegveld voor bemand luchtverkeer EHAM SCHIPHOL CTR 1","restriction":"CONDITIONAL","rule":"OPEN cat. vluchten zijn hier verboden SPEC cat. vluchten vereisen een privilege op de exploitatievergunning","category":"vliegvelden","source":"AIP Nederland ENR 5.3, ED-269, 22 juli 2024"},"geometry":{"type":"Polygon","coordinates":[[[4.63472222222222,52.415],[4.64,52.4725],[4.80333333333333,52.4669444444444],[4.80083333333333,52.4391666666667],[4.63472222222222,52.415]]]}},{"type":"Feature","properties":{"identifier":"7.2","name":"Nabijheid van vliegveld voor bemand luchtverkeer EHAM SCHIPHOL CTR 1","restriction":"CONDITIONAL","rule":"OPEN cat. vluchten zijn hier verboden SPEC cat. vluchten vereisen een privilege op de exploitatievergunning","category":"vliegvelden","source":"AIP Nederland ENR 5.3, ED-269, 22 juli 2024"},"geometry":{"type":"Polygon","coordinates":[[[4.764167,52.44115],[4.785503,52.440509],[4.806634,52.438593],[4.827357,52.435419],[4.84747,52.431019],[4.866781,52.425434],[4.885104,52.418719],[4.902263,52.410939],[4.918091,52.402168],[4.932437,52.39249],[4.945163,52.381999],[4.956145,52.370796],[4.965279,52.358989],[4.972476,52.346691],[4.977666,52.334021],[4.980801,52.321101],[4.981849,52.308056],[4.980801,52.29501],[4.977666,52.28209],[4.972476,52.26942],[4.965279,52.257123],[4.956145,52.245315],[4.945163,52.234112],[4.932437,52.223621],[4.918091,52.213944],[4.902263,52.205172],[4.885104,52.197392],[4.866781,52.190677],[4.84747,52.185092],[4.827357,52.180692],[4.806634,52.177519],[4.785503,52.175602],[4.764167,52.174961],[4.74283,52.175602],[4.721699,52.177519],[4.700977,52.180692],[4.680863,52.185092],[4.661552,52.190677],[4.643229,52.197392],[4.62607,52.205172],[4.610242,52.213944],[4.595896,52.223621],[4.58317,52.234112],[4.572188,52.245315],[4.563054,52.257123],[4.555858,52.26942],[4.550667,52.28209],[4.547533,52.29501],[4.546484,52.308056],[4.547533,52.321101],[4.550667,52.334021],[4.555858,52.346691],[4.563054,52.358989],[4.572188,52.370796],[4.58317,52.381999],[4.595896,52.39249],[4.610242,52.402168],[4.62607,52.410939],[4.643229,52.418719],[4.661552,52.425434],[4.680863,52.431019],[4.700977,52.435419],[4.721699,52.438593],[4.74283,52.440509],[4.764167,52.44115]]]}},{"type":"Feature","properties":{"identifier":"7.3","name":"Nabijheid van vliegveld voor bemand luchtverkeer EHKD DE KOOY CTR","restriction":"CONDITIONAL","rule":"OPEN cat. vluchten zijn hier verboden SPEC cat. vluchten vereisen een privilege op de exploitatievergunning","category":"vliegvelden","source":"AIP Nederland ENR 5.3, ED-269, 22 juli 2024"},"geometry":{"type":"Polygon","coordinates":[[[4.780556,53.03175],[4.798137,53.03123],[4.815549,53.029672],[4.832624,53.027094],[4.849198,53.023519],[4.865111,53.018981],[4.880209,53.013526],[4.894347,53.007204],[4.90739,53.000077],[4.919211,52.992214],[4.929697,52.98369],[4.938747,52.974588],[4.946273,52.964994],[4.952203,52.955002],[4.95648,52.944708],[4.959063,52.934211],[4.959927,52.923611],[4.959063,52.913012],[4.95648,52.902514],[4.952203,52.89222],[4.946273,52.882228],[4.938747,52.872635],[4.929697,52.863532],[4.919211,52.855008],[4.90739,52.847145],[4.894347,52.840018],[4.880209,52.833697],[4.865111,52.828241],[4.849198,52.823704],[4.832624,52.820128],[4.815549,52.81755],[4.798137,52.815993],[4.780556,52.815472],[4.762974,52.815993],[4.745562,52.81755],[4.728487,52.820128],[4.711913,52.823704],[4.696001,52.828241],[4.680902,52.833697],[4.666764,52.840018],[4.653721,52.847145],[4.6419,52.855008],[4.631414,52.863532],[4.622364,52.872635],[4.614838,52.882228],[4.608908,52.89222],[4.604631,52.902514],[4.602048,52.913012],[4.601184,52.923611],[4.602048,52.934211],[4.604631,52.944708],[4.608908,52.955002],[4.614838,52.964994],[4.622364,52.974588],[4.631414,52.98369],[4.6419,52.992214],[4.653721,53.000077],[4.666764,53.007204],[4.680902,53.013526],[4.696001,53.018981],[4.711913,53.023519],[4.728487,53.027094],[4.745562,53.029672],[4.762974,53.03123],[4.780556,53.03175]]]}},{"type":"Feature","properties":{"identifier":"7.4","name":"Nabijheid van vliegveld voor bemand luchtverkeer EHKD DE KOOY CTR","restriction":"CONDITIONAL","rule":"OPEN cat. vluchten zijn hier verboden SPEC cat. vluchten vereisen een privilege op de exploitatievergunning","category":"vliegvelden","source":"AIP Nederland ENR 5.3, ED-269, 22 juli 2024"},"geometry":{"type":"Polygon","coordinates":[[[4.780556,53.040069],[4.799489,53.039508],[4.818241,53.037831],[4.83663,53.035054],[4.854478,53.031204],[4.871615,53.026318],[4.887875,53.020442],[4.903101,53.013634],[4.917147,53.005959],[4.929877,52.997491],[4.94117,52.988311],[4.950915,52.978509],[4.95902,52.968178],[4.965407,52.957417],[4.970013,52.946331],[4.972794,52.935026],[4.973725,52.923611],[4.972794,52.912196],[4.970013,52.900891],[4.965407,52.889805],[4.95902,52.879045],[4.950915,52.868713],[4.94117,52.858911],[4.929877,52.849731],[4.917147,52.841263],[4.903101,52.833588],[4.887875,52.82678],[4.871615,52.820905],[4.854478,52.816018],[4.83663,52.812168],[4.818241,52.809391],[4.799489,52.807714],[4.780556,52.807154],[4.761622,52.807714],[4.74287,52.809391],[4.724482,52.812168],[4.706633,52.816018],[4.689496,52.820905],[4.673237,52.82678],[4.65801,52.833588],[4.643964,52.841263],[4.631234,52.849731],[4.619941,52.858911],[4.610196,52.868713],[4.602091,52.879045],[4.595704,52.889805],[4.591098,52.900891],[4.588317,52.912196],[4.587387,52.923611],[4.588317,52.935026],[4.591098,52.946331],[4.595704,52.957417],[4.602091,52.968178],[4.610196,52.978509],[4.619941,52.988311],[4.631234,52.997491],[4.643964,53.005959],[4.65801,53.013634],[4.673237,53.020442],[4.689496,53.026318],[4.706633,53.031204],[4.724482,53.035054],[4.74287,53.037831],[4.761622,53.039508],[4.780556,53.040069]]]}},{"type":"Feature","properties":{"identifier":"7.5","name":"Nabijheid van vliegveld voor bemand luchtverkeer EHKD DE KOOY CTR","restriction":"CONDITIONAL","rule":"OPEN cat. vluchten zijn hier verboden SPEC cat. vluchten vereisen een privilege op de exploitatievergunning","category":"vliegvelden","source":"AIP Nederland ENR 5.3, ED-269, 22 juli 2024"},"geometry":{"type":"Polygon","coordinates":[[[4.92555555555556,52.9872222222222],[4.82388888888889,53.0286111111111],[4.82722222222222,53.0366666666667],[4.93666666666667,52.9919444444444],[4.92555555555556,52.9872222222222]]]}},{"type":"Feature","properties":{"identifier":"7.6","name":"Nabijheid van vliegveld voor bemand luchtverkeer EHRD ROTTERDAM CTR","restriction":"CONDITIONAL","rule":"OPEN cat. vluchten zijn hier verboden SPEC cat. vluchten vereisen een privilege op de exploitatievergunning","category":"vliegvelden","source":"AIP Nederland ENR 5.3, ED-269, 22 juli 2024"},"geometry":{"type":"Polygon","coordinates":[[[4.31388888888889,51.8477777777778],[4.21083333333333,51.8061111111111],[4.1225,51.8897222222222],[4.22583333333333,51.9313888888889],[4.31388888888889,51.8477777777778]]]}},{"type":"Feature","properties":{"identifier":"7.7","name":"Nabijheid van vliegveld voor bemand luchtverkeer EHRD ROTTERDAM CTR","restriction":"CONDITIONAL","rule":"OPEN cat. vluchten zijn hier verboden SPEC cat. vluchten vereisen een privilege op de exploitatievergunning","category":"vliegvelden","source":"AIP Nederland ENR 5.3, ED-269, 22 juli 2024"},"geometry":{"type":"Polygon","coordinates":[[[4.437222,52.090039],[4.458391,52.089398],[4.479357,52.087481],[4.499916,52.084308],[4.519872,52.079908],[4.539031,52.074323],[4.557211,52.067608],[4.574234,52.059828],[4.589939,52.051056],[4.604172,52.041379],[4.616798,52.030888],[4.627694,52.019685],[4.636756,52.007877],[4.643896,51.99558],[4.649046,51.98291],[4.652156,51.96999],[4.653196,51.956944],[4.652156,51.943899],[4.649046,51.930979],[4.643896,51.918309],[4.636756,51.906011],[4.627694,51.894204],[4.616798,51.883001],[4.604172,51.87251],[4.589939,51.862832],[4.574234,51.854061],[4.557211,51.846281],[4.539031,51.839566],[4.519872,51.833981],[4.499916,51.829581],[4.479357,51.826407],[4.458391,51.824491],[4.437222,51.82385],[4.416053,51.824491],[4.395088,51.826407],[4.374528,51.829581],[4.354573,51.833981],[4.335413,51.839566],[4.317234,51.846281],[4.30021,51.854061],[4.284506,51.862832],[4.270272,51.87251],[4.257647,51.883001],[4.246751,51.894204],[4.237689,51.906011],[4.230549,51.918309],[4.225399,51.930979],[4.222289,51.943899],[4.221249,51.956944],[4.222289,51.96999],[4.225399,51.98291],[4.230549,51.99558],[4.237689,52.007877],[4.246751,52.019685],[4.257647,52.030888],[4.270272,52.041379],[4.284506,52.051056],[4.30021,52.059828],[4.317234,52.067608],[4.335413,52.074323],[4.354573,52.079908],[4.374528,52.084308],[4.395088,52.087481],[4.416053,52.089398],[4.437222,52.090039]]]}},{"type":"Feature","properties":{"identifier":"7.8","name":"Nabijheid van vliegveld voor bemand luchtverkeer EHGR GILZE-RIJEN CTR","restriction":"CONDITIONAL","rule":"OPEN cat. vluchten zijn hier verboden SPEC cat. vluchten vereisen een privilege op de exploitatievergunning","category":"vliegvelden","source":"AIP Nederland ENR 5.3, ED-269, 22 juli 2024"},"geometry":{"type":"Polygon","coordinates":[[[4.758333,51.573056],[4.758889,51.5575],[4.762222,51.544167],[4.768056,51.531389],[4.776389,51.519167],[4.789167,51.505833],[4.798056,51.499722],[4.801944,51.498056],[4.8025,51.4975],[4.803333,51.497778],[4.803889,51.497778],[4.805556,51.4975],[4.806944,51.496944],[4.807778,51.496667],[4.809722,51.495833],[4.811111,51.495556],[4.813333,51.495556],[4.816667,51.494167],[4.818056,51.491111],[4.8175,51.489167],[4.820278,51.485833],[4.820833,51.483056],[4.828889,51.481667],[4.835,51.482222],[4.839722,51.481111],[4.840278,51.478611],[4.849722,51.472222],[4.868611,51.466667],[4.885556,51.463056],[4.903056,51.460556],[4.920833,51.459444],[4.938611,51.459167],[4.956389,51.460278],[4.973889,51.4625],[4.990833,51.465556],[5.01,51.470833],[5.016667,51.475278],[5.016944,51.475556],[5.018889,51.4775],[5.019167,51.478056],[5.02,51.478889],[5.021389,51.481111],[5.023611,51.481944],[5.025556,51.483333],[5.028889,51.484444],[5.032222,51.485833],[5.033333,51.487222],[5.038889,51.487222],[5.040278,51.486389],[5.038889,51.4825],[5.048611,51.4875],[5.063056,51.496667],[5.075278,51.506389],[5.085556,51.517222],[5.093889,51.528611],[5.1,51.540556],[5.103889,51.553056],[5.105556,51.565556],[5.104722,51.578056],[5.101389,51.590556],[5.096111,51.6025],[5.088333,51.614167],[5.078611,51.625278],[5.066944,51.635556],[5.053333,51.644722],[5.038056,51.653056],[5.021389,51.66],[5.003611,51.665833],[4.984722,51.670556],[4.965,51.673611],[4.945,51.675278],[4.925,51.675556],[4.904722,51.674167],[4.885,51.671667],[4.865833,51.6675],[4.847778,51.661944],[4.830556,51.655278],[4.815,51.6475],[4.800833,51.638333],[4.788611,51.628611],[4.778056,51.617778],[4.769722,51.606389],[4.763611,51.594167],[4.759722,51.581667],[4.758333,51.573056]]]}},{"type":"Feature","properties":{"identifier":"7.9","name":"Nabijheid van vliegveld voor bemand luchtverkeer EHEH EINDHOVEN CTR","restriction":"CONDITIONAL","rule":"OPEN cat. vluchten zijn hier verboden SPEC cat. vluchten vereisen een privilege op de exploitatievergunning","category":"vliegvelden","source":"AIP Nederland ENR 5.3, ED-269, 22 juli 2024"},"geometry":{"type":"Polygon","coordinates":[[[5.38972222222222,51.6480555555556],[5.69138888888889,51.4594444444445],[5.525,51.3558333333333],[5.22333333333333,51.5441666666667],[5.38972222222222,51.6480555555556]]]}},{"type":"Feature","properties":{"identifier":"7.10","name":"Nabijheid van vliegveld voor bemand luchtverkeer EHEH EINDHOVEN CTR","restriction":"CONDITIONAL","rule":"OPEN cat. vluchten zijn hier verboden SPEC cat. vluchten vereisen een privilege op de exploitatievergunning","category":"vliegvelden","source":"AIP Nederland ENR 5.3, ED-269, 22 juli 2024"},"geometry":{"type":"Polygon","coordinates":[[[5.374444,51.583094],[5.395378,51.582454],[5.416109,51.580537],[5.43644,51.577363],[5.456173,51.572963],[5.475119,51.567379],[5.493096,51.560664],[5.50993,51.552883],[5.525459,51.544112],[5.539534,51.534434],[5.552019,51.523943],[5.562794,51.51274],[5.571755,51.500933],[5.578815,51.488635],[5.583908,51.475965],[5.586983,51.463046],[5.588011,51.45],[5.586983,51.436954],[5.583908,51.424035],[5.578815,51.411365],[5.571755,51.399067],[5.562794,51.38726],[5.552019,51.376057],[5.539534,51.365566],[5.525459,51.355888],[5.50993,51.347117],[5.493096,51.339336],[5.475119,51.332621],[5.456173,51.327037],[5.43644,51.322637],[5.416109,51.319463],[5.395378,51.317546],[5.374444,51.316906],[5.353511,51.317546],[5.33278,51.319463],[5.312449,51.322637],[5.292716,51.327037],[5.27377,51.332621],[5.255793,51.339336],[5.238959,51.347117],[5.22343,51.355888],[5.209355,51.365566],[5.19687,51.376057],[5.186095,51.38726],[5.177134,51.399067],[5.170074,51.411365],[5.164981,51.424035],[5.161906,51.436954],[5.160877,51.45],[5.161906,51.463046],[5.164981,51.475965],[5.170074,51.488635],[5.177134,51.500933],[5.186095,51.51274],[5.19687,51.523943],[5.209355,51.534434],[5.22343,51.544112],[5.238959,51.552883],[5.255793,51.560664],[5.27377,51.567379],[5.292716,51.572963],[5.312449,51.577363],[5.33278,51.580537],[5.353511,51.582454],[5.374444,51.583094]]]}},{"type":"Feature","properties":{"identifier":"7.11","name":"Nabijheid van vliegveld voor bemand luchtverkeer EHVL VOLKEL CTR","restriction":"CONDITIONAL","rule":"OPEN cat. vluchten zijn hier verboden SPEC cat. vluchten vereisen een privilege op de exploitatievergunning","category":"vliegvelden","source":"AIP Nederland ENR 5.3, ED-269, 22 juli 2024"},"geometry":{"type":"Polygon","coordinates":[[[5.38972222222222,51.6480555555556],[5.55666666666667,51.7516666666667],[5.85833333333333,51.5625],[5.69138888888889,51.4594444444445],[5.38972222222222,51.6480555555556]]]}},{"type":"Feature","properties":{"identifier":"7.12","name":"Nabijheid van vliegveld voor bemand luchtverkeer EHVL VOLKEL CTR","restriction":"CONDITIONAL","rule":"OPEN cat. vluchten zijn hier verboden SPEC cat. vluchten vereisen een privilege op de exploitatievergunning","category":"vliegvelden","source":"AIP Nederland ENR 5.3, ED-269, 22 juli 2024"},"geometry":{"type":"Polygon","coordinates":[[[5.707778,51.790317],[5.728807,51.789676],[5.749633,51.787759],[5.770056,51.784586],[5.78988,51.780185],[5.808912,51.774601],[5.826971,51.767886],[5.843882,51.760106],[5.859482,51.751334],[5.873621,51.741656],[5.886163,51.731166],[5.896987,51.719962],[5.905989,51.708155],[5.913082,51.695857],[5.918198,51.683188],[5.921287,51.670268],[5.92232,51.657222],[5.921287,51.644177],[5.918198,51.631257],[5.913082,51.618587],[5.905989,51.606289],[5.896987,51.594482],[5.886163,51.583279],[5.873621,51.572788],[5.859482,51.56311],[5.843882,51.554339],[5.826971,51.546558],[5.808912,51.539843],[5.78988,51.534259],[5.770056,51.529859],[5.749633,51.526685],[5.728807,51.524769],[5.707778,51.524128],[5.686749,51.524769],[5.665923,51.526685],[5.645499,51.529859],[5.625676,51.534259],[5.606643,51.539843],[5.588585,51.546558],[5.571674,51.554339],[5.556074,51.56311],[5.541934,51.572788],[5.529393,51.583279],[5.518568,51.594482],[5.509567,51.606289],[5.502474,51.618587],[5.497358,51.631257],[5.494269,51.644177],[5.493236,51.657222],[5.494269,51.670268],[5.497358,51.683188],[5.502474,51.695857],[5.509567,51.708155],[5.518568,51.719962],[5.529393,51.731166],[5.541934,51.741656],[5.556074,51.751334],[5.571674,51.760106],[5.588585,51.767886],[5.606643,51.774601],[5.625676,51.780185],[5.645499,51.784586],[5.665923,51.787759],[5.686749,51.789676],[5.707778,51.790317]]]}},{"type":"Feature","properties":{"identifier":"7.13","name":"Nabijheid van vliegveld voor bemand luchtverkeer EHBK MAASTRICHT CTR","restriction":"CONDITIONAL","rule":"OPEN cat. vluchten zijn hier verboden SPEC cat. vluchten vereisen een privilege op de exploitatievergunning","category":"vliegvelden","source":"AIP Nederland ENR 5.3, ED-269, 22 juli 2024"},"geometry":{"type":"Polygon","coordinates":[[[5.63887290674591,50.8476662286917],[5.6392103433609,50.8463095793837],[5.640556,50.844722],[5.642290222229,50.8430693129067],[5.64122222222222,50.8428888888889],[5.64277777777778,50.8414722222222],[5.64186889814758,50.8408126750265],[5.64408333333333,50.8398333333333],[5.64533333333333,50.8393888888889],[5.64377098280334,50.8379473861166],[5.64675,50.8363888888889],[5.64741511904907,50.8359210844765],[5.64722222222222,50.8358333333333],[5.64797222222222,50.8350277777778],[5.64830081349182,50.8332042539349],[5.65002777777778,50.8338888888889],[5.65096079629517,50.8327441190729],[5.65136111111111,50.8319722222222],[5.651111,50.831111],[5.65030555555556,50.8299444444444],[5.65032091534424,50.8291939527808],[5.64997222222222,50.8283333333333],[5.64952777777778,50.8278333333333],[5.64880555555555,50.8268888888889],[5.648889,50.826667],[5.6492713888855,50.8263552538144],[5.65188888888889,50.8275],[5.65613888888889,50.8242777777778],[5.65544843673706,50.823759539227],[5.65641666666667,50.8231666666667],[5.65527777777778,50.8219722222222],[5.65433263778687,50.8213060232413],[5.65519444444444,50.8209444444444],[5.65390348434448,50.8200317705433],[5.65583333333333,50.8193888888889],[5.65683333333333,50.8192777777778],[5.659,50.8185],[5.66270112991333,50.8181881096678],[5.66333333333333,50.8180277777778],[5.66372222222222,50.8178333333333],[5.66419444444444,50.81725],[5.66516666666667,50.8170555555556],[5.66525,50.8172222222222],[5.66671371459961,50.8172526950109],[5.66636111111111,50.8168611111111],[5.66766666666667,50.8165277777778],[5.66794444444445,50.8167777777778],[5.668044090271,50.8177542966852],[5.66947222222222,50.8178333333333],[5.66993236541748,50.817415377185],[5.66966666666667,50.8172777777778],[5.67041666666667,50.8171111111111],[5.67266666666667,50.8169722222222],[5.67313888888889,50.8159722222222],[5.67477777777778,50.8161666666667],[5.67819356918335,50.8164799471011],[5.67841666666667,50.8150555555556],[5.67938888888889,50.81475],[5.67963888888889,50.814],[5.67966666666667,50.8133055555556],[5.68,50.8125],[5.68061111111111,50.812],[5.68122222222222,50.8121111111111],[5.68155555555556,50.8121111111111],[5.68208333333333,50.8123055555556],[5.68247222222222,50.8127777777778],[5.68305555555556,50.8132222222222],[5.68383333333333,50.8133611111111],[5.68436111111111,50.8133888888889],[5.68422317504883,50.8131176666663],[5.68455555555556,50.8128055555556],[5.68594444444444,50.8124722222222],[5.68602777777778,50.8122222222222],[5.68691666666667,50.8123055555556],[5.6868839263916,50.8120601252301],[5.68869444444444,50.8118055555556],[5.68870782852173,50.811639813648],[5.69008333333333,50.8118333333333],[5.69113888888889,50.8118888888889],[5.69175,50.8120833333333],[5.69387912750244,50.8115177870082],[5.69355555555556,50.7996944444444],[5.69388888888889,50.7970277777778],[5.69452285766602,50.7943630917692],[5.69561111111111,50.7915555555556],[5.69693768584442,50.7886291322195],[5.69718388360596,50.7880839321299],[5.75986935449219,50.808056],[5.782222,50.807778],[5.8,50.808611],[5.8175,50.810833],[5.834722,50.813889],[5.851111,50.818333],[5.866667,50.823889],[5.881389,50.830278],[5.895,50.8375],[5.907222,50.845833],[5.920278,50.856944],[6.085,50.911389],[6.08633333333333,50.9121111111111],[6.086667,50.913056],[6.08672222222222,50.9140555555555],[6.08931525396729,50.9162462811969],[6.09177777777778,50.9171666666667],[6.09354757672119,50.9191128908404],[6.09433333333333,50.9205555555556],[6.09369493121338,50.9212388013549],[6.09023508465576,50.9195792716407],[6.08943308996582,50.9185106152323],[6.08683333333333,50.9193611111111],[6.08378648757935,50.9209558351201],[6.082222,50.9215587875323],[6.07747222222222,50.9225833333333],[6.07477777777778,50.9228055555556],[6.07179574603271,50.9231506828399],[6.06808605557251,50.9206510893439],[6.06688888888889,50.9207222222222],[6.06591666666667,50.921],[6.06413888888889,50.9215555555555],[6.06301546096802,50.9220785412244],[6.06230555555556,50.9217222222222],[6.06170991534424,50.9212462671812],[6.05396032333374,50.9222138053775],[6.05619192123413,50.9271912460968],[6.05084896087646,50.9299232016856],[6.04883333333333,50.9292777777778],[6.04702777777778,50.9283888888889],[6.04552777777778,50.9280555555556],[6.04466666666667,50.92925],[6.04041666666667,50.9306666666667],[6.03830555555556,50.9309166666667],[6.01802777777778,50.9346944444444],[6.01502777777778,50.9479444444444],[6.01680555555556,50.9524444444444],[6.00488888888889,50.9566944444445],[6.00891666666667,50.9595277777778],[6.01302777777778,50.9603333333333],[6.01569444444444,50.9628055555556],[6.01844444444444,50.9677222222222],[6.02119444444444,50.9709166666667],[6.02668762207031,50.9815432055893],[6.02638721466064,50.9832047978474],[6.02313888888889,50.9832222222222],[6.01955555555556,50.9837777777778],[6.01733207702637,50.9837316317564],[6.01741666666667,50.9833611111111],[5.98436111111111,50.9821111111111],[5.98227777777778,50.9831388888889],[5.98088888888889,50.9831944444445],[5.97963888888889,50.983],[5.97386111111111,50.9805277777778],[5.96741666666667,50.97925],[5.96569444444444,50.9798888888889],[5.96510410308838,50.981029856174],[5.95730555555556,50.9848611111111],[5.9553398359375,50.9884593540317],[5.94830171948242,50.9869463496979],[5.93386111111111,50.9853055555556],[5.92769444444444,50.9822777777778],[5.92322222222222,50.9795277777778],[5.91858333333333,50.9776666666667],[5.91738888888889,50.9779444444444],[5.91533333333333,50.9777222222222],[5.91180555555556,50.9764444444444],[5.90519444444444,50.9744444444444],[5.89686111111111,50.9748611111111],[5.89694444444444,50.9765],[5.89575,50.9773611111111],[5.89275,50.9803888888889],[5.89394444444444,50.98125],[5.89566666666667,50.9813055555556],[5.90383333333333,50.98725],[5.90420722961426,50.9958201655052],[5.90536594390869,51.002045529452],[5.89558124542236,51.0045840474647],[5.89558124542236,51.0110107527581],[5.89213888888889,51.0124166666667],[5.88872222222222,51.0133333333333],[5.88527777777778,51.0138055555556],[5.884,51.0133333333333],[5.87858333333333,51.0181944444444],[5.87911111111111,51.0203055555556],[5.87677777777778,51.0236944444444],[5.87686111111111,51.0246666666667],[5.87575,51.0260277777778],[5.87488888888889,51.0294722222222],[5.876784324646,51.0314190856376],[5.877222,51.033611],[5.877222,51.033611],[5.766944,50.998889],[5.763333,50.995278],[5.756667,50.991111],[5.750278,50.983333],[5.747222,50.981111],[5.738611,50.979167],[5.735556,50.976389],[5.734167,50.973056],[5.729167,50.97],[5.72087401586914,50.9634344067521],[5.71952603173828,50.9602239387475],[5.721944,50.957778],[5.72373784655762,50.9559564734962],[5.72952983068848,50.9548995289615],[5.73355555555556,50.9551388888889],[5.736389,50.956389],[5.73872222222222,50.9573611111111],[5.74012204760742,50.9594053186112],[5.743,50.9611111111111],[5.74602516931152,50.9618214781945],[5.74891666666667,50.9611666666667],[5.750833,50.960278],[5.75286111111111,50.9595277777778],[5.75497949206543,50.9583803828004],[5.75613888888889,50.9578055555556],[5.75691666666667,50.9567222222222],[5.75820715344238,50.9552239330862],[5.7591688994751,50.9526275279787],[5.75786383068848,50.9506707828403],[5.75561111111111,50.9498611111111],[5.75061652380371,50.9489430746512],[5.74651484655762,50.9471062296153],[5.74600466137695,50.94353513451],[5.74436111111111,50.9409722222222],[5.74394444444444,50.9387222222222],[5.74102777777778,50.9353055555556],[5.73912118518066,50.9340653614973],[5.73561111111111,50.9323888888889],[5.73261111111111,50.9299444444444],[5.728333,50.925278],[5.72669444444444,50.9228055555556],[5.72588569444275,50.9211842958843],[5.72655555555556,50.9192777777778],[5.72659189814758,50.9185527686397],[5.72722971439362,50.9157950961909],[5.72665034127808,50.9130749876686],[5.72447222222222,50.9105833333333],[5.72276727116394,50.9091672657851],[5.72144444444444,50.9088055555556],[5.72040674603272,50.9080894518318],[5.71897222222222,50.9078333333333],[5.71473082936096,50.9084892274242],[5.71255555555556,50.9096388888889],[5.71059986508179,50.9110088854949],[5.70925,50.9116111111111],[5.70792853832245,50.9118717404521],[5.70647222222222,50.912],[5.70463906878662,50.9118902347322],[5.70291666666667,50.9115833333333],[5.70097222222222,50.911],[5.69946348667145,50.9107623176784],[5.6977243558197,50.9098096803362],[5.6965,50.9085833333333],[5.696111,50.906667],[5.69597661495209,50.9056816356804],[5.69661111111111,50.9049444444444],[5.69691666666667,50.9032222222222],[5.69708333333333,50.9011111111111],[5.695833,50.898611],[5.6925,50.893889],[5.69136111111111,50.8931388888889],[5.68861111111111,50.8920555555556],[5.68694444444444,50.8915555555556],[5.68521267724609,50.8905351766671],[5.68383333333333,50.8893055555556],[5.68261111111111,50.8886111111111],[5.681667,50.8875],[5.67905555555556,50.8836111111111],[5.67888888888889,50.882],[5.67929327487946,50.88047975398],[5.67671835422516,50.880520369472],[5.67633211612701,50.880899445816],[5.67236111111111,50.8810833333333],[5.66977777777778,50.8818888888889],[5.66872222222222,50.8810277777778],[5.66738888888889,50.8803611111111],[5.66477777777778,50.8793888888889],[5.66391666666667,50.8790277777778],[5.66197222222222,50.87875],[5.66075,50.87775],[5.66091666666667,50.8773888888889],[5.65852224826813,50.8762013892183],[5.65797222222222,50.8766666666667],[5.65636111111111,50.8765],[5.65336111111111,50.8740277777778],[5.65133333333333,50.8751666666667],[5.64855555555555,50.8733888888889],[5.648,50.87375],[5.64402777777778,50.8713333333333],[5.64927399158478,50.8683612145027],[5.64702777777778,50.8666111111111],[5.64196765422821,50.864007249638],[5.64389884471893,50.8629237733442],[5.64244444444444,50.8614444444444],[5.64361111111111,50.8605277777778],[5.64172222222222,50.8593055555556],[5.64361111111111,50.8589166666667],[5.64175,50.8575833333333],[5.64341666666667,50.8568333333333],[5.64033333333333,50.8536666666667],[5.64175,50.8525277777778],[5.64188888888889,50.8511944444444],[5.64266666666667,50.8501388888889],[5.64038888888889,50.8495],[5.64072222222222,50.8476944444444],[5.63887290674591,50.8476730033226]]]}},{"type":"Feature","properties":{"identifier":"7.14","name":"Nabijheid van vliegveld voor bemand luchtverkeer EHDL DEELEN CTR","restriction":"CONDITIONAL","rule":"OPEN cat. vluchten zijn hier verboden SPEC cat. vluchten vereisen een privilege op de exploitatievergunning","category":"vliegvelden","source":"AIP Nederland ENR 5.3, ED-269, 22 juli 2024"},"geometry":{"type":"Polygon","coordinates":[[[5.83972222222222,52.1661111111111],[5.8575,52.2016666666667],[6.01277777777778,52.1725],[5.995,52.1369444444444],[5.90388888888889,51.9533333333333],[5.88638888888889,51.9177777777778],[5.73194444444444,51.9469444444444],[5.74916666666667,51.9825],[5.83972222222222,52.1661111111111]]]}},{"type":"Feature","properties":{"identifier":"7.15","name":"Nabijheid van vliegveld voor bemand luchtverkeer","restriction":"CONDITIONAL","rule":"OPEN cat. vluchten zijn hier verboden SPEC cat. vluchten vereisen een privilege op de exploitatievergunning","category":"vliegvelden","source":"AIP Nederland ENR 5.3, ED-269, 22 juli 2024"},"geometry":{"type":"Polygon","coordinates":[[[5.871944,52.167861],[5.889184,52.167341],[5.906257,52.165784],[5.923,52.163205],[5.939252,52.15963],[5.954855,52.155092],[5.969659,52.149637],[5.983523,52.143315],[5.996312,52.136188],[6.007903,52.128325],[6.018185,52.119801],[6.027058,52.110699],[6.034438,52.101105],[6.040253,52.091113],[6.044447,52.080819],[6.046979,52.070322],[6.047826,52.059722],[6.046979,52.049123],[6.044447,52.038625],[6.040253,52.028331],[6.034438,52.018339],[6.027058,52.008746],[6.018185,51.999643],[6.007903,51.991119],[5.996312,51.983256],[5.983523,51.976129],[5.969659,51.969808],[5.954855,51.964352],[5.939252,51.959815],[5.923,51.956239],[5.906257,51.953661],[5.889184,51.952104],[5.871944,51.951583],[5.854705,51.952104],[5.837632,51.953661],[5.820889,51.956239],[5.804637,51.959815],[5.789034,51.964352],[5.77423,51.969808],[5.760366,51.976129],[5.747577,51.983256],[5.735986,51.991119],[5.725704,51.999643],[5.71683,52.008746],[5.709451,52.018339],[5.703636,52.028331],[5.699442,52.038625],[5.696909,52.049123],[5.696063,52.059722],[5.696909,52.070322],[5.699442,52.080819],[5.703636,52.091113],[5.709451,52.101105],[5.71683,52.110699],[5.725704,52.119801],[5.735986,52.128325],[5.747577,52.136188],[5.760366,52.143315],[5.77423,52.149637],[5.789034,52.155092],[5.804637,52.15963],[5.820889,52.163205],[5.837632,52.165784],[5.854705,52.167341],[5.871944,52.167861]]]}},{"type":"Feature","properties":{"identifier":"7.16","name":"Nabijheid van vliegveld voor bemand luchtverkeer","restriction":"CONDITIONAL","rule":"OPEN cat. vluchten zijn hier verboden SPEC cat. vluchten vereisen een privilege op de exploitatievergunning","category":"vliegvelden","source":"AIP Nederland ENR 5.3, ED-269, 22 juli 2024"},"geometry":{"type":"Polygon","coordinates":[[[5.41972222222222,52.4677777777778],[5.41972222222222,52.2722222222222],[5.41361111111111,52.2694444444444],[5.365,52.2713888888889],[5.25333333333333,52.3505555555556],[5.255,52.3752777777778],[5.41972222222222,52.4677777777778]]]}},{"type":"Feature","properties":{"identifier":"7.17","name":"Nabijheid van vliegveld voor bemand luchtverkeer EHLE LELYSTAD CTR 2","restriction":"CONDITIONAL","rule":"OPEN cat. vluchten zijn hier verboden SPEC cat. vluchten vereisen een privilege op de exploitatievergunning","category":"vliegvelden","source":"AIP Nederland ENR 5.3, ED-269, 22 juli 2024"},"geometry":{"type":"Polygon","coordinates":[[[5.62027777777778,52.5797222222222],[5.73055555555556,52.5058333333333],[5.51388888888889,52.3852777777778],[5.56583333333333,52.34],[5.41972222222222,52.2722222222222],[5.41972222222222,52.4677777777778],[5.62027777777778,52.5797222222222]]]}},{"type":"Feature","properties":{"identifier":"7.18","name":"Nabijheid van vliegveld voor bemand luchtverkeer EHGG EELDE CTR","restriction":"CONDITIONAL","rule":"OPEN cat. vluchten zijn hier verboden SPEC cat. vluchten vereisen een privilege op de exploitatievergunning","category":"vliegvelden","source":"AIP Nederland ENR 5.3, ED-269, 22 juli 2024"},"geometry":{"type":"Polygon","coordinates":[[[6.27138888888889,53.0411111111111],[6.40666666666667,53.105],[6.65805555555556,53.2233333333333],[6.79444444444444,53.2869444444444],[6.89694444444444,53.2083333333333],[6.76027777777778,53.1447222222222],[6.50888888888889,53.0266666666667],[6.37333333333333,52.9625],[6.27138888888889,53.0411111111111]]]}},{"type":"Feature","properties":{"identifier":"7.19","name":"Nabijheid van vliegveld voor bemand luchtverkeer EHGG EELDE CTR","restriction":"CONDITIONAL","rule":"OPEN cat. vluchten zijn hier verboden SPEC cat. vluchten vereisen een privilege op de exploitatievergunning","category":"vliegvelden","source":"AIP Nederland ENR 5.3, ED-269, 22 juli 2024"},"geometry":{"type":"Polygon","coordinates":[[[6.583333,53.233139],[6.600997,53.232618],[6.618491,53.231061],[6.635646,53.228483],[6.652297,53.224908],[6.668284,53.22037],[6.683453,53.214914],[6.697658,53.208593],[6.710761,53.201466],[6.722638,53.193603],[6.733173,53.185079],[6.742265,53.175976],[6.749826,53.166383],[6.755784,53.156391],[6.760081,53.146097],[6.762676,53.135599],[6.763544,53.125],[6.762676,53.114401],[6.760081,53.103903],[6.755784,53.093609],[6.749826,53.083617],[6.742265,53.074024],[6.733173,53.064921],[6.722638,53.056397],[6.710761,53.048534],[6.697658,53.041407],[6.683453,53.035086],[6.668284,53.02963],[6.652297,53.025092],[6.635646,53.021517],[6.618491,53.018939],[6.600997,53.017382],[6.583333,53.016861],[6.56567,53.017382],[6.548176,53.018939],[6.531021,53.021517],[6.51437,53.025092],[6.498383,53.02963],[6.483214,53.035086],[6.469009,53.041407],[6.455905,53.048534],[6.444029,53.056397],[6.433494,53.064921],[6.424402,53.074024],[6.41684,53.083617],[6.410883,53.093609],[6.406585,53.103903],[6.403991,53.114401],[6.403123,53.125],[6.403991,53.135599],[6.406585,53.146097],[6.410883,53.156391],[6.41684,53.166383],[6.424402,53.175976],[6.433494,53.185079],[6.444029,53.193603],[6.455905,53.201466],[6.469009,53.208593],[6.483214,53.214914],[6.498383,53.22037],[6.51437,53.224908],[6.531021,53.228483],[6.548176,53.231061],[6.56567,53.232618],[6.583333,53.233139]]]}},{"type":"Feature","properties":{"identifier":"7.20","name":"Nabijheid van vliegveld voor bemand luchtverkeer EHLW LEEUWARDEN CTR","restriction":"CONDITIONAL","rule":"OPEN cat. vluchten zijn hier verboden SPEC cat. vluchten vereisen een privilege op de exploitatievergunning","category":"vliegvelden","source":"AIP Nederland ENR 5.3, ED-269, 22 juli 2024"},"geometry":{"type":"Polygon","coordinates":[[[5.875,53.3363888888889],[5.93416666666667,53.3608333333333],[6.02833333333333,53.2783333333333],[5.96916666666667,53.2538888888889],[5.63083333333333,53.1138888888889],[5.57222222222222,53.0894444444444],[5.4775,53.1713888888889],[5.53611111111111,53.1961111111111],[5.875,53.3363888888889]]]}},{"type":"Feature","properties":{"identifier":"7.21","name":"Nabijheid van vliegveld voor bemand luchtverkeer EHLW LEEUWARDEN CTR","restriction":"CONDITIONAL","rule":"OPEN cat. vluchten zijn hier verboden SPEC cat. vluchten vereisen een privilege op de exploitatievergunning","category":"vliegvelden","source":"AIP Nederland ENR 5.3, ED-269, 22 juli 2024"},"geometry":{"type":"Polygon","coordinates":[[[5.7525,53.358372],[5.774291,53.357731],[5.795872,53.355815],[5.817035,53.352641],[5.837577,53.348241],[5.857299,53.342657],[5.876013,53.335942],[5.893536,53.328161],[5.909702,53.31939],[5.924353,53.309712],[5.93735,53.299221],[5.948566,53.288018],[5.957894,53.276211],[5.965244,53.263913],[5.970545,53.251243],[5.973746,53.238323],[5.974817,53.225278],[5.973746,53.212232],[5.970545,53.199312],[5.965244,53.186643],[5.957894,53.174345],[5.948566,53.162538],[5.93735,53.151334],[5.924353,53.140844],[5.909702,53.131166],[5.893536,53.122394],[5.876013,53.114614],[5.857299,53.107899],[5.837577,53.102315],[5.817035,53.097914],[5.795872,53.094741],[5.774291,53.092824],[5.7525,53.092183],[5.730709,53.092824],[5.709128,53.094741],[5.687965,53.097914],[5.667423,53.102315],[5.647701,53.107899],[5.628987,53.114614],[5.611464,53.122394],[5.595298,53.131166],[5.580647,53.140844],[5.56765,53.151334],[5.556434,53.162538],[5.547106,53.174345],[5.539756,53.186643],[5.534455,53.199312],[5.531254,53.212232],[5.530183,53.225278],[5.531254,53.238323],[5.534455,53.251243],[5.539756,53.263913],[5.547106,53.276211],[5.556434,53.288018],[5.56765,53.299221],[5.580647,53.309712],[5.595298,53.31939],[5.611464,53.328161],[5.628987,53.335942],[5.647701,53.342657],[5.667423,53.348241],[5.687965,53.352641],[5.709128,53.355815],[5.730709,53.357731],[5.7525,53.358372]]]}},{"type":"Feature","properties":{"identifier":"7.22","name":"Nabijheid van vliegveld voor bemand luchtverkeer WOENSDRECHT CTR","restriction":"CONDITIONAL","rule":"OPEN cat. vluchten zijn hier verboden SPEC cat. vluchten vereisen een privilege op de exploitatievergunning","category":"vliegvelden","source":"AIP Nederland ENR 5.3, ED-269, 22 juli 2024"},"geometry":{"type":"Polygon","coordinates":[[[4.12916666666667,51.455],[4.12916666666667,51.4463888888889],[4.12972222222222,51.4380555555556],[4.13138888888889,51.4294444444444],[4.13388888888889,51.4211111111111],[4.13722222222222,51.4127777777778],[4.14111111111111,51.4047222222222],[4.14611111111111,51.3969444444444],[4.15194444444445,51.3891666666667],[4.15833333333333,51.3816666666667],[4.16555555555556,51.3744444444444],[4.17361111111111,51.3675],[4.18222222222222,51.3611111111111],[4.19166666666667,51.3547222222222],[4.20138888888889,51.3491666666667],[4.21194444444444,51.3436111111111],[4.22305555555556,51.3386111111111],[4.24194444444444,51.3538888888889],[4.22666666666667,51.3597222222222],[4.22194444444444,51.3644444444444],[4.22,51.3683333333333],[4.2175,51.3738888888889],[4.30611111111111,51.3769444444444],[4.33444444444444,51.3777777777778],[4.34111111111111,51.3575],[4.34361111111111,51.3575],[4.34888888888889,51.3586111111111],[4.35083333333333,51.3586111111111],[4.35083333333333,51.3583333333333],[4.35333333333333,51.3580555555556],[4.35305555555555,51.3580555555556],[4.35472222222222,51.3580555555556],[4.36305555555556,51.3572222222222],[4.36666666666667,51.3572222222222],[4.3675,51.3569444444444],[4.36833333333333,51.3561111111111],[4.36972222222222,51.3566666666667],[4.37888888888889,51.355],[4.38416666666667,51.3552777777778],[4.38472222222222,51.3544444444444],[4.38972222222222,51.3552777777778],[4.39388888888889,51.3555555555556],[4.39888888888889,51.3569444444444],[4.42222222222222,51.3652777777778],[4.43138888888889,51.3638888888889],[4.43111111111111,51.365],[4.43,51.3675],[4.42805555555556,51.3697222222222],[4.42527777777778,51.3713888888889],[4.43166666666667,51.375],[4.39166666666667,51.4083333333333],[4.38361111111111,51.4211111111111],[4.38972222222222,51.4244444444444],[4.39055555555556,51.4241666666667],[4.39138888888889,51.4275],[4.39527777777778,51.4269444444444],[4.39527777777778,51.4275],[4.39444444444444,51.4280555555556],[4.39472222222222,51.4286111111111],[4.39416666666667,51.4294444444444],[4.39444444444444,51.4313888888889],[4.39222222222222,51.4313888888889],[4.3925,51.4327777777778],[4.39722222222222,51.4316666666667],[4.39888888888889,51.4352777777778],[4.39555555555556,51.4355555555556],[4.39555555555556,51.4366666666667],[4.39527777777778,51.4366666666667],[4.39527777777778,51.4380555555556],[4.39555555555556,51.44],[4.39694444444445,51.4408333333333],[4.39666666666667,51.4419444444444],[4.39305555555556,51.4452777777778],[4.39222222222222,51.4463888888889],[4.38805555555556,51.4452777777778],[4.38777777777778,51.4455555555556],[4.38666666666667,51.4452777777778],[4.37916666666667,51.4466666666667],[4.37972222222222,51.4477777777778],[4.38138888888889,51.4483333333333],[4.38277777777778,51.4502777777778],[4.38472222222222,51.4494444444444],[4.4425,51.4686111111111],[4.45694444444444,51.4697222222222],[4.46583333333333,51.4713888888889],[4.46666666666667,51.4719444444444],[4.46722222222222,51.4730555555556],[4.46805555555556,51.4733333333333],[4.46861111111111,51.4741666666667],[4.47194444444444,51.4763888888889],[4.47611111111111,51.4780555555556],[4.48,51.4783333333333],[4.48666666666667,51.4775],[4.53833333333333,51.4825],[4.54805555555556,51.4733333333333],[4.53,51.4494444444444],[4.53555555555556,51.4230555555555],[4.55222222222222,51.4272222222222],[4.55472222222222,51.4408333333333],[4.555,51.4541666666667],[4.55305555555555,51.4677777777778],[4.54916666666667,51.4811111111111],[4.54277777777778,51.4941666666667],[4.53444444444444,51.5066666666667],[4.52416666666667,51.5183333333333],[4.51194444444444,51.5297222222222],[4.49777777777778,51.54],[4.48222222222222,51.5494444444444],[4.465,51.5577777777778],[4.44666666666667,51.565],[4.42722222222222,51.5711111111111],[4.40694444444444,51.5758333333333],[4.38583333333333,51.5794444444444],[4.36444444444444,51.5813888888889],[4.34277777777778,51.5822222222222],[4.32083333333333,51.5813888888889],[4.29944444444444,51.5794444444444],[4.27833333333333,51.5761111111111],[4.25805555555556,51.5713888888889],[4.23861111111111,51.5652777777778],[4.22,51.5583333333333],[4.20277777777778,51.55],[4.18722222222222,51.5405555555556],[4.17305555555556,51.5302777777778],[4.16083333333333,51.5191666666667],[4.15027777777778,51.5072222222222],[4.14194444444444,51.4947222222222],[4.13555555555556,51.4816666666667],[4.13138888888889,51.4683333333333],[4.12916666666667,51.455]]]}},{"type":"Feature","properties":{"identifier":"7.23","name":"Nabijheid van vliegveld voor bemand luchtverkeer De PEEL CTR","restriction":"CONDITIONAL","rule":"OPEN cat. vluchten zijn hier verboden SPEC cat. vluchten vereisen een privilege op de exploitatievergunning","category":"vliegvelden","source":"AIP Nederland ENR 5.3, ED-269, 22 juli 2024"},"geometry":{"type":"Polygon","coordinates":[[[5.91305555555556,51.6194444444444],[5.90638888888889,51.4138888888889],[5.43833333333333,51.3230555555556],[5.525,51.3558333333333],[5.85833333333333,51.5625],[5.91305555555556,51.6194444444444]]]}},{"type":"Feature","properties":{"identifier":"7.24","name":"Nabijheid van vliegveld voor bemand luchtverkeer De PEEL CTR","restriction":"CONDITIONAL","rule":"OPEN cat. vluchten zijn hier verboden SPEC cat. vluchten vereisen een privilege op de exploitatievergunning","category":"vliegvelden","source":"AIP Nederland ENR 5.3, ED-269, 22 juli 2024"},"geometry":{"type":"Polygon","coordinates":[[[5.855556,51.625361],[5.872589,51.624841],[5.889458,51.623284],[5.906001,51.620705],[5.922058,51.61713],[5.937474,51.612592],[5.952102,51.607137],[5.9658,51.600815],[5.978436,51.593688],[5.989889,51.585825],[6.000048,51.577301],[6.008815,51.568199],[6.016107,51.558605],[6.021852,51.548613],[6.025996,51.538319],[6.028498,51.527822],[6.029335,51.517222],[6.028498,51.506623],[6.025996,51.496125],[6.021852,51.485831],[6.016107,51.475839],[6.008815,51.466246],[6.000048,51.457143],[5.989889,51.448619],[5.978436,51.440756],[5.9658,51.433629],[5.952102,51.427308],[5.937474,51.421852],[5.922058,51.417315],[5.906001,51.413739],[5.889458,51.411161],[5.872589,51.409604],[5.855556,51.409083],[5.838522,51.409604],[5.821653,51.411161],[5.80511,51.413739],[5.789053,51.417315],[5.773637,51.421852],[5.759009,51.427308],[5.745311,51.433629],[5.732675,51.440756],[5.721222,51.448619],[5.711063,51.457143],[5.702296,51.466246],[5.695005,51.475839],[5.689259,51.485831],[5.685116,51.496125],[5.682613,51.506623],[5.681776,51.517222],[5.682613,51.527822],[5.685116,51.538319],[5.689259,51.548613],[5.695005,51.558605],[5.702296,51.568199],[5.711063,51.577301],[5.721222,51.585825],[5.732675,51.593688],[5.745311,51.600815],[5.759009,51.607137],[5.773637,51.612592],[5.789053,51.61713],[5.80511,51.620705],[5.821653,51.623284],[5.838522,51.624841],[5.855556,51.625361]]]}},{"type":"Feature","properties":{"identifier":"7.25","name":"Nabijheid van vliegveld voor bemand luchtverkeer De PEEL CTR","restriction":"CONDITIONAL","rule":"OPEN cat. vluchten zijn hier verboden SPEC cat. vluchten vereisen een privilege op de exploitatievergunning","category":"vliegvelden","source":"AIP Nederland ENR 5.3, ED-269, 22 juli 2024"},"geometry":{"type":"Polygon","coordinates":[[[5.374444,51.583094],[5.395378,51.582454],[5.416109,51.580537],[5.43644,51.577363],[5.456173,51.572963],[5.475119,51.567379],[5.493096,51.560664],[5.50993,51.552883],[5.525459,51.544112],[5.539534,51.534434],[5.552019,51.523943],[5.562794,51.51274],[5.571755,51.500933],[5.578815,51.488635],[5.583908,51.475965],[5.586983,51.463046],[5.588011,51.45],[5.586983,51.436954],[5.583908,51.424035],[5.578815,51.411365],[5.571755,51.399067],[5.562794,51.38726],[5.552019,51.376057],[5.539534,51.365566],[5.525459,51.355888],[5.50993,51.347117],[5.493096,51.339336],[5.475119,51.332621],[5.456173,51.327037],[5.43644,51.322637],[5.416109,51.319463],[5.395378,51.317546],[5.374444,51.316906],[5.353511,51.317546],[5.33278,51.319463],[5.312449,51.322637],[5.292716,51.327037],[5.27377,51.332621],[5.255793,51.339336],[5.238959,51.347117],[5.22343,51.355888],[5.209355,51.365566],[5.19687,51.376057],[5.186095,51.38726],[5.177134,51.399067],[5.170074,51.411365],[5.164981,51.424035],[5.161906,51.436954],[5.160877,51.45],[5.161906,51.463046],[5.164981,51.475965],[5.170074,51.488635],[5.177134,51.500933],[5.186095,51.51274],[5.19687,51.523943],[5.209355,51.534434],[5.22343,51.544112],[5.238959,51.552883],[5.255793,51.560664],[5.27377,51.567379],[5.292716,51.572963],[5.312449,51.577363],[5.33278,51.580537],[5.353511,51.582454],[5.374444,51.583094]]]}},{"type":"Feature","properties":{"identifier":"7.26","name":"Nabijheid van vliegveld voor bemand luchtverkeer De PEEL CTR","restriction":"CONDITIONAL","rule":"OPEN cat. vluchten zijn hier verboden SPEC cat. vluchten vereisen een privilege op de exploitatievergunning","category":"vliegvelden","source":"AIP Nederland ENR 5.3, ED-269, 22 juli 2024"},"geometry":{"type":"Polygon","coordinates":[[[5.707778,51.790317],[5.728807,51.789676],[5.749633,51.787759],[5.770056,51.784586],[5.78988,51.780185],[5.808912,51.774601],[5.826971,51.767886],[5.843882,51.760106],[5.859482,51.751334],[5.873621,51.741656],[5.886163,51.731166],[5.896987,51.719962],[5.905989,51.708155],[5.913082,51.695857],[5.918198,51.683188],[5.921287,51.670268],[5.92232,51.657222],[5.921287,51.644177],[5.918198,51.631257],[5.913082,51.618587],[5.905989,51.606289],[5.896987,51.594482],[5.886163,51.583279],[5.873621,51.572788],[5.859482,51.56311],[5.843882,51.554339],[5.826971,51.546558],[5.808912,51.539843],[5.78988,51.534259],[5.770056,51.529859],[5.749633,51.526685],[5.728807,51.524769],[5.707778,51.524128],[5.686749,51.524769],[5.665923,51.526685],[5.645499,51.529859],[5.625676,51.534259],[5.606643,51.539843],[5.588585,51.546558],[5.571674,51.554339],[5.556074,51.56311],[5.541934,51.572788],[5.529393,51.583279],[5.518568,51.594482],[5.509567,51.606289],[5.502474,51.618587],[5.497358,51.631257],[5.494269,51.644177],[5.493236,51.657222],[5.494269,51.670268],[5.497358,51.683188],[5.502474,51.695857],[5.509567,51.708155],[5.518568,51.719962],[5.529393,51.731166],[5.541934,51.741656],[5.556074,51.751334],[5.571674,51.760106],[5.588585,51.767886],[5.606643,51.774601],[5.625676,51.780185],[5.645499,51.784586],[5.665923,51.787759],[5.686749,51.789676],[5.707778,51.790317]]]}},{"type":"Feature","properties":{"identifier":"7.27","name":"Nabijheid van vliegveld voor bemand luchtverkeer EDLV NIEDERRHEIN CTR","restriction":"CONDITIONAL","rule":"OPEN cat. vluchten zijn hier verboden SPEC cat. vluchten vereisen een privilege op de exploitatievergunning","category":"vliegvelden","source":"AIP Nederland ENR 5.3, ED-269, 22 juli 2024"},"geometry":{"type":"Polygon","coordinates":[[[5.913056,51.618889],[5.937222,51.612778],[5.965556,51.601111],[5.989722,51.585833],[6.008611,51.568333],[6.016667,51.5575],[6.16794192480469,51.5526027459521],[6.15836111111111,51.5659722222222],[6.14633333333333,51.5708333333333],[6.13105555555556,51.5805833333333],[6.12213888888889,51.5925277777778],[6.11783333333333,51.5935],[6.09122222222222,51.6059722222222],[6.0945,51.6147222222222],[6.09380722045898,51.6224928938119],[6.09688888888889,51.621],[6.10033333333333,51.6244166666667],[6.10752777777778,51.6416666666667],[6.11138888888889,51.6446666666667],[6.10941666666667,51.6469444444444],[6.11705555555556,51.6506666666667],[6.116389,51.651389],[5.921111,51.646389],[5.916667,51.628333],[5.913056,51.618889]]]}}]}